{
  "id": 739309597,
  "type": "Feature",
  "properties": {
    "edtf:cessation":"uuuu",
    "edtf:inception":"uuuu",
    "geom:area":0.0,
    "geom:bbox":"-77.546492,37.443675,-77.546492,37.443675",
    "geom:latitude":37.443675,
    "geom:longitude":-77.546492,
    "iso:country":"US",
    "sg:address":"8236 Trappers Creek Trl",
    "sg:city":"Chesterfield",
    "sg:classifiers":[
        {
            "category":"Building & Trades",
            "subcategory":"Construction",
            "type":"Services"
        }
    ],
    "sg:owner":"simplegeo",
    "sg:phone":"+1 804 639 7776",
    "sg:postcode":"23832",
    "sg:province":"VA",
    "sg:tags":[
        "house"
    ],
    "src:geom":"simplegeo",
    "wof:belongsto":[],
    "wof:breaches":[],
    "wof:concordances":{
        "sg:id":"SG_6E4Kn5m0UlpbX88EclKpVI_37.443675_-77.546492@1294252573"
    },
    "wof:country":"US",
    "wof:created":1461904761,
    "wof:geomhash":"4f9a7e42502e4c128dac5fc77786ad40",
    "wof:hierarchy":[],
    "wof:id":739309597,
    "wof:lastmodified":1461904761,
    "wof:name":"Wagner Home Improvement",
    "wof:parent_id":420546613,
    "wof:placetype":"venue",
    "wof:superseded_by":[],
    "wof:supersedes":[],
    "wof:tags":[
        "house"
    ]
},
  "bbox": [
    -77.546492,
    37.443675,
    -77.546492,
    37.443675
],
  "geometry": {"coordinates":[-77.546492,37.443675],"type":"Point"}
}