{
  "id": 739477721,
  "type": "Feature",
  "properties": {
    "edtf:cessation":"uuuu",
    "edtf:inception":"uuuu",
    "geom:area":0.0,
    "geom:bbox":"-77.847218,36.7594,-77.847218,36.7594",
    "geom:latitude":36.7594,
    "geom:longitude":-77.847218,
    "iso:country":"US",
    "sg:address":"321 N Main St",
    "sg:city":"Lawrenceville",
    "sg:classifiers":[
        {
            "category":"Shopping",
            "subcategory":"Clothing, Apparel, & Fashions",
            "type":"Retail Goods"
        }
    ],
    "sg:owner":"simplegeo",
    "sg:phone":"+1 434 848 4423",
    "sg:postcode":"23868",
    "sg:province":"VA",
    "sg:tags":[
        "ready",
        "furnishing"
    ],
    "src:geom":"simplegeo",
    "wof:belongsto":[],
    "wof:breaches":[],
    "wof:concordances":{
        "sg:id":"SG_42Q03kUgZfaCtRA1XW8c3T_36.759400_-77.847218@1294252573"
    },
    "wof:country":"US",
    "wof:created":1461908027,
    "wof:geomhash":"b1cdcc4498a745f9b0aeb9d260a05f30",
    "wof:hierarchy":[],
    "wof:id":739477721,
    "wof:lastmodified":1461908027,
    "wof:name":"Perry's Specialty Shop Inc",
    "wof:parent_id":-1,
    "wof:placetype":"venue",
    "wof:superseded_by":[],
    "wof:supersedes":[],
    "wof:tags":[
        "ready",
        "furnishing"
    ]
},
  "bbox": [
    -77.847218,
    36.7594,
    -77.847218,
    36.7594
],
  "geometry": {"coordinates":[-77.847218,36.7594],"type":"Point"}
}