{
  "id": 723270895,
  "type": "Feature",
  "properties": {
    "edtf:cessation":"uuuu",
    "edtf:inception":"uuuu",
    "geom:area":0.0,
    "geom:bbox":"-78.830522,37.895753,-78.830522,37.895753",
    "geom:latitude":37.895753,
    "geom:longitude":-78.830522,
    "iso:country":"US",
    "sg:address":"4026 River Rd",
    "sg:city":"Faber",
    "sg:classifiers":[
        {
            "category":"Manufacturing",
            "subcategory":"Printing",
            "type":"Manufacturing & Wholesale Goods"
        }
    ],
    "sg:owner":"simplegeo",
    "sg:phone":"+1 434 361 1130",
    "sg:postcode":"22938",
    "sg:province":"VA",
    "sg:tags":[
        "book",
        "publishing"
    ],
    "src:geom":"simplegeo",
    "wof:belongsto":[],
    "wof:breaches":[],
    "wof:concordances":{
        "sg:id":"SG_1c0vjqIix061J4dTg8JCCu_37.895753_-78.830522@1294252573"
    },
    "wof:country":"US",
    "wof:created":1461898522,
    "wof:geomhash":"541c5d71013ec96ee48ce13956562638",
    "wof:hierarchy":[],
    "wof:id":723270895,
    "wof:lastmodified":1461898522,
    "wof:name":"Leela Press Inc",
    "wof:parent_id":-1,
    "wof:placetype":"venue",
    "wof:superseded_by":[],
    "wof:supersedes":[],
    "wof:tags":[
        "book",
        "publishing"
    ]
},
  "bbox": [
    -78.830522,
    37.895753,
    -78.830522,
    37.895753
],
  "geometry": {"coordinates":[-78.830522,37.895753],"type":"Point"}
}