{
  "id": 739410339,
  "type": "Feature",
  "properties": {
    "edtf:cessation":"uuuu",
    "edtf:inception":"uuuu",
    "geom:area":0.0,
    "geom:bbox":"-79.580063,37.05909,-79.580063,37.05909",
    "geom:latitude":37.05909,
    "geom:longitude":-79.580063,
    "iso:country":"US",
    "sg:address":"16111 Smith Mountain Lake Pkwy",
    "sg:city":"Huddleston",
    "sg:classifiers":[
        {
            "category":"Real Estate",
            "subcategory":"Real Estate Operator",
            "type":"Services"
        }
    ],
    "sg:owner":"simplegeo",
    "sg:phone":"+1 540 297 4412",
    "sg:postcode":"24104",
    "sg:province":"VA",
    "sg:tags":[
        "condominium"
    ],
    "src:geom":"simplegeo",
    "wof:belongsto":[],
    "wof:breaches":[],
    "wof:concordances":{
        "sg:id":"SG_7OR6Ba7RoItrW7D7tEIB8B_37.059090_-79.580063@1294252573"
    },
    "wof:country":"US",
    "wof:created":1461906772,
    "wof:geomhash":"63ea40955c3c7ba4e96e927d203b434f",
    "wof:hierarchy":[],
    "wof:id":739410339,
    "wof:lastmodified":1461906772,
    "wof:name":"Belview Bay Condo",
    "wof:parent_id":-1,
    "wof:placetype":"venue",
    "wof:superseded_by":[],
    "wof:supersedes":[],
    "wof:tags":[
        "condominium"
    ]
},
  "bbox": [
    -79.580063,
    37.05909,
    -79.580063,
    37.05909
],
  "geometry": {"coordinates":[-79.580063,37.05909],"type":"Point"}
}