{
  "id": 723236487,
  "type": "Feature",
  "properties": {
    "edtf:cessation":"uuuu",
    "edtf:inception":"uuuu",
    "geom:area":0.0,
    "geom:bbox":"-77.473428,37.661607,-77.473428,37.661607",
    "geom:latitude":37.661607,
    "geom:longitude":-77.473428,
    "iso:country":"US",
    "sg:address":"10428 Greenwood Rd",
    "sg:city":"Glen Allen",
    "sg:classifiers":[
        {
            "category":"Arena",
            "subcategory":"Sports Club",
            "type":"Entertainment"
        }
    ],
    "sg:owner":"simplegeo",
    "sg:phone":"+1 804 261 5425",
    "sg:postcode":"23059",
    "sg:province":"VA",
    "sg:tags":[
        "soccer"
    ],
    "src:geom":"simplegeo",
    "wof:belongsto":[],
    "wof:breaches":[],
    "wof:concordances":{
        "sg:id":"SG_7lGJNXcm5ZiIJtVVtnrQYZ_37.661607_-77.473428@1294252573"
    },
    "wof:country":"US",
    "wof:created":1461897835,
    "wof:geomhash":"a60e8602f4fdb0c8463af38c92241ef0",
    "wof:hierarchy":[],
    "wof:id":723236487,
    "wof:lastmodified":1461897835,
    "wof:name":"Virginia Casl",
    "wof:parent_id":-1,
    "wof:placetype":"venue",
    "wof:superseded_by":[],
    "wof:supersedes":[],
    "wof:tags":[
        "soccer"
    ]
},
  "bbox": [
    -77.473428,
    37.661607,
    -77.473428,
    37.661607
],
  "geometry": {"coordinates":[-77.473428,37.661607],"type":"Point"}
}