{
  "id": 723152417,
  "type": "Feature",
  "properties": {
    "edtf:cessation":"uuuu",
    "edtf:inception":"uuuu",
    "geom:area":0.0,
    "geom:bbox":"-82.631581,36.933168,-82.631581,36.933168",
    "geom:latitude":36.933168,
    "geom:longitude":-82.631581,
    "iso:country":"US",
    "sg:address":"26 9th St NW",
    "sg:city":"Norton",
    "sg:classifiers":[
        {
            "category":"Professional",
            "subcategory":"Credit Reporting & Collection",
            "type":"Services"
        }
    ],
    "sg:owner":"simplegeo",
    "sg:phone":"+1 276 679 2651",
    "sg:postcode":"24273",
    "sg:province":"VA",
    "sg:tags":[
        "agency"
    ],
    "src:geom":"simplegeo",
    "wof:belongsto":[],
    "wof:breaches":[],
    "wof:concordances":{
        "sg:id":"SG_0Rs2ogOQOl8IWbnqOeYhw0_36.933168_-82.631581@1294252573"
    },
    "wof:country":"US",
    "wof:created":1461896144,
    "wof:geomhash":"67e9c703c38f231947303c6e5ad32969",
    "wof:hierarchy":[],
    "wof:id":723152417,
    "wof:lastmodified":1461896144,
    "wof:name":"Mountain Empire Credit Bureau",
    "wof:parent_id":-1,
    "wof:placetype":"venue",
    "wof:superseded_by":[],
    "wof:supersedes":[],
    "wof:tags":[
        "agency"
    ]
},
  "bbox": [
    -82.631581,
    36.933168,
    -82.631581,
    36.933168
],
  "geometry": {"coordinates":[-82.631581,36.933168],"type":"Point"}
}