{
  "id": 722641537,
  "type": "Feature",
  "properties": {
    "edtf:cessation":"uuuu",
    "edtf:inception":"uuuu",
    "geom:area":0.0,
    "geom:bbox":"-77.356931,39.032409,-77.356931,39.032409",
    "geom:latitude":39.032409,
    "geom:longitude":-77.356931,
    "iso:country":"US",
    "sg:address":"10153 Yorktown Way",
    "sg:city":"Great Falls",
    "sg:classifiers":[
        {
            "category":"Building & Trades",
            "subcategory":"Cleaning & Sanitation",
            "type":"Services"
        }
    ],
    "sg:owner":"simplegeo",
    "sg:phone":"+1 703 406 3172",
    "sg:postcode":"22066",
    "sg:province":"VA",
    "sg:tags":[
        "janitor"
    ],
    "src:geom":"simplegeo",
    "wof:belongsto":[],
    "wof:breaches":[],
    "wof:concordances":{
        "sg:id":"SG_34mQeFhfyJRbbThrlSWET4_39.032409_-77.356931@1294252573"
    },
    "wof:country":"US",
    "wof:created":1461885871,
    "wof:geomhash":"a3268b6cf2d5f46759e15863fa65b7ba",
    "wof:hierarchy":[],
    "wof:id":722641537,
    "wof:lastmodified":1461885871,
    "wof:name":"Allied Cleaning Svc",
    "wof:parent_id":-1,
    "wof:placetype":"venue",
    "wof:superseded_by":[],
    "wof:supersedes":[],
    "wof:tags":[
        "janitor"
    ]
},
  "bbox": [
    -77.356931,
    39.032409,
    -77.356931,
    39.032409
],
  "geometry": {"coordinates":[-77.356931,39.032409],"type":"Point"}
}