{
  "id": 739413437,
  "type": "Feature",
  "properties": {
    "edtf:cessation":"uuuu",
    "edtf:inception":"uuuu",
    "geom:area":0.0,
    "geom:bbox":"-77.674457,37.508656,-77.674457,37.508656",
    "geom:latitude":37.508656,
    "geom:longitude":-77.674457,
    "iso:country":"US",
    "sg:address":"14321 Sommerville Ct",
    "sg:city":"Midlothian",
    "sg:classifiers":[
        {
            "category":"Wholesale",
            "subcategory":"Electrical",
            "type":"Manufacturing & Wholesale Goods"
        }
    ],
    "sg:owner":"simplegeo",
    "sg:phone":"+1 804 379 3333",
    "sg:postcode":"23113",
    "sg:province":"VA",
    "sg:tags":[
        "electronic"
    ],
    "src:geom":"simplegeo",
    "wof:belongsto":[],
    "wof:breaches":[],
    "wof:concordances":{
        "sg:id":"SG_2KaoxaeHMDXAyfTzMcPcCH_37.508656_-77.674457@1294252573"
    },
    "wof:country":"US",
    "wof:created":1461906829,
    "wof:geomhash":"72a0498e465514c14d6b0875138c414a",
    "wof:hierarchy":[],
    "wof:id":739413437,
    "wof:lastmodified":1461906829,
    "wof:name":"Partronics",
    "wof:parent_id":-1,
    "wof:placetype":"venue",
    "wof:superseded_by":[],
    "wof:supersedes":[],
    "wof:tags":[
        "electronic"
    ]
},
  "bbox": [
    -77.674457,
    37.508656,
    -77.674457,
    37.508656
],
  "geometry": {"coordinates":[-77.674457,37.508656],"type":"Point"}
}