{
  "id": 723372801,
  "type": "Feature",
  "properties": {
    "edtf:cessation":"uuuu",
    "edtf:inception":"uuuu",
    "geom:area":0.0,
    "geom:bbox":"-77.51114,37.454805,-77.51114,37.454805",
    "geom:latitude":37.454805,
    "geom:longitude":-77.51114,
    "iso:country":"US",
    "sg:address":"6009 Belmont Rd",
    "sg:city":"Richmond",
    "sg:classifiers":[
        {
            "category":"Shopping",
            "subcategory":"Used Merchandise",
            "type":"Retail Goods"
        }
    ],
    "sg:owner":"simplegeo",
    "sg:phone":"+1 804 276 4852",
    "sg:postcode":"23234",
    "sg:province":"VA",
    "sg:tags":[
        "flea",
        "market"
    ],
    "src:geom":"simplegeo",
    "wof:belongsto":[],
    "wof:breaches":[],
    "wof:concordances":{
        "sg:id":"SG_1EmmR1EV1Wy1IsjKH2vZ7k_37.454805_-77.511140@1294252573"
    },
    "wof:country":"US",
    "wof:created":1461900434,
    "wof:geomhash":"9ad6864c95970727d64ac7f085e54cd7",
    "wof:hierarchy":[],
    "wof:id":723372801,
    "wof:lastmodified":1461900434,
    "wof:name":"Bazar El Pulgarcito Inc",
    "wof:parent_id":420546613,
    "wof:placetype":"venue",
    "wof:superseded_by":[],
    "wof:supersedes":[],
    "wof:tags":[
        "flea",
        "market"
    ]
},
  "bbox": [
    -77.51114,
    37.454805,
    -77.51114,
    37.454805
],
  "geometry": {"coordinates":[-77.51114,37.454805],"type":"Point"}
}