{
  "id": 722644201,
  "type": "Feature",
  "properties": {
    "edtf:cessation":"uuuu",
    "edtf:inception":"uuuu",
    "geom:area":0.0,
    "geom:bbox":"-77.445002,38.77002,-77.445002,38.77002",
    "geom:latitude":38.77002,
    "geom:longitude":-77.445002,
    "iso:country":"US",
    "sg:address":"8395 Euclid Ave",
    "sg:city":"Manassas",
    "sg:classifiers":[
        {
            "category":"Retail",
            "subcategory":"Auto Repair",
            "type":"Services"
        }
    ],
    "sg:owner":"simplegeo",
    "sg:phone":"+1 703 335 9646",
    "sg:postcode":"20111",
    "sg:province":"VA",
    "sg:tags":[
        "body",
        "automobile",
        "restoration",
        "painting"
    ],
    "src:geom":"simplegeo",
    "wof:belongsto":[],
    "wof:breaches":[],
    "wof:concordances":{
        "sg:id":"SG_4ABdK5sLtDsYhcbqsxrvW0_38.770020_-77.445002@1294252573"
    },
    "wof:country":"US",
    "wof:created":1461885914,
    "wof:geomhash":"bca7ad1ec17be68e4f374d87a5721da1",
    "wof:hierarchy":[],
    "wof:id":722644201,
    "wof:lastmodified":1461885914,
    "wof:name":"Autocrafters",
    "wof:parent_id":-1,
    "wof:placetype":"venue",
    "wof:superseded_by":[],
    "wof:supersedes":[],
    "wof:tags":[
        "body",
        "automobile",
        "restoration",
        "painting"
    ]
},
  "bbox": [
    -77.445002,
    38.77002,
    -77.445002,
    38.77002
],
  "geometry": {"coordinates":[-77.445002,38.77002],"type":"Point"}
}