{
  "id": 723065055,
  "type": "Feature",
  "properties": {
    "edtf:cessation":"uuuu",
    "edtf:inception":"uuuu",
    "geom:area":0.0,
    "geom:bbox":"-77.45734,37.611182,-77.45734,37.611182",
    "geom:latitude":37.611182,
    "geom:longitude":-77.45734,
    "iso:country":"US",
    "sg:address":"5642 Brook Rd",
    "sg:city":"Richmond",
    "sg:classifiers":[
        {
            "category":"Shopping",
            "subcategory":"Discount & Variety Stores",
            "type":"Retail Goods"
        }
    ],
    "sg:owner":"simplegeo",
    "sg:phone":"+1 804 261 9270",
    "sg:postcode":"23227",
    "sg:province":"VA",
    "src:geom":"simplegeo",
    "wof:belongsto":[],
    "wof:breaches":[],
    "wof:concordances":{
        "sg:id":"SG_3t3fIBvUlZM9EBNRltyDcu_37.611182_-77.457340@1294252573"
    },
    "wof:country":"US",
    "wof:created":1461894326,
    "wof:geomhash":"c1e3adefb33e47507988f2dbab037593",
    "wof:hierarchy":[],
    "wof:id":723065055,
    "wof:lastmodified":1461894326,
    "wof:name":"Super Dollar",
    "wof:parent_id":-1,
    "wof:placetype":"venue",
    "wof:superseded_by":[],
    "wof:supersedes":[],
    "wof:tags":[]
},
  "bbox": [
    -77.45734,
    37.611182,
    -77.45734,
    37.611182
],
  "geometry": {"coordinates":[-77.45734,37.611182],"type":"Point"}
}