{
  "id": 722718399,
  "type": "Feature",
  "properties": {
    "edtf:cessation":"uuuu",
    "edtf:inception":"uuuu",
    "geom:area":0.0,
    "geom:bbox":"-77.599891,37.700856,-77.599891,37.700856",
    "geom:latitude":37.700856,
    "geom:longitude":-77.599891,
    "iso:country":"US",
    "sg:address":"10824 Leabrook Dr",
    "sg:city":"Glen Allen",
    "sg:classifiers":[
        {
            "category":"Manufacturing",
            "subcategory":"Tools & Machinery",
            "type":"Manufacturing & Wholesale Goods"
        }
    ],
    "sg:owner":"simplegeo",
    "sg:phone":"+1 804 364 2645",
    "sg:postcode":"23059",
    "sg:province":"VA",
    "sg:tags":[
        "electrical",
        "mfg"
    ],
    "src:geom":"simplegeo",
    "wof:belongsto":[],
    "wof:breaches":[],
    "wof:concordances":{
        "sg:id":"SG_3HgEFUaHWYpGmLnGTmyM0o_37.700856_-77.599891@1294252573"
    },
    "wof:country":"US",
    "wof:created":1461887312,
    "wof:geomhash":"27fadcb48d92375da077e06c3d2aefd6",
    "wof:hierarchy":[],
    "wof:id":722718399,
    "wof:lastmodified":1461887312,
    "wof:name":"Siemens Power Transm & Dist",
    "wof:parent_id":-1,
    "wof:placetype":"venue",
    "wof:superseded_by":[],
    "wof:supersedes":[],
    "wof:tags":[
        "electrical",
        "mfg"
    ]
},
  "bbox": [
    -77.599891,
    37.700856,
    -77.599891,
    37.700856
],
  "geometry": {"coordinates":[-77.599891,37.700856],"type":"Point"}
}