{
  "id": 723201689,
  "type": "Feature",
  "properties": {
    "edtf:cessation":"uuuu",
    "edtf:inception":"uuuu",
    "geom:area":0.0,
    "geom:bbox":"-77.851817,37.566921,-77.851817,37.566921",
    "geom:latitude":37.566921,
    "geom:longitude":-77.851817,
    "iso:country":"US",
    "sg:address":"2737 Ridgeview Rd",
    "sg:city":"Powhatan",
    "sg:classifiers":[
        {
            "category":"Wholesale",
            "subcategory":"Furniture",
            "type":"Manufacturing & Wholesale Goods"
        }
    ],
    "sg:owner":"simplegeo",
    "sg:phone":"+1 804 403 3003",
    "sg:postcode":"23139",
    "sg:province":"VA",
    "sg:tags":[
        "furnishing",
        "church"
    ],
    "src:geom":"simplegeo",
    "wof:belongsto":[],
    "wof:breaches":[],
    "wof:concordances":{
        "sg:id":"SG_1ra3m3LalTZ4NhqrCtZxbK_37.566921_-77.851817@1294252573"
    },
    "wof:country":"US",
    "wof:created":1461897108,
    "wof:geomhash":"1901f2d8c9a0c36b576c3706bedddb9d",
    "wof:hierarchy":[],
    "wof:id":723201689,
    "wof:lastmodified":1461897108,
    "wof:name":"Virginia Church Furniture Co",
    "wof:parent_id":-1,
    "wof:placetype":"venue",
    "wof:superseded_by":[],
    "wof:supersedes":[],
    "wof:tags":[
        "furnishing",
        "church"
    ]
},
  "bbox": [
    -77.851817,
    37.566921,
    -77.851817,
    37.566921
],
  "geometry": {"coordinates":[-77.851817,37.566921],"type":"Point"}
}