{
  "id": 723070529,
  "type": "Feature",
  "properties": {
    "edtf:cessation":"uuuu",
    "edtf:inception":"uuuu",
    "geom:area":0.0,
    "geom:bbox":"-77.291673,38.828855,-77.291673,38.828855",
    "geom:latitude":38.828855,
    "geom:longitude":-77.291673,
    "iso:country":"US",
    "sg:address":"10127 Red Spruce Rd",
    "sg:city":"Fairfax",
    "sg:classifiers":[
        {
            "category":"Professional",
            "subcategory":"Research",
            "type":"Services"
        }
    ],
    "sg:owner":"simplegeo",
    "sg:phone":"+1 703 978 8874",
    "sg:postcode":"22032",
    "sg:province":"VA",
    "sg:tags":[
        "aided",
        "computer",
        "economic",
        "statistical",
        "analysis"
    ],
    "src:geom":"simplegeo",
    "wof:belongsto":[],
    "wof:breaches":[],
    "wof:concordances":{
        "sg:id":"SG_0czFcb39782SJHFBeIfNd6_38.828855_-77.291673@1294252573"
    },
    "wof:country":"US",
    "wof:created":1461894471,
    "wof:geomhash":"6a1361912dd764a218bf0179c490683f",
    "wof:hierarchy":[],
    "wof:id":723070529,
    "wof:lastmodified":1461894471,
    "wof:name":"Idea",
    "wof:parent_id":-1,
    "wof:placetype":"venue",
    "wof:superseded_by":[],
    "wof:supersedes":[],
    "wof:tags":[
        "aided",
        "computer",
        "economic",
        "statistical",
        "analysis"
    ]
},
  "bbox": [
    -77.291673,
    38.828855,
    -77.291673,
    38.828855
],
  "geometry": {"coordinates":[-77.291673,38.828855],"type":"Point"}
}