{
  "id": 723271479,
  "type": "Feature",
  "properties": {
    "edtf:cessation":"uuuu",
    "edtf:inception":"uuuu",
    "geom:area":0.0,
    "geom:bbox":"-77.513365,39.046137,-77.513365,39.046137",
    "geom:latitude":39.046137,
    "geom:longitude":-77.513365,
    "iso:country":"US",
    "sg:address":"43100 Hay Rd",
    "sg:city":"Ashburn",
    "sg:classifiers":[
        {
            "category":"Education",
            "subcategory":"School",
            "type":"Public Place"
        }
    ],
    "sg:owner":"simplegeo",
    "sg:phone":"+1 703 779 8900",
    "sg:postcode":"20147",
    "sg:province":"VA",
    "src:geom":"simplegeo",
    "wof:belongsto":[],
    "wof:breaches":[],
    "wof:concordances":{
        "sg:id":"SG_79No3dJSm0jzLFPIDlWelJ_39.046137_-77.513365@1294252573"
    },
    "wof:country":"US",
    "wof:created":1461898531,
    "wof:geomhash":"c683bf81ced5d2a06a7ec226bb91c295",
    "wof:hierarchy":[],
    "wof:id":723271479,
    "wof:lastmodified":1461898531,
    "wof:name":"Stone Bridge High School",
    "wof:parent_id":-1,
    "wof:placetype":"venue",
    "wof:superseded_by":[],
    "wof:supersedes":[],
    "wof:tags":[]
},
  "bbox": [
    -77.513365,
    39.046137,
    -77.513365,
    39.046137
],
  "geometry": {"coordinates":[-77.51336499999999,39.046137],"type":"Point"}
}