{
  "id": 722964535,
  "type": "Feature",
  "properties": {
    "edtf:cessation":"uuuu",
    "edtf:inception":"uuuu",
    "geom:area":0.0,
    "geom:bbox":"-77.272358,38.866795,-77.272358,38.866795",
    "geom:latitude":38.866795,
    "geom:longitude":-77.272358,
    "iso:country":"US",
    "sg:address":"3104 Omega Office Park",
    "sg:city":"Fairfax",
    "sg:classifiers":[
        {
            "category":"Manufacturing",
            "subcategory":"Printing",
            "type":"Manufacturing & Wholesale Goods"
        }
    ],
    "sg:owner":"simplegeo",
    "sg:phone":"+1 703 359 8847",
    "sg:postcode":"22031",
    "sg:province":"VA",
    "sg:tags":[
        "periodical"
    ],
    "src:geom":"simplegeo",
    "wof:belongsto":[],
    "wof:breaches":[],
    "wof:concordances":{
        "sg:id":"SG_3YY0woiqTrIpb07qRRnxzK_38.866795_-77.272358@1294252573"
    },
    "wof:country":"US",
    "wof:created":1461892127,
    "wof:geomhash":"704c4dd8cec946f35861afcbe589de63",
    "wof:hierarchy":[],
    "wof:id":722964535,
    "wof:lastmodified":1461892127,
    "wof:name":"Washington Flyer Magazine",
    "wof:parent_id":-1,
    "wof:placetype":"venue",
    "wof:superseded_by":[],
    "wof:supersedes":[],
    "wof:tags":[
        "periodical"
    ]
},
  "bbox": [
    -77.272358,
    38.866795,
    -77.272358,
    38.866795
],
  "geometry": {"coordinates":[-77.272358,38.866795],"type":"Point"}
}