{
  "id": 739690457,
  "type": "Feature",
  "properties": {
    "edtf:cessation":"uuuu",
    "edtf:inception":"uuuu",
    "geom:area":0.0,
    "geom:bbox":"-77.0401,38.815399,-77.0401,38.815399",
    "geom:latitude":38.815399,
    "geom:longitude":-77.0401,
    "iso:country":"US",
    "sg:address":"1055 N Fairfax St",
    "sg:city":"Alexandria",
    "sg:classifiers":[
        {
            "category":"Professional",
            "subcategory":"Lawyer & Legal Services",
            "type":"Services"
        }
    ],
    "sg:owner":"simplegeo",
    "sg:phone":"+1 703 684 3340",
    "sg:postcode":"22314",
    "sg:province":"VA",
    "src:geom":"simplegeo",
    "wof:belongsto":[],
    "wof:breaches":[],
    "wof:concordances":{
        "sg:id":"SG_4dGnBbiJitNHJAcYi9jF51_38.815399_-77.040100@1303262546"
    },
    "wof:country":"US",
    "wof:created":1461912349,
    "wof:geomhash":"1257c76b6d8583908525d3d1f118b0f6",
    "wof:hierarchy":[],
    "wof:id":739690457,
    "wof:lastmodified":1461912349,
    "wof:name":"Thompson William W Jr Atty",
    "wof:parent_id":-1,
    "wof:placetype":"venue",
    "wof:superseded_by":[],
    "wof:supersedes":[],
    "wof:tags":[]
},
  "bbox": [
    -77.0401,
    38.815399,
    -77.0401,
    38.815399
],
  "geometry": {"coordinates":[-77.0401,38.815399],"type":"Point"}
}