{
  "id": 723071747,
  "type": "Feature",
  "properties": {
    "edtf:cessation":"uuuu",
    "edtf:inception":"uuuu",
    "geom:area":0.0,
    "geom:bbox":"-78.636452,37.053485,-78.636452,37.053485",
    "geom:latitude":37.053485,
    "geom:longitude":-78.636452,
    "iso:country":"US",
    "sg:address":"250 Legrande Ave",
    "sg:city":"Charlotte Ct Hse",
    "sg:classifiers":[
        {
            "category":"Government",
            "subcategory":"Office",
            "type":"Public Place"
        }
    ],
    "sg:owner":"simplegeo",
    "sg:phone":"+1 434 542 5442",
    "sg:postcode":"23923",
    "sg:province":"VA",
    "sg:tags":[
        "federal"
    ],
    "src:geom":"simplegeo",
    "wof:belongsto":[],
    "wof:breaches":[],
    "wof:concordances":{
        "sg:id":"SG_0auClzmszJBgIG8NaTzrnu_37.053485_-78.636452@1294252573"
    },
    "wof:country":"US",
    "wof:created":1461894495,
    "wof:geomhash":"bbb65b3e610617a14981ca80b6be7006",
    "wof:hierarchy":[],
    "wof:id":723071747,
    "wof:lastmodified":1461894495,
    "wof:name":"Natural Resources Conservation",
    "wof:parent_id":-1,
    "wof:placetype":"venue",
    "wof:superseded_by":[],
    "wof:supersedes":[],
    "wof:tags":[
        "federal"
    ]
},
  "bbox": [
    -78.636452,
    37.053485,
    -78.636452,
    37.053485
],
  "geometry": {"coordinates":[-78.63645200000001,37.053485],"type":"Point"}
}