{
  "id": 739445701,
  "type": "Feature",
  "properties": {
    "edtf:cessation":"uuuu",
    "edtf:inception":"uuuu",
    "geom:area":0.0,
    "geom:bbox":"-77.667267,37.506339,-77.667267,37.506339",
    "geom:latitude":37.506339,
    "geom:longitude":-77.667267,
    "iso:country":"US",
    "sg:address":"14214 Midlothian Tpke",
    "sg:city":"Midlothian",
    "sg:classifiers":[
        {
            "category":"Professional",
            "subcategory":"Business Services",
            "type":"Services"
        }
    ],
    "sg:owner":"simplegeo",
    "sg:phone":"+1 804 897 2686",
    "sg:postcode":"23113",
    "sg:province":"VA",
    "sg:tags":[
        "used",
        "merchandise"
    ],
    "src:geom":"simplegeo",
    "wof:belongsto":[],
    "wof:breaches":[],
    "wof:concordances":{
        "sg:id":"SG_6hxta5REgKozUkfDxlCiCA_37.506339_-77.667267@1294252573"
    },
    "wof:country":"US",
    "wof:created":1461907466,
    "wof:geomhash":"ba9ade6b1d443da86d94a463bc7bbb08",
    "wof:hierarchy":[],
    "wof:id":739445701,
    "wof:lastmodified":1461907466,
    "wof:name":"Goodbyes Antiques Co",
    "wof:parent_id":-1,
    "wof:placetype":"venue",
    "wof:superseded_by":[],
    "wof:supersedes":[],
    "wof:tags":[
        "used",
        "merchandise"
    ]
},
  "bbox": [
    -77.667267,
    37.506339,
    -77.667267,
    37.506339
],
  "geometry": {"coordinates":[-77.667267,37.506339],"type":"Point"}
}