{
  "id": 739476947,
  "type": "Feature",
  "properties": {
    "edtf:cessation":"uuuu",
    "edtf:inception":"uuuu",
    "geom:area":0.0,
    "geom:bbox":"-79.96624,36.609328,-79.96624,36.609328",
    "geom:latitude":36.609328,
    "geom:longitude":-79.96624,
    "iso:country":"US",
    "sg:address":"833 Wagon Trail Rd",
    "sg:city":"Ridgeway",
    "sg:classifiers":[
        {
            "category":"Building & Trades",
            "subcategory":"Landscaping Services",
            "type":"Services"
        }
    ],
    "sg:owner":"simplegeo",
    "sg:phone":"+1 276 957 1233",
    "sg:postcode":"24148",
    "sg:province":"VA",
    "src:geom":"simplegeo",
    "wof:belongsto":[],
    "wof:breaches":[],
    "wof:concordances":{
        "sg:id":"SG_3sIjYutHWDohA76P9V0wXH_36.609328_-79.966240@1294252573"
    },
    "wof:country":"US",
    "wof:created":1461908013,
    "wof:geomhash":"cfcc7a6055724edad91ce288020061d1",
    "wof:hierarchy":[],
    "wof:id":739476947,
    "wof:lastmodified":1461908013,
    "wof:name":"Moirs Mowing",
    "wof:parent_id":-1,
    "wof:placetype":"venue",
    "wof:superseded_by":[],
    "wof:supersedes":[],
    "wof:tags":[]
},
  "bbox": [
    -79.96624,
    36.609328,
    -79.96624,
    36.609328
],
  "geometry": {"coordinates":[-79.96624,36.609328],"type":"Point"}
}