{
  "id": 723003185,
  "type": "Feature",
  "properties": {
    "edtf:cessation":"uuuu",
    "edtf:inception":"uuuu",
    "geom:area":0.0,
    "geom:bbox":"-76.323168,37.058014,-76.323168,37.058014",
    "geom:latitude":37.058014,
    "geom:longitude":-76.323168,
    "iso:country":"US",
    "sg:address":"301 Fox Hill Rd",
    "sg:city":"Hampton",
    "sg:classifiers":[
        {
            "category":"Health Services",
            "subcategory":"Doctor",
            "type":"Services"
        }
    ],
    "sg:owner":"simplegeo",
    "sg:phone":"+1 757 851 4721",
    "sg:postcode":"23669",
    "sg:province":"VA",
    "src:geom":"simplegeo",
    "wof:belongsto":[],
    "wof:breaches":[],
    "wof:concordances":{
        "sg:id":"SG_4AoCi1TqsaYtR69sUp7YeL_37.058014_-76.323168@1294252573"
    },
    "wof:country":"US",
    "wof:created":1461892997,
    "wof:geomhash":"b08f36aa9f906e2b6974979b72ea9174",
    "wof:hierarchy":[],
    "wof:id":723003185,
    "wof:lastmodified":1461892997,
    "wof:name":"Bennett Curtis G",
    "wof:parent_id":-1,
    "wof:placetype":"venue",
    "wof:superseded_by":[],
    "wof:supersedes":[],
    "wof:tags":[]
},
  "bbox": [
    -76.323168,
    37.058014,
    -76.323168,
    37.058014
],
  "geometry": {"coordinates":[-76.323168,37.058014],"type":"Point"}
}