{
  "id": 723325103,
  "type": "Feature",
  "properties": {
    "edtf:cessation":"uuuu",
    "edtf:inception":"uuuu",
    "geom:area":0.0,
    "geom:bbox":"-78.858103,38.449049,-78.858103,38.449049",
    "geom:latitude":38.449049,
    "geom:longitude":-78.858103,
    "iso:country":"US",
    "sg:address":"590 E Market St",
    "sg:city":"Harrisonburg",
    "sg:classifiers":[
        {
            "category":"Professional",
            "subcategory":"Employment Agencies",
            "type":"Services"
        }
    ],
    "sg:owner":"simplegeo",
    "sg:phone":"+1 540 574 4321",
    "sg:postcode":"22801",
    "sg:province":"VA",
    "sg:tags":[
        "home",
        "health",
        "care"
    ],
    "src:geom":"simplegeo",
    "wof:belongsto":[],
    "wof:breaches":[],
    "wof:concordances":{
        "sg:id":"SG_3BTdDyMniqv6C5lqvD5VqA_38.449049_-78.858103@1294252573"
    },
    "wof:country":"US",
    "wof:created":1461899542,
    "wof:geomhash":"ed2f17d62c3955baf3aee2e2c986f916",
    "wof:hierarchy":[],
    "wof:id":723325103,
    "wof:lastmodified":1461899542,
    "wof:name":"Advantage Care Of Shenandoah",
    "wof:parent_id":-1,
    "wof:placetype":"venue",
    "wof:superseded_by":[],
    "wof:supersedes":[],
    "wof:tags":[
        "home",
        "health",
        "care"
    ]
},
  "bbox": [
    -78.858103,
    38.449049,
    -78.858103,
    38.449049
],
  "geometry": {"coordinates":[-78.858103,38.449049],"type":"Point"}
}