{
  "id": 722684959,
  "type": "Feature",
  "properties": {
    "edtf:cessation":"uuuu",
    "edtf:inception":"uuuu",
    "geom:area":0.0,
    "geom:bbox":"-76.203773,36.765043,-76.203773,36.765043",
    "geom:latitude":36.765043,
    "geom:longitude":-76.203773,
    "iso:country":"US",
    "sg:address":"1400 Kempsville Rd",
    "sg:city":"Chesapeake",
    "sg:classifiers":[
        {
            "category":"Shopping",
            "subcategory":"Computers & Home Electronics",
            "type":"Retail Goods"
        }
    ],
    "sg:owner":"simplegeo",
    "sg:phone":"+1 757 547 8282",
    "sg:postcode":"23320",
    "sg:province":"VA",
    "src:geom":"simplegeo",
    "wof:belongsto":[],
    "wof:breaches":[],
    "wof:concordances":{
        "sg:id":"SG_4q8ULdiL048LLmtr7gcumd_36.765043_-76.203773@1294252573"
    },
    "wof:country":"US",
    "wof:created":1461886679,
    "wof:geomhash":"c800973c8828faa5f80de8f6a2daa79f",
    "wof:hierarchy":[],
    "wof:id":722684959,
    "wof:lastmodified":1461886679,
    "wof:name":"Radio Shack",
    "wof:parent_id":-1,
    "wof:placetype":"venue",
    "wof:superseded_by":[],
    "wof:supersedes":[],
    "wof:tags":[]
},
  "bbox": [
    -76.203773,
    36.765043,
    -76.203773,
    36.765043
],
  "geometry": {"coordinates":[-76.203773,36.765043],"type":"Point"}
}