{
  "id": 722686369,
  "type": "Feature",
  "properties": {
    "edtf:cessation":"uuuu",
    "edtf:inception":"uuuu",
    "geom:area":0.0,
    "geom:bbox":"-81.682405,36.801414,-81.682405,36.801414",
    "geom:latitude":36.801414,
    "geom:longitude":-81.682405,
    "iso:country":"US",
    "sg:address":"225 Hull Ave",
    "sg:city":"Chilhowie",
    "sg:classifiers":[
        {
            "category":"Personal",
            "subcategory":"Beauty Salon",
            "type":"Services"
        }
    ],
    "sg:owner":"simplegeo",
    "sg:phone":"+1 276 646 8107",
    "sg:postcode":"24319",
    "sg:province":"VA",
    "src:geom":"simplegeo",
    "wof:belongsto":[],
    "wof:breaches":[],
    "wof:concordances":{
        "sg:id":"SG_053eueuIIWI2JHlrlAXatA_36.801414_-81.682405@1294252573"
    },
    "wof:country":"US",
    "wof:created":1461886705,
    "wof:geomhash":"5c2cd4f9cb2389238e234f165edc3501",
    "wof:hierarchy":[],
    "wof:id":722686369,
    "wof:lastmodified":1461886705,
    "wof:name":"Claudine's Beauty Salon",
    "wof:parent_id":-1,
    "wof:placetype":"venue",
    "wof:superseded_by":[],
    "wof:supersedes":[],
    "wof:tags":[]
},
  "bbox": [
    -81.682405,
    36.801414,
    -81.682405,
    36.801414
],
  "geometry": {"coordinates":[-81.682405,36.801414],"type":"Point"}
}