{
  "id": 739390659,
  "type": "Feature",
  "properties": {
    "edtf:cessation":"uuuu",
    "edtf:inception":"uuuu",
    "geom:area":0.0,
    "geom:bbox":"-79.052024,37.585422,-79.052024,37.585422",
    "geom:latitude":37.585422,
    "geom:longitude":-79.052024,
    "iso:country":"US",
    "sg:address":"519 S Main St",
    "sg:city":"Amherst",
    "sg:classifiers":[
        {
            "category":"Shopping",
            "subcategory":"Gifts & Souvenirs",
            "type":"Retail Goods"
        }
    ],
    "sg:owner":"simplegeo",
    "sg:phone":"+1 434 946 1170",
    "sg:postcode":"24521",
    "sg:province":"VA",
    "sg:tags":[
        "shop"
    ],
    "src:geom":"simplegeo",
    "wof:belongsto":[
        85688747,
        85633793,
        101729489,
        102087249,
        85857467
    ],
    "wof:breaches":[],
    "wof:concordances":{
        "sg:id":"SG_6o4VcqXWQCGeHc3jhQpmqS_37.585422_-79.052024@1294252573"
    },
    "wof:country":"US",
    "wof:created":1461906400,
    "wof:geomhash":"7b89ff0855a44be19650f1ba41196694",
    "wof:hierarchy":[
        {
            "country_id":85633793,
            "county_id":102087249,
            "locality_id":101729489,
            "neighbourhood_id":85857467,
            "region_id":85688747,
            "venue_id":739390659
        }
    ],
    "wof:id":739390659,
    "wof:lastmodified":1461906400,
    "wof:name":"Toni's Dream",
    "wof:parent_id":85857467,
    "wof:placetype":"venue",
    "wof:superseded_by":[],
    "wof:supersedes":[],
    "wof:tags":[
        "shop"
    ]
},
  "bbox": [
    -79.052024,
    37.585422,
    -79.052024,
    37.585422
],
  "geometry": {"coordinates":[-79.052024,37.585422],"type":"Point"}
}