{
  "id": 722961759,
  "type": "Feature",
  "properties": {
    "edtf:cessation":"uuuu",
    "edtf:inception":"uuuu",
    "geom:area":0.0,
    "geom:bbox":"-77.994886,38.198214,-77.994886,38.198214",
    "geom:latitude":38.198214,
    "geom:longitude":-77.994886,
    "iso:country":"US",
    "sg:address":"15121 Pamunkey Ln",
    "sg:city":"Orange",
    "sg:classifiers":[
        {
            "category":"Restaurant",
            "subcategory":"",
            "type":"Food & Drink"
        }
    ],
    "sg:owner":"simplegeo",
    "sg:phone":"+1 540 854 8582",
    "sg:postcode":"22960",
    "sg:province":"VA",
    "sg:tags":[
        "eating"
    ],
    "src:geom":"simplegeo",
    "wof:belongsto":[],
    "wof:breaches":[],
    "wof:concordances":{
        "sg:id":"SG_0q3kyGbrVz81smqoUrybpQ_38.198214_-77.994886@1294252573"
    },
    "wof:country":"US",
    "wof:created":1461892073,
    "wof:geomhash":"a9161568bc2658cdf9b3f0dfa311156d",
    "wof:hierarchy":[],
    "wof:id":722961759,
    "wof:lastmodified":1461892073,
    "wof:name":"Renninger Family Dairy Ltd",
    "wof:parent_id":-1,
    "wof:placetype":"venue",
    "wof:superseded_by":[],
    "wof:supersedes":[],
    "wof:tags":[
        "eating"
    ]
},
  "bbox": [
    -77.994886,
    38.198214,
    -77.994886,
    38.198214
],
  "geometry": {"coordinates":[-77.99488599999999,38.198214],"type":"Point"}
}