{
  "id": 722890585,
  "type": "Feature",
  "properties": {
    "edtf:cessation":"uuuu",
    "edtf:inception":"uuuu",
    "geom:area":0.0,
    "geom:bbox":"-77.604001,37.482662,-77.604001,37.482662",
    "geom:latitude":37.482662,
    "geom:longitude":-77.604001,
    "iso:country":"US",
    "sg:address":"11110 May Apple Ter",
    "sg:city":"Richmond",
    "sg:classifiers":[
        {
            "category":"Professional",
            "subcategory":"Business Services",
            "type":"Services"
        }
    ],
    "sg:owner":"simplegeo",
    "sg:phone":"+1 804 794 2757",
    "sg:postcode":"23236",
    "sg:province":"VA",
    "sg:tags":[
        "appraiser"
    ],
    "src:geom":"simplegeo",
    "wof:belongsto":[],
    "wof:breaches":[],
    "wof:concordances":{
        "sg:id":"SG_1GcHIivEaD9TOW1GQGTRoQ_37.482662_-77.604001@1294252573"
    },
    "wof:country":"US",
    "wof:created":1461890593,
    "wof:geomhash":"bb6a63a45aad0049066350706992e7e9",
    "wof:hierarchy":[],
    "wof:id":722890585,
    "wof:lastmodified":1461890593,
    "wof:name":"E Lee Critzer Jr Appraisal Svc",
    "wof:parent_id":-1,
    "wof:placetype":"venue",
    "wof:superseded_by":[],
    "wof:supersedes":[],
    "wof:tags":[
        "appraiser"
    ]
},
  "bbox": [
    -77.604001,
    37.482662,
    -77.604001,
    37.482662
],
  "geometry": {"coordinates":[-77.604001,37.482662],"type":"Point"}
}