{
  "id": 739529677,
  "type": "Feature",
  "properties": {
    "edtf:cessation":"uuuu",
    "edtf:inception":"uuuu",
    "geom:area":0.0,
    "geom:bbox":"-77.571386,39.11592,-77.571386,39.11592",
    "geom:latitude":39.11592,
    "geom:longitude":-77.571386,
    "iso:country":"US",
    "sg:address":"102 Dry Mill Rd SW",
    "sg:city":"Leesburg",
    "sg:classifiers":[
        {
            "category":"Professional",
            "subcategory":"Lawyer & Legal Services",
            "type":"Services"
        }
    ],
    "sg:owner":"simplegeo",
    "sg:phone":"+1 703 771 0455",
    "sg:postcode":"20175",
    "sg:province":"VA",
    "src:geom":"simplegeo",
    "wof:belongsto":[],
    "wof:breaches":[],
    "wof:concordances":{
        "sg:id":"SG_4GaYwcPOjDq0IVjJppex5t_39.115920_-77.571386@1294252573"
    },
    "wof:country":"US",
    "wof:created":1461908972,
    "wof:geomhash":"f709a861f437a2ea607afeb5725593a3",
    "wof:hierarchy":[],
    "wof:id":739529677,
    "wof:lastmodified":1461908972,
    "wof:name":"Sanders & Kissler",
    "wof:parent_id":-1,
    "wof:placetype":"venue",
    "wof:superseded_by":[],
    "wof:supersedes":[],
    "wof:tags":[]
},
  "bbox": [
    -77.571386,
    39.11592,
    -77.571386,
    39.11592
],
  "geometry": {"coordinates":[-77.571386,39.11592],"type":"Point"}
}