{
  "id": 739480321,
  "type": "Feature",
  "properties": {
    "edtf:cessation":"uuuu",
    "edtf:inception":"uuuu",
    "geom:area":0.0,
    "geom:bbox":"-78.474965,38.229509,-78.474965,38.229509",
    "geom:latitude":38.229509,
    "geom:longitude":-78.474965,
    "iso:country":"US",
    "sg:address":"6738 Celt Rd",
    "sg:city":"Stanardsville",
    "sg:classifiers":[
        {
            "category":"Building & Trades",
            "subcategory":"Landscaping Services",
            "type":"Services"
        }
    ],
    "sg:owner":"simplegeo",
    "sg:phone":"+1 434 466 6665",
    "sg:postcode":"22973",
    "sg:province":"VA",
    "sg:tags":[
        "lawn",
        "maintenance",
        "grounds"
    ],
    "src:geom":"simplegeo",
    "wof:belongsto":[],
    "wof:breaches":[],
    "wof:concordances":{
        "sg:id":"SG_3zLqUGY2OPS9jEuywfh2Eb_38.229509_-78.474965@1294252573"
    },
    "wof:country":"US",
    "wof:created":1461908077,
    "wof:geomhash":"2f44794bbcd269ab4d3196b73670a303",
    "wof:hierarchy":[],
    "wof:id":739480321,
    "wof:lastmodified":1461908077,
    "wof:name":"Greens Keeper Lndscpg & Lawn",
    "wof:parent_id":-1,
    "wof:placetype":"venue",
    "wof:superseded_by":[],
    "wof:supersedes":[],
    "wof:tags":[
        "lawn",
        "maintenance",
        "grounds"
    ]
},
  "bbox": [
    -78.474965,
    38.229509,
    -78.474965,
    38.229509
],
  "geometry": {"coordinates":[-78.474965,38.229509],"type":"Point"}
}