{
  "id": 722914387,
  "type": "Feature",
  "properties": {
    "edtf:cessation":"uuuu",
    "edtf:inception":"uuuu",
    "geom:area":0.0,
    "geom:bbox":"-79.017773,37.317933,-79.017773,37.317933",
    "geom:latitude":37.317933,
    "geom:longitude":-79.017773,
    "iso:country":"US",
    "sg:address":"189 Regal Ct",
    "sg:city":"Concord",
    "sg:classifiers":[
        {
            "category":"Building & Trades",
            "subcategory":"Construction",
            "type":"Services"
        }
    ],
    "sg:owner":"simplegeo",
    "sg:phone":"+1 434 993 3262",
    "sg:postcode":"24504",
    "sg:province":"VA",
    "sg:tags":[
        "mobile",
        "home"
    ],
    "src:geom":"simplegeo",
    "wof:belongsto":[],
    "wof:breaches":[],
    "wof:concordances":{
        "sg:id":"SG_34c3BtaJ3ThEpBzoSkYN00_37.317933_-79.017773@1294252573"
    },
    "wof:country":"US",
    "wof:created":1461891071,
    "wof:geomhash":"dc04ede8877bcb2f04977f4837c81db2",
    "wof:hierarchy":[],
    "wof:id":722914387,
    "wof:lastmodified":1461891071,
    "wof:name":"ACH Mobile Home Svc",
    "wof:parent_id":-1,
    "wof:placetype":"venue",
    "wof:superseded_by":[],
    "wof:supersedes":[],
    "wof:tags":[
        "mobile",
        "home"
    ]
},
  "bbox": [
    -79.017773,
    37.317933,
    -79.017773,
    37.317933
],
  "geometry": {"coordinates":[-79.01777300000001,37.317933],"type":"Point"}
}