{
  "id": 723022829,
  "type": "Feature",
  "properties": {
    "edtf:cessation":"uuuu",
    "edtf:inception":"uuuu",
    "geom:area":0.0,
    "geom:bbox":"-77.460963,37.671357,-77.460963,37.671357",
    "geom:latitude":37.671357,
    "geom:longitude":-77.460963,
    "iso:country":"US",
    "sg:address":"9970 Brook Rd",
    "sg:city":"Glen Allen",
    "sg:classifiers":[
        {
            "category":"Shopping",
            "subcategory":"Clothing, Apparel, & Fashions",
            "type":"Retail Goods"
        }
    ],
    "sg:owner":"simplegeo",
    "sg:phone":"+1 804 266 7300",
    "sg:postcode":"23059",
    "sg:province":"VA",
    "src:geom":"simplegeo",
    "wof:belongsto":[],
    "wof:breaches":[],
    "wof:concordances":{
        "sg:id":"SG_0VTAqgmQMpPp3RUOrVJftF_37.671357_-77.460963@1294252573"
    },
    "wof:country":"US",
    "wof:created":1461893433,
    "wof:geomhash":"76b11c1481077d6264cedcb324fa72cf",
    "wof:hierarchy":[],
    "wof:id":723022829,
    "wof:lastmodified":1461893433,
    "wof:name":"Penelope",
    "wof:parent_id":-1,
    "wof:placetype":"venue",
    "wof:superseded_by":[],
    "wof:supersedes":[],
    "wof:tags":[]
},
  "bbox": [
    -77.460963,
    37.671357,
    -77.460963,
    37.671357
],
  "geometry": {"coordinates":[-77.46096300000001,37.671357],"type":"Point"}
}