{
  "id": 722575407,
  "type": "Feature",
  "properties": {
    "edtf:cessation":"uuuu",
    "edtf:inception":"uuuu",
    "geom:area":0.0,
    "geom:bbox":"-78.437529,38.067369,-78.437529,38.067369",
    "geom:latitude":38.067369,
    "geom:longitude":-78.437529,
    "iso:country":"US",
    "sg:address":"1 Steubin Ln",
    "sg:city":"Charlottesville",
    "sg:classifiers":[
        {
            "category":"Professional",
            "subcategory":"Management & Consulting",
            "type":"Services"
        }
    ],
    "sg:owner":"simplegeo",
    "sg:phone":"+1 434 977 0346",
    "sg:postcode":"22911",
    "sg:province":"VA",
    "sg:tags":[
        "environmental"
    ],
    "src:geom":"simplegeo",
    "wof:belongsto":[],
    "wof:breaches":[],
    "wof:concordances":{
        "sg:id":"SG_6ipUGK7Dc0z14elcyiZxqt_38.067369_-78.437529@1294252573"
    },
    "wof:country":"US",
    "wof:created":1461884518,
    "wof:geomhash":"997d844717e680844e3b86ce595c5c4f",
    "wof:hierarchy":[],
    "wof:id":722575407,
    "wof:lastmodified":1461884518,
    "wof:name":"Kajal B Kapur",
    "wof:parent_id":-1,
    "wof:placetype":"venue",
    "wof:superseded_by":[],
    "wof:supersedes":[],
    "wof:tags":[
        "environmental"
    ]
},
  "bbox": [
    -78.437529,
    38.067369,
    -78.437529,
    38.067369
],
  "geometry": {"coordinates":[-78.437529,38.067369],"type":"Point"}
}