{
  "id": 723509029,
  "type": "Feature",
  "properties": {
    "edtf:cessation":"uuuu",
    "edtf:inception":"uuuu",
    "geom:area":0.0,
    "geom:bbox":"-76.961311,38.251962,-76.961311,38.251962",
    "geom:latitude":38.251962,
    "geom:longitude":-76.961311,
    "iso:country":"US",
    "sg:address":"301 Beach Ter",
    "sg:city":"Colonial Beach",
    "sg:classifiers":[
        {
            "category":"Professional",
            "subcategory":"Business Services",
            "type":"Services"
        }
    ],
    "sg:owner":"simplegeo",
    "sg:phone":"+1 804 214 9173",
    "sg:postcode":"22443",
    "sg:province":"VA",
    "src:geom":"simplegeo",
    "wof:belongsto":[],
    "wof:breaches":[],
    "wof:concordances":{
        "sg:id":"SG_3O8rUhkVyttMzhzXOt6KGR_38.251962_-76.961311@1294252573"
    },
    "wof:country":"US",
    "wof:created":1461903165,
    "wof:geomhash":"9c7abccd081e7a5349c96330fc319cb6",
    "wof:hierarchy":[],
    "wof:id":723509029,
    "wof:lastmodified":1461903165,
    "wof:name":"Meyer & Associates",
    "wof:parent_id":-1,
    "wof:placetype":"venue",
    "wof:superseded_by":[],
    "wof:supersedes":[],
    "wof:tags":[]
},
  "bbox": [
    -76.961311,
    38.251962,
    -76.961311,
    38.251962
],
  "geometry": {"coordinates":[-76.96131099999999,38.251962],"type":"Point"}
}