{
  "id": 722744079,
  "type": "Feature",
  "properties": {
    "edtf:cessation":"uuuu",
    "edtf:inception":"uuuu",
    "geom:area":0.0,
    "geom:bbox":"-79.836709,37.225193,-79.836709,37.225193",
    "geom:latitude":37.225193,
    "geom:longitude":-79.836709,
    "iso:country":"US",
    "sg:address":"2981 Gravel Hill Rd",
    "sg:city":"Vinton",
    "sg:classifiers":[
        {
            "category":"Building & Trades",
            "subcategory":"Construction",
            "type":"Services"
        }
    ],
    "sg:owner":"simplegeo",
    "sg:phone":"+1 540 890 6921",
    "sg:postcode":"24179",
    "sg:province":"VA",
    "sg:tags":[
        "home",
        "contractor",
        "general",
        "family",
        "new"
    ],
    "src:geom":"simplegeo",
    "wof:belongsto":[],
    "wof:breaches":[],
    "wof:concordances":{
        "sg:id":"SG_3lWRTAJ1XdQKOGyYQmlSFX_37.225193_-79.836709@1294252573"
    },
    "wof:country":"US",
    "wof:created":1461887826,
    "wof:geomhash":"cdfbb75e1865f5eb3f2c2d9d31be7873",
    "wof:hierarchy":[],
    "wof:id":722744079,
    "wof:lastmodified":1461887826,
    "wof:name":"Gold Star Cnstr & Hm Imprv Co",
    "wof:parent_id":-1,
    "wof:placetype":"venue",
    "wof:superseded_by":[],
    "wof:supersedes":[],
    "wof:tags":[
        "home",
        "contractor",
        "general",
        "family",
        "new"
    ]
},
  "bbox": [
    -79.836709,
    37.225193,
    -79.836709,
    37.225193
],
  "geometry": {"coordinates":[-79.836709,37.225193],"type":"Point"}
}