{
  "id": 722901971,
  "type": "Feature",
  "properties": {
    "edtf:cessation":"uuuu",
    "edtf:inception":"uuuu",
    "geom:area":0.0,
    "geom:bbox":"-77.489009,37.515217,-77.489009,37.515217",
    "geom:latitude":37.515217,
    "geom:longitude":-77.489009,
    "iso:country":"US",
    "sg:address":"404 Westover Hills Blvd",
    "sg:city":"Richmond",
    "sg:classifiers":[
        {
            "category":"Organizations",
            "subcategory":"Community Association",
            "type":"Services"
        }
    ],
    "sg:owner":"simplegeo",
    "sg:phone":"+1 804 231 4456",
    "sg:postcode":"23225",
    "sg:province":"VA",
    "sg:tags":[
        "military"
    ],
    "src:geom":"simplegeo",
    "wof:belongsto":[],
    "wof:breaches":[],
    "wof:concordances":{
        "sg:id":"SG_5gdJ17NQlgr3xa143df4hp_37.515217_-77.489009@1294252573"
    },
    "wof:country":"US",
    "wof:created":1461890828,
    "wof:geomhash":"a7962d418d66047efc54c9b2dc510e4c",
    "wof:hierarchy":[],
    "wof:id":722901971,
    "wof:lastmodified":1461890828,
    "wof:name":"American Legion",
    "wof:parent_id":-1,
    "wof:placetype":"venue",
    "wof:superseded_by":[],
    "wof:supersedes":[],
    "wof:tags":[
        "military"
    ]
},
  "bbox": [
    -77.489009,
    37.515217,
    -77.489009,
    37.515217
],
  "geometry": {"coordinates":[-77.489009,37.515217],"type":"Point"}
}