{
  "id": 722610617,
  "type": "Feature",
  "properties": {
    "edtf:cessation":"uuuu",
    "edtf:inception":"uuuu",
    "geom:area":0.0,
    "geom:bbox":"-77.46941,37.634597,-77.46941,37.634597",
    "geom:latitude":37.634597,
    "geom:longitude":-77.46941,
    "iso:country":"US",
    "sg:address":"1521 Skirmish Run Dr",
    "sg:city":"Richmond",
    "sg:classifiers":[
        {
            "category":"Professional",
            "subcategory":"Business Services",
            "type":"Services"
        }
    ],
    "sg:owner":"simplegeo",
    "sg:phone":"+1 804 262 9468",
    "sg:postcode":"23228",
    "sg:province":"VA",
    "src:geom":"simplegeo",
    "wof:belongsto":[],
    "wof:breaches":[],
    "wof:concordances":{
        "sg:id":"SG_51V4GEDqRbpjsTNBtf0JfM_37.634597_-77.469410@1294252573"
    },
    "wof:country":"US",
    "wof:created":1461885185,
    "wof:geomhash":"61b7df0e06644f39193c45d4bc3fd50f",
    "wof:hierarchy":[],
    "wof:id":722610617,
    "wof:lastmodified":1461885185,
    "wof:name":"Frank Landscape & Design",
    "wof:parent_id":-1,
    "wof:placetype":"venue",
    "wof:superseded_by":[],
    "wof:supersedes":[],
    "wof:tags":[]
},
  "bbox": [
    -77.46941,
    37.634597,
    -77.46941,
    37.634597
],
  "geometry": {"coordinates":[-77.46941,37.634597],"type":"Point"}
}