{
  "id": 723330867,
  "type": "Feature",
  "properties": {
    "edtf:cessation":"uuuu",
    "edtf:inception":"uuuu",
    "geom:area":0.0,
    "geom:bbox":"-77.520498,38.228695,-77.520498,38.228695",
    "geom:latitude":38.228695,
    "geom:longitude":-77.520498,
    "iso:country":"US",
    "sg:address":"202 Gallimore Dr",
    "sg:city":"Fredericksburg",
    "sg:classifiers":[
        {
            "category":"Professional",
            "subcategory":"",
            "type":"Services"
        }
    ],
    "sg:owner":"simplegeo",
    "sg:phone":"+1 540 898 3029",
    "sg:postcode":"22407",
    "sg:province":"VA",
    "src:geom":"simplegeo",
    "wof:belongsto":[],
    "wof:breaches":[],
    "wof:concordances":{
        "sg:id":"SG_3Z18vHqf3jOiHcARo9GaQW_38.228695_-77.520498@1294252573"
    },
    "wof:country":"US",
    "wof:created":1461899640,
    "wof:geomhash":"1a0c1c8de4a0ad142cfd680edf6c06d2",
    "wof:hierarchy":[],
    "wof:id":723330867,
    "wof:lastmodified":1461899640,
    "wof:name":"Purplebox Multimedia Inc",
    "wof:parent_id":-1,
    "wof:placetype":"venue",
    "wof:superseded_by":[],
    "wof:supersedes":[],
    "wof:tags":[]
},
  "bbox": [
    -77.520498,
    38.228695,
    -77.520498,
    38.228695
],
  "geometry": {"coordinates":[-77.520498,38.228695],"type":"Point"}
}