{
  "id": 722900765,
  "type": "Feature",
  "properties": {
    "edtf:cessation":"uuuu",
    "edtf:inception":"uuuu",
    "geom:area":0.0,
    "geom:bbox":"-77.464575,38.714571,-77.464575,38.714571",
    "geom:latitude":38.714571,
    "geom:longitude":-77.464575,
    "iso:country":"US",
    "sg:address":"11210 Dumfries Rd",
    "sg:city":"Manassas",
    "sg:classifiers":[
        {
            "category":"Home & Garden",
            "subcategory":"Garden Supply",
            "type":"Retail Goods"
        }
    ],
    "sg:owner":"simplegeo",
    "sg:phone":"+1 703 361 4769",
    "sg:postcode":"20112",
    "sg:province":"VA",
    "sg:tags":[
        "nurseryman"
    ],
    "sg:website":"www.meadowsfarms.com",
    "src:geom":"simplegeo",
    "wof:belongsto":[],
    "wof:breaches":[],
    "wof:concordances":{
        "sg:id":"SG_7cr3UwaGH5558KKnkwuUFB_38.714571_-77.464575@1294252573"
    },
    "wof:country":"US",
    "wof:created":1461890805,
    "wof:geomhash":"b0d1895d334d890ae478a2dc035624ed",
    "wof:hierarchy":[],
    "wof:id":722900765,
    "wof:lastmodified":1461890805,
    "wof:name":"Meadows Farms Nurseries",
    "wof:parent_id":-1,
    "wof:placetype":"venue",
    "wof:superseded_by":[],
    "wof:supersedes":[],
    "wof:tags":[
        "nurseryman"
    ]
},
  "bbox": [
    -77.464575,
    38.714571,
    -77.464575,
    38.714571
],
  "geometry": {"coordinates":[-77.464575,38.714571],"type":"Point"}
}