{
  "id": 722770447,
  "type": "Feature",
  "properties": {
    "edtf:cessation":"uuuu",
    "edtf:inception":"uuuu",
    "geom:area":0.0,
    "geom:bbox":"-77.342545,38.970534,-77.342545,38.970534",
    "geom:latitude":38.970534,
    "geom:longitude":-77.342545,
    "iso:country":"US",
    "sg:address":"11450 Baron Cameron Ave",
    "sg:city":"Reston",
    "sg:classifiers":[
        {
            "category":"Real Estate",
            "subcategory":"Real Estate Agent",
            "type":"Services"
        }
    ],
    "sg:owner":"simplegeo",
    "sg:phone":"+1 703 796 1800",
    "sg:postcode":"20190",
    "sg:province":"VA",
    "sg:tags":[
        "brokerage",
        "management"
    ],
    "sg:website":"www.tetrapartners.com",
    "src:geom":"simplegeo",
    "wof:belongsto":[
        85688747,
        102191575,
        85633793,
        101729785,
        102084863,
        85894021
    ],
    "wof:breaches":[],
    "wof:concordances":{
        "sg:id":"SG_2hltpvucVIJWKDsqcrzyXv_38.970534_-77.342545@1294252573"
    },
    "wof:country":"US",
    "wof:created":1461888320,
    "wof:geomhash":"01ded10e75f1ed0e7b7e552c5ca26571",
    "wof:hierarchy":[
        {
            "continent_id":102191575,
            "country_id":85633793,
            "county_id":102084863,
            "locality_id":101729785,
            "neighbourhood_id":85894021,
            "region_id":85688747,
            "venue_id":722770447
        }
    ],
    "wof:id":722770447,
    "wof:lastmodified":1461888320,
    "wof:name":"Tetra Partnerships",
    "wof:parent_id":85894021,
    "wof:placetype":"venue",
    "wof:superseded_by":[],
    "wof:supersedes":[],
    "wof:tags":[
        "brokerage",
        "management"
    ]
},
  "bbox": [
    -77.342545,
    38.970534,
    -77.342545,
    38.970534
],
  "geometry": {"coordinates":[-77.342545,38.970534],"type":"Point"}
}