{
  "id": 739266653,
  "type": "Feature",
  "properties": {
    "edtf:cessation":"uuuu",
    "edtf:inception":"uuuu",
    "geom:area":0.0,
    "geom:bbox":"-77.415559,38.463135,-77.415559,38.463135",
    "geom:latitude":38.463135,
    "geom:longitude":-77.415559,
    "iso:country":"US",
    "sg:address":"1003 Providence St",
    "sg:city":"Stafford",
    "sg:classifiers":[
        {
            "category":"Freight",
            "subcategory":"",
            "type":"Transportation"
        }
    ],
    "sg:owner":"simplegeo",
    "sg:phone":"+1 540 658 1037",
    "sg:postcode":"22554",
    "sg:province":"VA",
    "sg:tags":[
        "trucking"
    ],
    "src:geom":"simplegeo",
    "wof:belongsto":[],
    "wof:breaches":[],
    "wof:concordances":{
        "sg:id":"SG_4SOc8iLDaNgaWWsyMkNTq0_38.463135_-77.415559@1294252573"
    },
    "wof:country":"US",
    "wof:created":1461903846,
    "wof:geomhash":"8c60b17d536f0ebefb0d140526ec464d",
    "wof:hierarchy":[],
    "wof:id":739266653,
    "wof:lastmodified":1461903846,
    "wof:name":"P & D Hauling",
    "wof:parent_id":420547109,
    "wof:placetype":"venue",
    "wof:superseded_by":[],
    "wof:supersedes":[],
    "wof:tags":[
        "trucking"
    ]
},
  "bbox": [
    -77.415559,
    38.463135,
    -77.415559,
    38.463135
],
  "geometry": {"coordinates":[-77.415559,38.463135],"type":"Point"}
}