{
  "id": 722882759,
  "type": "Feature",
  "properties": {
    "edtf:cessation":"uuuu",
    "edtf:inception":"uuuu",
    "geom:area":0.0,
    "geom:bbox":"-77.546592,38.807413,-77.546592,38.807413",
    "geom:latitude":38.807413,
    "geom:longitude":-77.546592,
    "iso:country":"US",
    "sg:address":"6835 General Longstreets Line",
    "sg:city":"Manassas",
    "sg:classifiers":[
        {
            "category":"Professional",
            "subcategory":"",
            "type":"Services"
        }
    ],
    "sg:owner":"simplegeo",
    "sg:phone":"+1 703 754 0400",
    "sg:postcode":"20109",
    "sg:province":"VA",
    "src:geom":"simplegeo",
    "wof:belongsto":[],
    "wof:breaches":[],
    "wof:concordances":{
        "sg:id":"SG_6NVreqwrPunqyPfl3gmiIF_38.807413_-77.546592@1294252573"
    },
    "wof:country":"US",
    "wof:created":1461890447,
    "wof:geomhash":"b624db63709912d498d405ca7d465437",
    "wof:hierarchy":[],
    "wof:id":722882759,
    "wof:lastmodified":1461890447,
    "wof:name":"Wessol Services LLC",
    "wof:parent_id":-1,
    "wof:placetype":"venue",
    "wof:superseded_by":[],
    "wof:supersedes":[],
    "wof:tags":[]
},
  "bbox": [
    -77.546592,
    38.807413,
    -77.546592,
    38.807413
],
  "geometry": {"coordinates":[-77.546592,38.807413],"type":"Point"}
}