{
  "id": 723071389,
  "type": "Feature",
  "properties": {
    "edtf:cessation":"uuuu",
    "edtf:inception":"uuuu",
    "geom:area":0.0,
    "geom:bbox":"-77.49976,39.105826,-77.49976,39.105826",
    "geom:latitude":39.105826,
    "geom:longitude":-77.49976,
    "iso:country":"US",
    "sg:address":"43428 Westchester Sq",
    "sg:city":"Leesburg",
    "sg:classifiers":[
        {
            "category":"Professional",
            "subcategory":"Management & Consulting",
            "type":"Services"
        }
    ],
    "sg:owner":"simplegeo",
    "sg:phone":"+1 703 777 4761",
    "sg:postcode":"20176",
    "sg:province":"VA",
    "src:geom":"simplegeo",
    "wof:belongsto":[],
    "wof:breaches":[],
    "wof:concordances":{
        "sg:id":"SG_0aAt5YgodCOLIbGFfpFzS7_39.105826_-77.499760@1294252573"
    },
    "wof:country":"US",
    "wof:created":1461894488,
    "wof:geomhash":"06a34fd2e85c1f09d290662287dfa8d0",
    "wof:hierarchy":[],
    "wof:id":723071389,
    "wof:lastmodified":1461894488,
    "wof:name":"Oxford Enterprises LLC",
    "wof:parent_id":-1,
    "wof:placetype":"venue",
    "wof:superseded_by":[],
    "wof:supersedes":[],
    "wof:tags":[]
},
  "bbox": [
    -77.49976,
    39.105826,
    -77.49976,
    39.105826
],
  "geometry": {"coordinates":[-77.49975999999999,39.105826],"type":"Point"}
}