{
  "id": 723305185,
  "type": "Feature",
  "properties": {
    "edtf:cessation":"uuuu",
    "edtf:inception":"uuuu",
    "geom:area":0.0,
    "geom:bbox":"-77.672323,37.511014,-77.672323,37.511014",
    "geom:latitude":37.511014,
    "geom:longitude":-77.672323,
    "iso:country":"US",
    "sg:address":"14421 Justice Rd",
    "sg:city":"Midlothian",
    "sg:classifiers":[
        {
            "category":"Professional",
            "subcategory":"Computer Services",
            "type":"Services"
        }
    ],
    "sg:owner":"simplegeo",
    "sg:phone":"+1 804 379 1800",
    "sg:postcode":"23113",
    "sg:province":"VA",
    "sg:tags":[
        "consultant",
        "designer"
    ],
    "sg:website":"www.networkingtech.com",
    "src:geom":"simplegeo",
    "wof:belongsto":[],
    "wof:breaches":[],
    "wof:concordances":{
        "sg:id":"SG_5xwiIoX2EddJfTV5QmsRHs_37.511014_-77.672323@1294252573"
    },
    "wof:country":"US",
    "wof:created":1461899172,
    "wof:geomhash":"b6472a4f98bab4a085da45f50cfa4185",
    "wof:hierarchy":[],
    "wof:id":723305185,
    "wof:lastmodified":1461899172,
    "wof:name":"Networking Technologies Inc",
    "wof:parent_id":-1,
    "wof:placetype":"venue",
    "wof:superseded_by":[],
    "wof:supersedes":[],
    "wof:tags":[
        "consultant",
        "designer"
    ]
},
  "bbox": [
    -77.672323,
    37.511014,
    -77.672323,
    37.511014
],
  "geometry": {"coordinates":[-77.67232300000001,37.511014],"type":"Point"}
}