{
  "id": 722703013,
  "type": "Feature",
  "properties": {
    "edtf:cessation":"uuuu",
    "edtf:inception":"uuuu",
    "geom:area":0.0,
    "geom:bbox":"-77.189789,38.270147,-77.189789,38.270147",
    "geom:latitude":38.270147,
    "geom:longitude":-77.189789,
    "iso:country":"US",
    "sg:address":"9127 Kings Hwy",
    "sg:city":"King George",
    "sg:classifiers":[
        {
            "category":"Professional",
            "subcategory":"Computer Services",
            "type":"Services"
        }
    ],
    "sg:owner":"simplegeo",
    "sg:phone":"+1 540 220 1145",
    "sg:postcode":"22485",
    "sg:province":"VA",
    "sg:tags":[
        "consulting"
    ],
    "src:geom":"simplegeo",
    "wof:belongsto":[],
    "wof:breaches":[],
    "wof:concordances":{
        "sg:id":"SG_2nMhVjHy9IH9nQYAV3z6zg_38.270147_-77.189789@1294252573"
    },
    "wof:country":"US",
    "wof:created":1461887026,
    "wof:geomhash":"9295775f376ccd78b1ef7514467dfe97",
    "wof:hierarchy":[],
    "wof:id":722703013,
    "wof:lastmodified":1461887026,
    "wof:name":"Aiis Inc",
    "wof:parent_id":-1,
    "wof:placetype":"venue",
    "wof:superseded_by":[],
    "wof:supersedes":[],
    "wof:tags":[
        "consulting"
    ]
},
  "bbox": [
    -77.189789,
    38.270147,
    -77.189789,
    38.270147
],
  "geometry": {"coordinates":[-77.189789,38.270147],"type":"Point"}
}