{
  "id": 722791979,
  "type": "Feature",
  "properties": {
    "edtf:cessation":"uuuu",
    "edtf:inception":"uuuu",
    "geom:area":0.0,
    "geom:bbox":"-77.581155,38.395412,-77.581155,38.395412",
    "geom:latitude":38.395412,
    "geom:longitude":-77.581155,
    "iso:country":"US",
    "sg:address":"240 Richards Ferry Rd",
    "sg:city":"Fredericksburg",
    "sg:classifiers":[
        {
            "category":"Building & Trades",
            "subcategory":"Construction",
            "type":"Services"
        }
    ],
    "sg:owner":"simplegeo",
    "sg:phone":"+1 540 752 0912",
    "sg:postcode":"22406",
    "sg:province":"VA",
    "sg:tags":[
        "contractor"
    ],
    "src:geom":"simplegeo",
    "wof:belongsto":[],
    "wof:breaches":[],
    "wof:concordances":{
        "sg:id":"SG_22krcIAacW0ODRFlxGsngw_38.395412_-77.581155@1294252573"
    },
    "wof:country":"US",
    "wof:created":1461888729,
    "wof:geomhash":"59d6569a2c8c1e9dd9e16a1a3e468722",
    "wof:hierarchy":[],
    "wof:id":722791979,
    "wof:lastmodified":1461888729,
    "wof:name":"ABC General Contracting LLC",
    "wof:parent_id":-1,
    "wof:placetype":"venue",
    "wof:superseded_by":[],
    "wof:supersedes":[],
    "wof:tags":[
        "contractor"
    ]
},
  "bbox": [
    -77.581155,
    38.395412,
    -77.581155,
    38.395412
],
  "geometry": {"coordinates":[-77.581155,38.395412],"type":"Point"}
}