{
  "id": 722809041,
  "type": "Feature",
  "properties": {
    "edtf:cessation":"uuuu",
    "edtf:inception":"uuuu",
    "geom:area":0.0,
    "geom:bbox":"-77.611021,37.489576,-77.611021,37.489576",
    "geom:latitude":37.489576,
    "geom:longitude":-77.611021,
    "iso:country":"US",
    "sg:address":"231 Hazelmere Dr",
    "sg:city":"Richmond",
    "sg:classifiers":[
        {
            "category":"Professional",
            "subcategory":"",
            "type":"Services"
        }
    ],
    "sg:owner":"simplegeo",
    "sg:phone":"+1 804 794 7153",
    "sg:postcode":"23236",
    "sg:province":"VA",
    "src:geom":"simplegeo",
    "wof:belongsto":[],
    "wof:breaches":[],
    "wof:concordances":{
        "sg:id":"SG_3u4XknMfCp4IJlRQgRWGIb_37.489576_-77.611021@1294252573"
    },
    "wof:country":"US",
    "wof:created":1461889049,
    "wof:geomhash":"97112025b6de1b339edce23112247ec3",
    "wof:hierarchy":[],
    "wof:id":722809041,
    "wof:lastmodified":1461889049,
    "wof:name":"Heart Pro Incorporated",
    "wof:parent_id":-1,
    "wof:placetype":"venue",
    "wof:superseded_by":[],
    "wof:supersedes":[],
    "wof:tags":[]
},
  "bbox": [
    -77.611021,
    37.489576,
    -77.611021,
    37.489576
],
  "geometry": {"coordinates":[-77.61102099999999,37.489576],"type":"Point"}
}