{
  "id": 739583471,
  "type": "Feature",
  "properties": {
    "edtf:cessation":"uuuu",
    "edtf:inception":"uuuu",
    "geom:area":0.0,
    "geom:bbox":"-77.498397,38.251115,-77.498397,38.251115",
    "geom:latitude":38.251115,
    "geom:longitude":-77.498397,
    "iso:country":"US",
    "sg:address":"5237 Jefferson Davis Hwy",
    "sg:city":"Fredericksburg",
    "sg:classifiers":[
        {
            "category":"Restaurant",
            "subcategory":"",
            "type":"Food & Drink"
        }
    ],
    "sg:menulink":"http://www.allmenus.com/va/battlefield/11421-dennys/menu/",
    "sg:owner":"simplegeo",
    "sg:phone":"+1 540 898 0120",
    "sg:postcode":"22408",
    "sg:province":"VA",
    "sg:tags":[
        "american",
        "diner"
    ],
    "src:geom":"simplegeo",
    "wof:belongsto":[],
    "wof:breaches":[],
    "wof:concordances":{
        "sg:id":"SG_0Rppo0KQmTxYIgRj72fCvT_38.251115_-77.498397@1299784598"
    },
    "wof:country":"US",
    "wof:created":1461910076,
    "wof:geomhash":"b11dfad345cbfa206db3377d02f2dcf5",
    "wof:hierarchy":[],
    "wof:id":739583471,
    "wof:lastmodified":1461910076,
    "wof:name":"Denny's",
    "wof:parent_id":-1,
    "wof:placetype":"venue",
    "wof:superseded_by":[],
    "wof:supersedes":[],
    "wof:tags":[
        "american",
        "diner"
    ]
},
  "bbox": [
    -77.498397,
    38.251115,
    -77.498397,
    38.251115
],
  "geometry": {"coordinates":[-77.498397,38.251115],"type":"Point"}
}