{
  "id": 722670333,
  "type": "Feature",
  "properties": {
    "edtf:cessation":"uuuu",
    "edtf:inception":"uuuu",
    "geom:area":0.0,
    "geom:bbox":"-80.924642,36.661762,-80.924642,36.661762",
    "geom:latitude":36.661762,
    "geom:longitude":-80.924642,
    "iso:country":"US",
    "sg:address":"111 S Main St",
    "sg:city":"Galax",
    "sg:classifiers":[
        {
            "category":"Shopping",
            "subcategory":"Used Merchandise",
            "type":"Retail Goods"
        }
    ],
    "sg:owner":"simplegeo",
    "sg:phone":"+1 276 236 8662",
    "sg:postcode":"24333",
    "sg:province":"VA",
    "sg:tags":[
        "antique"
    ],
    "src:geom":"simplegeo",
    "wof:belongsto":[],
    "wof:breaches":[],
    "wof:concordances":{
        "sg:id":"SG_17pgow4yRKeS14iIGVPeUo_36.661762_-80.924642@1294252573"
    },
    "wof:country":"US",
    "wof:created":1461886404,
    "wof:geomhash":"c5cf401a7066d50bed0e4b3761b62a4d",
    "wof:hierarchy":[],
    "wof:id":722670333,
    "wof:lastmodified":1461886404,
    "wof:name":"Bonaparte Antiques",
    "wof:parent_id":-1,
    "wof:placetype":"venue",
    "wof:superseded_by":[],
    "wof:supersedes":[],
    "wof:tags":[
        "antique"
    ]
},
  "bbox": [
    -80.924642,
    36.661762,
    -80.924642,
    36.661762
],
  "geometry": {"coordinates":[-80.92464200000001,36.661762],"type":"Point"}
}