{
  "id": 739509017,
  "type": "Feature",
  "properties": {
    "edtf:cessation":"uuuu",
    "edtf:inception":"uuuu",
    "geom:area":0.0,
    "geom:bbox":"-77.436245,37.692731,-77.436245,37.692731",
    "geom:latitude":37.692731,
    "geom:longitude":-77.436245,
    "iso:country":"US",
    "sg:address":"9555 Kings Charter Dr",
    "sg:city":"Ashland",
    "sg:classifiers":[
        {
            "category":"Home & Garden",
            "subcategory":"Household Appliances",
            "type":"Retail Goods"
        }
    ],
    "sg:owner":"simplegeo",
    "sg:phone":"+1 804 550 7867",
    "sg:postcode":"23005",
    "sg:province":"VA",
    "sg:tags":[
        "pump"
    ],
    "src:geom":"simplegeo",
    "wof:belongsto":[],
    "wof:breaches":[],
    "wof:concordances":{
        "sg:id":"SG_6dcxc8gzdIEIBrPsXMmGuw_37.692731_-77.436245@1294252573"
    },
    "wof:country":"US",
    "wof:created":1461908593,
    "wof:geomhash":"c1016d6fe7abf22b6cc36f1f898c7ede",
    "wof:hierarchy":[],
    "wof:id":739509017,
    "wof:lastmodified":1461908593,
    "wof:name":"Pump It Up",
    "wof:parent_id":-1,
    "wof:placetype":"venue",
    "wof:superseded_by":[],
    "wof:supersedes":[],
    "wof:tags":[
        "pump"
    ]
},
  "bbox": [
    -77.436245,
    37.692731,
    -77.436245,
    37.692731
],
  "geometry": {"coordinates":[-77.436245,37.692731],"type":"Point"}
}