{
  "id": 722616491,
  "type": "Feature",
  "properties": {
    "edtf:cessation":"uuuu",
    "edtf:inception":"uuuu",
    "geom:area":0.0,
    "geom:bbox":"-77.540004,37.595583,-77.540004,37.595583",
    "geom:latitude":37.595583,
    "geom:longitude":-77.540004,
    "iso:country":"US",
    "sg:address":"1201 Hollins Rd",
    "sg:city":"Richmond",
    "sg:classifiers":[
        {
            "category":"Wholesale",
            "subcategory":"Machinery & Supplies",
            "type":"Manufacturing & Wholesale Goods"
        }
    ],
    "sg:owner":"simplegeo",
    "sg:phone":"+1 804 343 1900",
    "sg:postcode":"23229",
    "sg:province":"VA",
    "sg:tags":[
        "equipment"
    ],
    "src:geom":"simplegeo",
    "wof:belongsto":[],
    "wof:breaches":[],
    "wof:concordances":{
        "sg:id":"SG_1sYnhO8denXwxbuwr2TyOU_37.595583_-77.540004@1294252573"
    },
    "wof:country":"US",
    "wof:created":1461885290,
    "wof:geomhash":"774e5bbffa5de0907acc804000bebc34",
    "wof:hierarchy":[],
    "wof:id":722616491,
    "wof:lastmodified":1461885290,
    "wof:name":"Chesapeake Contracting Group",
    "wof:parent_id":-1,
    "wof:placetype":"venue",
    "wof:superseded_by":[],
    "wof:supersedes":[],
    "wof:tags":[
        "equipment"
    ]
},
  "bbox": [
    -77.540004,
    37.595583,
    -77.540004,
    37.595583
],
  "geometry": {"coordinates":[-77.540004,37.595583],"type":"Point"}
}