{
  "id": 722551847,
  "type": "Feature",
  "properties": {
    "edtf:cessation":"uuuu",
    "edtf:inception":"uuuu",
    "geom:area":0.0,
    "geom:bbox":"-80.517073,36.781132,-80.517073,36.781132",
    "geom:latitude":36.781132,
    "geom:longitude":-80.517073,
    "iso:country":"US",
    "sg:address":"470 Rock Church Rd SW",
    "sg:city":"Willis",
    "sg:classifiers":[
        {
            "category":"Manufacturing",
            "subcategory":"Retail Goods",
            "type":"Manufacturing & Wholesale Goods"
        }
    ],
    "sg:owner":"simplegeo",
    "sg:phone":"+1 540 789 8300",
    "sg:postcode":"24380",
    "sg:province":"VA",
    "sg:tags":[
        "product",
        "mfg"
    ],
    "src:geom":"simplegeo",
    "wof:belongsto":[],
    "wof:breaches":[],
    "wof:concordances":{
        "sg:id":"SG_4eJIISFdAigWOCUJbuUxSd_36.781132_-80.517073@1294252573"
    },
    "wof:country":"US",
    "wof:created":1461884042,
    "wof:geomhash":"208822222bd870716b06073320e7c431",
    "wof:hierarchy":[],
    "wof:id":722551847,
    "wof:lastmodified":1461884042,
    "wof:name":"Kc Wood Mfg",
    "wof:parent_id":-1,
    "wof:placetype":"venue",
    "wof:superseded_by":[],
    "wof:supersedes":[],
    "wof:tags":[
        "product",
        "mfg"
    ]
},
  "bbox": [
    -80.517073,
    36.781132,
    -80.517073,
    36.781132
],
  "geometry": {"coordinates":[-80.517073,36.781132],"type":"Point"}
}