{
  "id": 723342295,
  "type": "Feature",
  "properties": {
    "edtf:cessation":"uuuu",
    "edtf:inception":"uuuu",
    "geom:area":0.0,
    "geom:bbox":"-82.034485,36.621888,-82.034485,36.621888",
    "geom:latitude":36.621888,
    "geom:longitude":-82.034485,
    "iso:country":"US",
    "sg:address":"18296 Tioga Dr",
    "sg:city":"Abingdon",
    "sg:classifiers":[
        {
            "category":"Retail",
            "subcategory":"Auto Rental",
            "type":"Services"
        }
    ],
    "sg:owner":"simplegeo",
    "sg:phone":"+1 276 623 2437",
    "sg:postcode":"24211",
    "sg:province":"VA",
    "sg:tags":[
        "equipment",
        "car",
        "passenger"
    ],
    "src:geom":"simplegeo",
    "wof:belongsto":[],
    "wof:breaches":[],
    "wof:concordances":{
        "sg:id":"SG_41DREe3ib5sPCOviPSXSvz_36.621888_-82.034485@1294252573"
    },
    "wof:country":"US",
    "wof:created":1461899849,
    "wof:geomhash":"f52a483a997ab67f08c3281c401dfe6a",
    "wof:hierarchy":[],
    "wof:id":723342295,
    "wof:lastmodified":1461899849,
    "wof:name":"Rent Smart",
    "wof:parent_id":420547307,
    "wof:placetype":"venue",
    "wof:superseded_by":[],
    "wof:supersedes":[],
    "wof:tags":[
        "equipment",
        "car",
        "passenger"
    ]
},
  "bbox": [
    -82.034485,
    36.621888,
    -82.034485,
    36.621888
],
  "geometry": {"coordinates":[-82.034485,36.621888],"type":"Point"}
}