{
  "id": 723503165,
  "type": "Feature",
  "properties": {
    "edtf:cessation":"uuuu",
    "edtf:inception":"uuuu",
    "geom:area":0.0,
    "geom:bbox":"-77.522391,38.793239,-77.522391,38.793239",
    "geom:latitude":38.793239,
    "geom:longitude":-77.522391,
    "iso:country":"US",
    "sg:address":"10920 Coverstone Dr",
    "sg:city":"Manassas",
    "sg:classifiers":[
        {
            "category":"Food & Beverages",
            "subcategory":"Bakery",
            "type":"Retail Goods"
        }
    ],
    "sg:owner":"simplegeo",
    "sg:phone":"+1 703 369 1504",
    "sg:postcode":"20109",
    "sg:province":"VA",
    "src:geom":"simplegeo",
    "wof:belongsto":[],
    "wof:breaches":[],
    "wof:concordances":{
        "sg:id":"SG_4PleBpXllvOxR4v12OPSpK_38.793239_-77.522391@1294252573"
    },
    "wof:country":"US",
    "wof:created":1461903025,
    "wof:geomhash":"bee331b2eea028c390d240d982031d2c",
    "wof:hierarchy":[],
    "wof:id":723503165,
    "wof:lastmodified":1461903025,
    "wof:name":"Have Your Cake N Eat It Too",
    "wof:parent_id":-1,
    "wof:placetype":"venue",
    "wof:superseded_by":[],
    "wof:supersedes":[],
    "wof:tags":[]
},
  "bbox": [
    -77.522391,
    38.793239,
    -77.522391,
    38.793239
],
  "geometry": {"coordinates":[-77.522391,38.793239],"type":"Point"}
}