{
  "id": 723258671,
  "type": "Feature",
  "properties": {
    "edtf:cessation":"uuuu",
    "edtf:inception":"uuuu",
    "geom:area":0.0,
    "geom:bbox":"-77.462703,39.059062,-77.462703,39.059062",
    "geom:latitude":39.059062,
    "geom:longitude":-77.462703,
    "iso:country":"US",
    "sg:address":"20098 Ashbrook Pl",
    "sg:city":"Ashburn",
    "sg:classifiers":[
        {
            "category":"Utilities",
            "subcategory":"Telephone",
            "type":"Services"
        }
    ],
    "sg:owner":"simplegeo",
    "sg:phone":"+1 703 726 6600",
    "sg:postcode":"20147",
    "sg:province":"VA",
    "sg:tags":[
        "communications",
        "datum"
    ],
    "src:geom":"simplegeo",
    "wof:belongsto":[],
    "wof:breaches":[],
    "wof:concordances":{
        "sg:id":"SG_4NH5wR5eoPciGmSnzjSc8V_39.059062_-77.462703@1294252573"
    },
    "wof:country":"US",
    "wof:created":1461898283,
    "wof:geomhash":"eda36ea96eb6accbb63494a93592fa08",
    "wof:hierarchy":[],
    "wof:id":723258671,
    "wof:lastmodified":1461898283,
    "wof:name":"Sevenspace Inc",
    "wof:parent_id":-1,
    "wof:placetype":"venue",
    "wof:superseded_by":[],
    "wof:supersedes":[],
    "wof:tags":[
        "communications",
        "datum"
    ]
},
  "bbox": [
    -77.462703,
    39.059062,
    -77.462703,
    39.059062
],
  "geometry": {"coordinates":[-77.462703,39.059062],"type":"Point"}
}