{
  "id": 739668353,
  "type": "Feature",
  "properties": {
    "edtf:cessation":"uuuu",
    "edtf:inception":"uuuu",
    "geom:area":0.0,
    "geom:bbox":"-77.108101,38.841999,-77.108101,38.841999",
    "geom:latitude":38.841999,
    "geom:longitude":-77.108101,
    "iso:country":"US",
    "sg:address":"4675 King St",
    "sg:city":"Arlington",
    "sg:classifiers":[
        {
            "category":"Fast Food",
            "subcategory":"",
            "type":"Food & Drink"
        },
        {
            "category":"Restaurant",
            "subcategory":"",
            "type":"Food & Drink"
        }
    ],
    "sg:owner":"simplegeo",
    "sg:phone":"+1 703 671 7447",
    "sg:postcode":"22206",
    "sg:province":"VA",
    "sg:tags":[
        "southern"
    ],
    "sg:website":"www.popeyes.com/",
    "src:geom":"simplegeo",
    "wof:belongsto":[],
    "wof:breaches":[],
    "wof:concordances":{
        "sg:id":"SG_4uE7dYrElT1z9GVd3kZEDW_38.841999_-77.108101@1303262543"
    },
    "wof:country":"US",
    "wof:created":1461911918,
    "wof:geomhash":"f021db524ef6ecfe6ef7ec5811c99580",
    "wof:hierarchy":[],
    "wof:id":739668353,
    "wof:lastmodified":1461911918,
    "wof:name":"Popeyes",
    "wof:parent_id":-1,
    "wof:placetype":"venue",
    "wof:superseded_by":[],
    "wof:supersedes":[],
    "wof:tags":[
        "southern"
    ]
},
  "bbox": [
    -77.108101,
    38.841999,
    -77.108101,
    38.841999
],
  "geometry": {"coordinates":[-77.108101,38.841999],"type":"Point"}
}