{
  "id": 723322307,
  "type": "Feature",
  "properties": {
    "edtf:cessation":"uuuu",
    "edtf:inception":"uuuu",
    "geom:area":0.0,
    "geom:bbox":"-79.971574,37.012748,-79.971574,37.012748",
    "geom:latitude":37.012748,
    "geom:longitude":-79.971574,
    "iso:country":"US",
    "sg:address":"300 Coles Knob Ln",
    "sg:city":"Rocky Mount",
    "sg:classifiers":[
        {
            "category":"Building & Trades",
            "subcategory":"Construction",
            "type":"Services"
        }
    ],
    "sg:owner":"simplegeo",
    "sg:phone":"+1 540 483 3693",
    "sg:postcode":"24151",
    "sg:province":"VA",
    "sg:tags":[
        "concrete",
        "contractor"
    ],
    "src:geom":"simplegeo",
    "wof:belongsto":[],
    "wof:breaches":[],
    "wof:concordances":{
        "sg:id":"SG_1mUWBDDn50Ijh0R7pfIy9Q_37.012748_-79.971574@1294252573"
    },
    "wof:country":"US",
    "wof:created":1461899489,
    "wof:geomhash":"83ab3793e666147ec911629079dd8e93",
    "wof:hierarchy":[],
    "wof:id":723322307,
    "wof:lastmodified":1461899489,
    "wof:name":"Turner Gary W Con Foundations",
    "wof:parent_id":-1,
    "wof:placetype":"venue",
    "wof:superseded_by":[],
    "wof:supersedes":[],
    "wof:tags":[
        "concrete",
        "contractor"
    ]
},
  "bbox": [
    -79.971574,
    37.012748,
    -79.971574,
    37.012748
],
  "geometry": {"coordinates":[-79.971574,37.012748],"type":"Point"}
}