{
  "id": 722843611,
  "type": "Feature",
  "properties": {
    "edtf:cessation":"uuuu",
    "edtf:inception":"uuuu",
    "geom:area":0.0,
    "geom:bbox":"-77.513048,37.653797,-77.513048,37.653797",
    "geom:latitude":37.653797,
    "geom:longitude":-77.513048,
    "iso:country":"US",
    "sg:address":"10300 Attems Way",
    "sg:city":"Glen Allen",
    "sg:classifiers":[
        {
            "category":"Communications",
            "subcategory":"Radio Station",
            "type":"Services"
        }
    ],
    "sg:owner":"simplegeo",
    "sg:phone":"+1 804 672 6726",
    "sg:postcode":"23060",
    "sg:province":"VA",
    "sg:tags":[
        "broadcast"
    ],
    "src:geom":"simplegeo",
    "wof:belongsto":[],
    "wof:breaches":[],
    "wof:concordances":{
        "sg:id":"SG_3rCPTLBoTjz5h217ryGXQ8_37.653797_-77.513048@1294252573"
    },
    "wof:country":"US",
    "wof:created":1461889693,
    "wof:geomhash":"65ce317db24001bdc89385e21a4eea68",
    "wof:hierarchy":[],
    "wof:id":722843611,
    "wof:lastmodified":1461889693,
    "wof:name":"Winner Broadcasting LLC",
    "wof:parent_id":-1,
    "wof:placetype":"venue",
    "wof:superseded_by":[],
    "wof:supersedes":[],
    "wof:tags":[
        "broadcast"
    ]
},
  "bbox": [
    -77.513048,
    37.653797,
    -77.513048,
    37.653797
],
  "geometry": {"coordinates":[-77.513048,37.653797],"type":"Point"}
}