{
  "id": 723134769,
  "type": "Feature",
  "properties": {
    "edtf:cessation":"uuuu",
    "edtf:inception":"uuuu",
    "geom:area":0.0,
    "geom:bbox":"-77.443366,37.710356,-77.443366,37.710356",
    "geom:latitude":37.710356,
    "geom:longitude":-77.443366,
    "iso:country":"US",
    "sg:address":"11173 Leadbetter Rd",
    "sg:city":"Ashland",
    "sg:classifiers":[
        {
            "category":"Wholesale",
            "subcategory":"Groceries",
            "type":"Manufacturing & Wholesale Goods"
        }
    ],
    "sg:owner":"simplegeo",
    "sg:phone":"+1 804 798 1428",
    "sg:postcode":"23005",
    "sg:province":"VA",
    "sg:tags":[
        "general"
    ],
    "src:geom":"simplegeo",
    "wof:belongsto":[],
    "wof:breaches":[],
    "wof:concordances":{
        "sg:id":"SG_3dou9Ezmi8I7Ma8GD7uGAL_37.710356_-77.443366@1294252573"
    },
    "wof:country":"US",
    "wof:created":1461895788,
    "wof:geomhash":"1355521be5620945e3f44ed974498b74",
    "wof:hierarchy":[],
    "wof:id":723134769,
    "wof:lastmodified":1461895788,
    "wof:name":"Buzz Crown Enterprises Inc",
    "wof:parent_id":-1,
    "wof:placetype":"venue",
    "wof:superseded_by":[],
    "wof:supersedes":[],
    "wof:tags":[
        "general"
    ]
},
  "bbox": [
    -77.443366,
    37.710356,
    -77.443366,
    37.710356
],
  "geometry": {"coordinates":[-77.443366,37.710356],"type":"Point"}
}