{
  "id": 723305733,
  "type": "Feature",
  "properties": {
    "edtf:cessation":"uuuu",
    "edtf:inception":"uuuu",
    "geom:area":0.0,
    "geom:bbox":"-77.639897,38.244747,-77.639897,38.244747",
    "geom:latitude":38.244747,
    "geom:longitude":-77.639897,
    "iso:country":"US",
    "sg:address":"10418 Piney Branch Rd",
    "sg:city":"Spotsylvania",
    "sg:classifiers":[
        {
            "category":"Manufacturing",
            "subcategory":"Printing",
            "type":"Manufacturing & Wholesale Goods"
        }
    ],
    "sg:owner":"simplegeo",
    "sg:phone":"+1 540 548 1505",
    "sg:postcode":"22553",
    "sg:province":"VA",
    "sg:tags":[
        "publisher"
    ],
    "src:geom":"simplegeo",
    "wof:belongsto":[],
    "wof:breaches":[],
    "wof:concordances":{
        "sg:id":"SG_13REVE8ddw1WudOTBmVcmv_38.244747_-77.639897@1294252573"
    },
    "wof:country":"US",
    "wof:created":1461899187,
    "wof:geomhash":"77b9e3ff366599f85313715c4db5585f",
    "wof:hierarchy":[],
    "wof:id":723305733,
    "wof:lastmodified":1461899187,
    "wof:name":"Woolfolk Publications",
    "wof:parent_id":-1,
    "wof:placetype":"venue",
    "wof:superseded_by":[],
    "wof:supersedes":[],
    "wof:tags":[
        "publisher"
    ]
},
  "bbox": [
    -77.639897,
    38.244747,
    -77.639897,
    38.244747
],
  "geometry": {"coordinates":[-77.639897,38.244747],"type":"Point"}
}