{
  "id": 722698441,
  "type": "Feature",
  "properties": {
    "edtf:cessation":"uuuu",
    "edtf:inception":"uuuu",
    "geom:area":0.0,
    "geom:bbox":"-79.900804,37.072271,-79.900804,37.072271",
    "geom:latitude":37.072271,
    "geom:longitude":-79.900804,
    "iso:country":"US",
    "sg:address":"20430 Virgil H Goode Hwy",
    "sg:city":"Rocky Mount",
    "sg:classifiers":[
        {
            "category":"Food & Beverages",
            "subcategory":"Groceries & Convenience Stores",
            "type":"Retail Goods"
        }
    ],
    "sg:owner":"simplegeo",
    "sg:phone":"+1 540 334 1151",
    "sg:postcode":"24151",
    "sg:province":"VA",
    "src:geom":"simplegeo",
    "wof:belongsto":[],
    "wof:breaches":[],
    "wof:concordances":{
        "sg:id":"SG_736VGdE6OqCvxuVRvMJil7_37.072271_-79.900804@1294252573"
    },
    "wof:country":"US",
    "wof:created":1461886941,
    "wof:geomhash":"e735a2d01f19081abf4ac12ec8eefce9",
    "wof:hierarchy":[],
    "wof:id":722698441,
    "wof:lastmodified":1461886941,
    "wof:name":"AEI Food Store",
    "wof:parent_id":-1,
    "wof:placetype":"venue",
    "wof:superseded_by":[],
    "wof:supersedes":[],
    "wof:tags":[]
},
  "bbox": [
    -79.900804,
    37.072271,
    -79.900804,
    37.072271
],
  "geometry": {"coordinates":[-79.90080399999999,37.072271],"type":"Point"}
}