{
  "id": 723125967,
  "type": "Feature",
  "properties": {
    "edtf:cessation":"uuuu",
    "edtf:inception":"uuuu",
    "geom:area":0.0,
    "geom:bbox":"-77.266229,38.869751,-77.266229,38.869751",
    "geom:latitude":38.869751,
    "geom:longitude":-77.266229,
    "iso:country":"US",
    "sg:address":"9310 Clanbrook Ct",
    "sg:city":"Fairfax",
    "sg:classifiers":[
        {
            "category":"Professional",
            "subcategory":"Management & Consulting",
            "type":"Services"
        }
    ],
    "sg:owner":"simplegeo",
    "sg:phone":"+1 703 279 8163",
    "sg:postcode":"22031",
    "sg:province":"VA",
    "sg:tags":[
        "consultant",
        "business"
    ],
    "src:geom":"simplegeo",
    "wof:belongsto":[],
    "wof:breaches":[],
    "wof:concordances":{
        "sg:id":"SG_41ntkXj0FOZdrva80B1cHv_38.869751_-77.266229@1294252573"
    },
    "wof:country":"US",
    "wof:created":1461895620,
    "wof:geomhash":"aadb059676b58a636085993616ea8683",
    "wof:hierarchy":[],
    "wof:id":723125967,
    "wof:lastmodified":1461895620,
    "wof:name":"Burton Associates",
    "wof:parent_id":-1,
    "wof:placetype":"venue",
    "wof:superseded_by":[],
    "wof:supersedes":[],
    "wof:tags":[
        "consultant",
        "business"
    ]
},
  "bbox": [
    -77.266229,
    38.869751,
    -77.266229,
    38.869751
],
  "geometry": {"coordinates":[-77.266229,38.869751],"type":"Point"}
}