{
  "id": 739587361,
  "type": "Feature",
  "properties": {
    "edtf:cessation":"uuuu",
    "edtf:inception":"uuuu",
    "geom:area":0.0,
    "geom:bbox":"-77.564053,37.599769,-77.564053,37.599769",
    "geom:latitude":37.599769,
    "geom:longitude":-77.564053,
    "iso:country":"US",
    "sg:address":"1404 N Parham Rd",
    "sg:city":"Richmond",
    "sg:classifiers":[
        {
            "category":"Restaurant",
            "subcategory":"",
            "type":"Food & Drink"
        }
    ],
    "sg:menulink":"http://www.allmenus.com/va/tuckahoe/85184-applebees/menu/",
    "sg:owner":"simplegeo",
    "sg:phone":"+1 804 740 5782",
    "sg:postcode":"23229",
    "sg:province":"VA",
    "sg:tags":[
        "burger",
        "american",
        "sandwich",
        "soup"
    ],
    "src:geom":"simplegeo",
    "wof:belongsto":[],
    "wof:breaches":[],
    "wof:concordances":{
        "sg:id":"SG_6etr2pGzwSxO2yV4hvgFgR_37.599769_-77.564053@1299784598"
    },
    "wof:country":"US",
    "wof:created":1461910148,
    "wof:geomhash":"cd1bbfc302f7542b2d4fb73daa5bb37b",
    "wof:hierarchy":[],
    "wof:id":739587361,
    "wof:lastmodified":1461910148,
    "wof:name":"Applebee's",
    "wof:parent_id":-1,
    "wof:placetype":"venue",
    "wof:superseded_by":[],
    "wof:supersedes":[],
    "wof:tags":[
        "burger",
        "american",
        "sandwich",
        "soup"
    ]
},
  "bbox": [
    -77.564053,
    37.599769,
    -77.564053,
    37.599769
],
  "geometry": {"coordinates":[-77.564053,37.599769],"type":"Point"}
}