{
  "id": 722997357,
  "type": "Feature",
  "properties": {
    "edtf:cessation":"uuuu",
    "edtf:inception":"uuuu",
    "geom:area":0.0,
    "geom:bbox":"-82.247841,36.530799,-82.247841,36.530799",
    "geom:latitude":36.530799,
    "geom:longitude":-82.247841,
    "iso:country":"US",
    "sg:address":"2512 Volunteer Pkwy",
    "sg:city":"Bristol",
    "sg:classifiers":[
        {
            "category":"Travel",
            "subcategory":"Campground",
            "type":"Entertainment"
        }
    ],
    "sg:owner":"simplegeo",
    "sg:phone":"+1 423 968 7083",
    "sg:postcode":"37620",
    "sg:province":"VA",
    "src:geom":"simplegeo",
    "wof:belongsto":[],
    "wof:breaches":[],
    "wof:concordances":{
        "sg:id":"SG_0ph52GWZ834AtqeW8zK5JP_36.530799_-82.247841@1294252573"
    },
    "wof:country":"US",
    "wof:created":1461892837,
    "wof:geomhash":"5e797ea5cbd217bfe97c13e988c68cfc",
    "wof:hierarchy":[],
    "wof:id":722997357,
    "wof:lastmodified":1461892837,
    "wof:name":"Twin City Drive-In Campground",
    "wof:parent_id":420542177,
    "wof:placetype":"venue",
    "wof:superseded_by":[],
    "wof:supersedes":[],
    "wof:tags":[]
},
  "bbox": [
    -82.247841,
    36.530799,
    -82.247841,
    36.530799
],
  "geometry": {"coordinates":[-82.24784099999999,36.530799],"type":"Point"}
}