{
  "id": 723515341,
  "type": "Feature",
  "properties": {
    "edtf:cessation":"uuuu",
    "edtf:inception":"uuuu",
    "geom:area":0.0,
    "geom:bbox":"-77.319557,38.841875,-77.319557,38.841875",
    "geom:latitude":38.841875,
    "geom:longitude":-77.319557,
    "iso:country":"US",
    "sg:address":"10809 Verde Vista Dr",
    "sg:city":"Fairfax",
    "sg:classifiers":[
        {
            "category":"Professional",
            "subcategory":"Computer Services",
            "type":"Services"
        }
    ],
    "sg:owner":"simplegeo",
    "sg:phone":"+1 703 591 4716",
    "sg:postcode":"22030",
    "sg:province":"VA",
    "sg:tags":[
        "programing",
        "custom"
    ],
    "src:geom":"simplegeo",
    "wof:belongsto":[],
    "wof:breaches":[],
    "wof:concordances":{
        "sg:id":"SG_2fWhVIHz0zKd9Wqc3XuaNY_38.841875_-77.319557@1294252573"
    },
    "wof:country":"US",
    "wof:created":1461903336,
    "wof:geomhash":"67c3e54eb8ce7b410f7091ac897340e2",
    "wof:hierarchy":[],
    "wof:id":723515341,
    "wof:lastmodified":1461903336,
    "wof:name":"H C S I",
    "wof:parent_id":-1,
    "wof:placetype":"venue",
    "wof:superseded_by":[],
    "wof:supersedes":[],
    "wof:tags":[
        "programing",
        "custom"
    ]
},
  "bbox": [
    -77.319557,
    38.841875,
    -77.319557,
    38.841875
],
  "geometry": {"coordinates":[-77.319557,38.841875],"type":"Point"}
}