{
  "id": 722873167,
  "type": "Feature",
  "properties": {
    "edtf:cessation":"uuuu",
    "edtf:inception":"uuuu",
    "geom:area":0.0,
    "geom:bbox":"-77.71216,39.308575,-77.71216,39.308575",
    "geom:latitude":39.308575,
    "geom:longitude":-77.71216,
    "iso:country":"US",
    "sg:address":"37277 Branchriver Rd",
    "sg:city":"Purcellville",
    "sg:classifiers":[
        {
            "category":"Organizations",
            "subcategory":"Membership Organization",
            "type":"Services"
        }
    ],
    "sg:owner":"simplegeo",
    "sg:phone":"+1 540 668 6308",
    "sg:postcode":"20132",
    "sg:province":"VA",
    "sg:tags":[
        "public",
        "relations"
    ],
    "src:geom":"simplegeo",
    "wof:belongsto":[],
    "wof:breaches":[],
    "wof:concordances":{
        "sg:id":"SG_2iyV4qsQwTgnDv9ZaWK4Gv_39.308575_-77.712160@1294252573"
    },
    "wof:country":"US",
    "wof:created":1461890259,
    "wof:geomhash":"ff97e9776dcae584d950667f5ab257e8",
    "wof:hierarchy":[],
    "wof:id":722873167,
    "wof:lastmodified":1461890259,
    "wof:name":"T Dean Reed Company",
    "wof:parent_id":-1,
    "wof:placetype":"venue",
    "wof:superseded_by":[],
    "wof:supersedes":[],
    "wof:tags":[
        "public",
        "relations"
    ]
},
  "bbox": [
    -77.71216,
    39.308575,
    -77.71216,
    39.308575
],
  "geometry": {"coordinates":[-77.71216,39.308575],"type":"Point"}
}