{
  "id": 739447639,
  "type": "Feature",
  "properties": {
    "edtf:cessation":"uuuu",
    "edtf:inception":"uuuu",
    "geom:area":0.0,
    "geom:bbox":"-77.434731,37.64684,-77.434731,37.64684",
    "geom:latitude":37.64684,
    "geom:longitude":-77.434731,
    "iso:country":"US",
    "sg:address":"8550 Magellan Pkwy",
    "sg:city":"Richmond",
    "sg:classifiers":[
        {
            "category":"Education",
            "subcategory":"College",
            "type":"Public Place"
        }
    ],
    "sg:owner":"simplegeo",
    "sg:phone":"+1 804 627 5300",
    "sg:postcode":"23227",
    "sg:province":"VA",
    "sg:tags":[
        "academic",
        "school"
    ],
    "sg:website":"www.bonsecours.com",
    "src:geom":"simplegeo",
    "wof:belongsto":[],
    "wof:breaches":[],
    "wof:concordances":{
        "sg:id":"SG_0ZkRuq3BifYeJPj5r0woKg_37.646840_-77.434731@1294252573"
    },
    "wof:country":"US",
    "wof:created":1461907498,
    "wof:geomhash":"b991079ff4fb593624fa2ab8a04e72f7",
    "wof:hierarchy":[],
    "wof:id":739447639,
    "wof:lastmodified":1461907498,
    "wof:name":"Bon Secours Meml Schl-Nursing",
    "wof:parent_id":-1,
    "wof:placetype":"venue",
    "wof:superseded_by":[],
    "wof:supersedes":[],
    "wof:tags":[
        "academic",
        "school"
    ]
},
  "bbox": [
    -77.434731,
    37.64684,
    -77.434731,
    37.64684
],
  "geometry": {"coordinates":[-77.434731,37.64684],"type":"Point"}
}