{
  "id": 739719745,
  "type": "Feature",
  "properties": {
    "edtf:cessation":"uuuu",
    "edtf:inception":"uuuu",
    "geom:area":0.0,
    "geom:bbox":"-77.494336,37.643414,-77.494336,37.643414",
    "geom:latitude":37.643414,
    "geom:longitude":-77.494336,
    "iso:country":"US",
    "sg:address":"9544 Woodman Rd",
    "sg:city":"Henrico",
    "sg:classifiers":[
        {
            "category":"Shopping",
            "subcategory":"Pharmacy",
            "type":"Retail Goods"
        }
    ],
    "sg:owner":"simplegeo",
    "sg:phone":"+1 804 266 9704",
    "sg:postcode":"23228",
    "sg:province":"VA",
    "src:geom":"simplegeo",
    "wof:belongsto":[],
    "wof:breaches":[],
    "wof:concordances":{
        "sg:id":"SG_2Sypc9WLkjzzocjyEZX3Kn_37.643414_-77.494336@1303262550"
    },
    "wof:country":"US",
    "wof:created":1461912988,
    "wof:geomhash":"955e7d61b64c20e462a0e7e01bec93a2",
    "wof:hierarchy":[],
    "wof:id":739719745,
    "wof:lastmodified":1461912988,
    "wof:name":"Rite Aid",
    "wof:parent_id":-1,
    "wof:placetype":"venue",
    "wof:superseded_by":[],
    "wof:supersedes":[],
    "wof:tags":[]
},
  "bbox": [
    -77.494336,
    37.643414,
    -77.494336,
    37.643414
],
  "geometry": {"coordinates":[-77.494336,37.643414],"type":"Point"}
}