{
  "id": 739393837,
  "type": "Feature",
  "properties": {
    "edtf:cessation":"uuuu",
    "edtf:inception":"uuuu",
    "geom:area":0.0,
    "geom:bbox":"-78.852688,38.426174,-78.852688,38.426174",
    "geom:latitude":38.426174,
    "geom:longitude":-78.852688,
    "iso:country":"US",
    "sg:address":"370 Neff Ave",
    "sg:city":"Harrisonburg",
    "sg:classifiers":[
        {
            "category":"Banks & Credit Unions",
            "subcategory":"Investment Brokerage",
            "type":"Services"
        }
    ],
    "sg:owner":"simplegeo",
    "sg:phone":"+1 540 442 6005",
    "sg:postcode":"22807",
    "sg:province":"VA",
    "sg:tags":[
        "security",
        "stock",
        "bond"
    ],
    "src:geom":"simplegeo",
    "wof:belongsto":[],
    "wof:breaches":[],
    "wof:concordances":{
        "sg:id":"SG_487i1vI1ghGY9a8cbmBQSG_38.426174_-78.852688@1294252573"
    },
    "wof:country":"US",
    "wof:created":1461906465,
    "wof:geomhash":"0e8a02aa474818e9389be0bfff162c96",
    "wof:hierarchy":[],
    "wof:id":739393837,
    "wof:lastmodified":1461906465,
    "wof:name":"Legg Mason Wood Walker Inc",
    "wof:parent_id":-1,
    "wof:placetype":"venue",
    "wof:superseded_by":[],
    "wof:supersedes":[],
    "wof:tags":[
        "security",
        "stock",
        "bond"
    ]
},
  "bbox": [
    -78.852688,
    38.426174,
    -78.852688,
    38.426174
],
  "geometry": {"coordinates":[-78.852688,38.426174],"type":"Point"}
}