{
  "id": 739709033,
  "type": "Feature",
  "properties": {
    "edtf:cessation":"uuuu",
    "edtf:inception":"uuuu",
    "geom:area":0.0,
    "geom:bbox":"-78.185836,37.471039,-78.185836,37.471039",
    "geom:latitude":37.471039,
    "geom:longitude":-78.185836,
    "iso:country":"US",
    "sg:address":"186 Sunnyside Rd",
    "sg:city":"Cumberland",
    "sg:classifiers":[
        {
            "category":"Freight",
            "subcategory":"",
            "type":"Transportation"
        }
    ],
    "sg:owner":"simplegeo",
    "sg:phone":"+1 804 492 5504",
    "sg:postcode":"23040",
    "sg:province":"VA",
    "sg:tags":[
        "local",
        "trucking"
    ],
    "src:geom":"simplegeo",
    "wof:belongsto":[],
    "wof:breaches":[],
    "wof:concordances":{
        "sg:id":"SG_7GUCEyl5YJpzRRTy7xyM9p_37.471039_-78.185836@1303262549"
    },
    "wof:country":"US",
    "wof:created":1461912766,
    "wof:geomhash":"b4c2cceff6c0485459d31c0480b5fd68",
    "wof:hierarchy":[],
    "wof:id":739709033,
    "wof:lastmodified":1461912766,
    "wof:name":"Langhorne Jl Trucking",
    "wof:parent_id":-1,
    "wof:placetype":"venue",
    "wof:superseded_by":[],
    "wof:supersedes":[],
    "wof:tags":[
        "local",
        "trucking"
    ]
},
  "bbox": [
    -78.185836,
    37.471039,
    -78.185836,
    37.471039
],
  "geometry": {"coordinates":[-78.18583599999999,37.471039],"type":"Point"}
}