{
  "id": 723029573,
  "type": "Feature",
  "properties": {
    "edtf:cessation":"uuuu",
    "edtf:inception":"uuuu",
    "geom:area":0.0,
    "geom:bbox":"-80.925539,36.66057,-80.925539,36.66057",
    "geom:latitude":36.66057,
    "geom:longitude":-80.925539,
    "iso:country":"US",
    "sg:address":"212 W Oldtown St",
    "sg:city":"Galax",
    "sg:classifiers":[
        {
            "category":"Retail",
            "subcategory":"Repair Shop",
            "type":"Services"
        }
    ],
    "sg:owner":"simplegeo",
    "sg:phone":"+1 276 236 4136",
    "sg:postcode":"24333",
    "sg:province":"VA",
    "src:geom":"simplegeo",
    "wof:belongsto":[],
    "wof:breaches":[],
    "wof:concordances":{
        "sg:id":"SG_6Q5fr0BLvvBC07GEGz8GUT_36.660570_-80.925539@1294252573"
    },
    "wof:country":"US",
    "wof:created":1461893593,
    "wof:geomhash":"22a06b68a15334c8d0dc03e158fc84a3",
    "wof:hierarchy":[],
    "wof:id":723029573,
    "wof:lastmodified":1461893593,
    "wof:name":"Catron Upholstery",
    "wof:parent_id":-1,
    "wof:placetype":"venue",
    "wof:superseded_by":[],
    "wof:supersedes":[],
    "wof:tags":[]
},
  "bbox": [
    -80.925539,
    36.66057,
    -80.925539,
    36.66057
],
  "geometry": {"coordinates":[-80.925539,36.66057],"type":"Point"}
}