{
  "id": 723409927,
  "type": "Feature",
  "properties": {
    "edtf:cessation":"uuuu",
    "edtf:inception":"uuuu",
    "geom:area":0.0,
    "geom:bbox":"-77.318252,37.547971,-77.318252,37.547971",
    "geom:latitude":37.547971,
    "geom:longitude":-77.318252,
    "iso:country":"US",
    "sg:address":"226 N Linden Ave",
    "sg:city":"Highland Springs",
    "sg:classifiers":[
        {
            "category":"Shopping",
            "subcategory":"Bicycles & Sporting Goods",
            "type":"Retail Goods"
        }
    ],
    "sg:owner":"simplegeo",
    "sg:phone":"+1 804 737 4570",
    "sg:postcode":"23075",
    "sg:province":"VA",
    "src:geom":"simplegeo",
    "wof:belongsto":[],
    "wof:breaches":[],
    "wof:concordances":{
        "sg:id":"SG_0qUQiaQ1ju9MjbU3qJUlDk_37.547971_-77.318252@1294252573"
    },
    "wof:country":"US",
    "wof:created":1461901170,
    "wof:geomhash":"57c326ccfd11687caf19f1f231260ade",
    "wof:hierarchy":[],
    "wof:id":723409927,
    "wof:lastmodified":1461901170,
    "wof:name":"Real Action Tackle",
    "wof:parent_id":-1,
    "wof:placetype":"venue",
    "wof:superseded_by":[],
    "wof:supersedes":[],
    "wof:tags":[]
},
  "bbox": [
    -77.318252,
    37.547971,
    -77.318252,
    37.547971
],
  "geometry": {"coordinates":[-77.318252,37.547971],"type":"Point"}
}