{
  "id": 723425171,
  "type": "Feature",
  "properties": {
    "edtf:cessation":"uuuu",
    "edtf:inception":"uuuu",
    "geom:area":0.0,
    "geom:bbox":"-78.010607,38.459008,-78.010607,38.459008",
    "geom:latitude":38.459008,
    "geom:longitude":-78.010607,
    "iso:country":"US",
    "sg:address":"409 Meadowbrook Dr",
    "sg:city":"Culpeper",
    "sg:classifiers":[
        {
            "category":"Restaurant",
            "subcategory":"",
            "type":"Food & Drink"
        }
    ],
    "sg:owner":"simplegeo",
    "sg:phone":"+1 540 727 9568",
    "sg:postcode":"22701",
    "sg:province":"VA",
    "src:geom":"simplegeo",
    "wof:belongsto":[],
    "wof:breaches":[],
    "wof:concordances":{
        "sg:id":"SG_3ygk2yV1EPJKOBzEdm4FKx_38.459008_-78.010607@1294252573"
    },
    "wof:country":"US",
    "wof:created":1461901481,
    "wof:geomhash":"805f1d8788b892feb5a6cea4dd1eb2bc",
    "wof:hierarchy":[],
    "wof:id":723425171,
    "wof:lastmodified":1461901481,
    "wof:name":"Osaka Japanese House",
    "wof:parent_id":420546635,
    "wof:placetype":"venue",
    "wof:superseded_by":[],
    "wof:supersedes":[],
    "wof:tags":[]
},
  "bbox": [
    -78.010607,
    38.459008,
    -78.010607,
    38.459008
],
  "geometry": {"coordinates":[-78.01060699999999,38.459008],"type":"Point"}
}