{
  "id": 739691673,
  "type": "Feature",
  "properties": {
    "edtf:cessation":"uuuu",
    "edtf:inception":"uuuu",
    "geom:area":0.0,
    "geom:bbox":"-77.059798,38.805233,-77.059798,38.805233",
    "geom:latitude":38.805233,
    "geom:longitude":-77.059798,
    "iso:country":"US",
    "sg:address":"225 Reinekers Ln",
    "sg:city":"Alexandria",
    "sg:classifiers":[
        {
            "category":"Health Services",
            "subcategory":"Hospital",
            "type":"Services"
        },
        {
            "category":"Community Center",
            "subcategory":"",
            "type":"Public Place"
        }
    ],
    "sg:owner":"simplegeo",
    "sg:phone":"+1 703 838 5530",
    "sg:postcode":"22314",
    "sg:province":"VA",
    "sg:tags":[
        "medical"
    ],
    "src:geom":"simplegeo",
    "wof:belongsto":[],
    "wof:breaches":[],
    "wof:concordances":{
        "sg:id":"SG_1dRiBzpcladmTgxO1GZOcx_38.805233_-77.059798@1303262546"
    },
    "wof:country":"US",
    "wof:created":1461912378,
    "wof:geomhash":"f23fa59b8cf0498b73d68bbfe211cd95",
    "wof:hierarchy":[],
    "wof:id":739691673,
    "wof:lastmodified":1461912378,
    "wof:name":"Inova Alexandria Occupational Health Center",
    "wof:parent_id":-1,
    "wof:placetype":"venue",
    "wof:superseded_by":[],
    "wof:supersedes":[],
    "wof:tags":[
        "medical"
    ]
},
  "bbox": [
    -77.059798,
    38.805233,
    -77.059798,
    38.805233
],
  "geometry": {"coordinates":[-77.059798,38.805233],"type":"Point"}
}