{
  "id": 723282409,
  "type": "Feature",
  "properties": {
    "edtf:cessation":"uuuu",
    "edtf:inception":"uuuu",
    "geom:area":0.0,
    "geom:bbox":"-78.100551,37.83186,-78.100551,37.83186",
    "geom:latitude":37.83186,
    "geom:longitude":-78.100551,
    "iso:country":"US",
    "sg:address":"4060 Shannon Hill Rd",
    "sg:city":"Columbia",
    "sg:classifiers":[
        {
            "category":"Food & Beverages",
            "subcategory":"Groceries & Convenience Stores",
            "type":"Retail Goods"
        }
    ],
    "sg:owner":"simplegeo",
    "sg:phone":"+1 434 589 8359",
    "sg:postcode":"23038",
    "sg:province":"VA",
    "src:geom":"simplegeo",
    "wof:belongsto":[],
    "wof:breaches":[],
    "wof:concordances":{
        "sg:id":"SG_4cdagfjiQTn6nVTIVKa4Y9_37.831860_-78.100551@1294252573"
    },
    "wof:country":"US",
    "wof:created":1461898721,
    "wof:geomhash":"bfe2a39ab2122ccf28fca5ffef12baa5",
    "wof:hierarchy":[],
    "wof:id":723282409,
    "wof:lastmodified":1461898721,
    "wof:name":"Edward Tyler Store",
    "wof:parent_id":-1,
    "wof:placetype":"venue",
    "wof:superseded_by":[],
    "wof:supersedes":[],
    "wof:tags":[]
},
  "bbox": [
    -78.100551,
    37.83186,
    -78.100551,
    37.83186
],
  "geometry": {"coordinates":[-78.100551,37.83186],"type":"Point"}
}