{
  "id": 739445299,
  "type": "Feature",
  "properties": {
    "edtf:cessation":"uuuu",
    "edtf:inception":"uuuu",
    "geom:area":0.0,
    "geom:bbox":"-79.15149,37.416097,-79.15149,37.416097",
    "geom:latitude":37.416097,
    "geom:longitude":-79.15149,
    "iso:country":"US",
    "sg:address":"320 Federal St",
    "sg:city":"Lynchburg",
    "sg:classifiers":[
        {
            "category":"Health Services",
            "subcategory":"Hospital",
            "type":"Services"
        }
    ],
    "sg:owner":"simplegeo",
    "sg:phone":"+1 434 947 5967",
    "sg:postcode":"24504",
    "sg:province":"VA",
    "sg:tags":[
        "general"
    ],
    "src:geom":"simplegeo",
    "wof:belongsto":[],
    "wof:breaches":[],
    "wof:concordances":{
        "sg:id":"SG_75JXoXO4igYZyc9TiU8Sgt_37.416097_-79.151490@1294252573"
    },
    "wof:country":"US",
    "wof:created":1461907460,
    "wof:geomhash":"73cffe6e5d26a2d6b11cab8d818a0ade",
    "wof:hierarchy":[],
    "wof:id":739445299,
    "wof:lastmodified":1461907460,
    "wof:name":"Johnson Health Center The",
    "wof:parent_id":-1,
    "wof:placetype":"venue",
    "wof:superseded_by":[],
    "wof:supersedes":[],
    "wof:tags":[
        "general"
    ]
},
  "bbox": [
    -79.15149,
    37.416097,
    -79.15149,
    37.416097
],
  "geometry": {"coordinates":[-79.15149,37.416097],"type":"Point"}
}