{
  "id": 739603569,
  "type": "Feature",
  "properties": {
    "edtf:cessation":"uuuu",
    "edtf:inception":"uuuu",
    "geom:area":0.0,
    "geom:bbox":"-77.507448,38.800566,-77.507448,38.800566",
    "geom:latitude":38.800566,
    "geom:longitude":-77.507448,
    "iso:country":"US",
    "sg:address":"10421 Balls Ford Rd",
    "sg:city":"Manassas",
    "sg:classifiers":[
        {
            "category":"Restaurant",
            "subcategory":"",
            "type":"Food & Drink"
        }
    ],
    "sg:owner":"simplegeo",
    "sg:phone":"+1 703 368 8875",
    "sg:postcode":"20109",
    "sg:province":"VA",
    "src:geom":"simplegeo",
    "wof:belongsto":[],
    "wof:breaches":[],
    "wof:concordances":{
        "sg:id":"SG_2jwIwVbSDO6qG7wcIjucwl_38.800566_-77.507448@1303262495"
    },
    "wof:country":"US",
    "wof:created":1461910486,
    "wof:geomhash":"cd46b10c8dd3a82e1d53913b4ed2c869",
    "wof:hierarchy":[],
    "wof:id":739603569,
    "wof:lastmodified":1461910486,
    "wof:name":"The Taste Bud",
    "wof:parent_id":-1,
    "wof:placetype":"venue",
    "wof:superseded_by":[],
    "wof:supersedes":[],
    "wof:tags":[]
},
  "bbox": [
    -77.507448,
    38.800566,
    -77.507448,
    38.800566
],
  "geometry": {"coordinates":[-77.507448,38.800566],"type":"Point"}
}