{
  "id": 722671373,
  "type": "Feature",
  "properties": {
    "edtf:cessation":"uuuu",
    "edtf:inception":"uuuu",
    "geom:area":0.0,
    "geom:bbox":"-77.562249,37.641185,-77.562249,37.641185",
    "geom:latitude":37.641185,
    "geom:longitude":-77.562249,
    "iso:country":"US",
    "sg:address":"9699 W Broad St",
    "sg:city":"Glen Allen",
    "sg:classifiers":[
        {
            "category":"Home & Garden",
            "subcategory":"Household Appliances",
            "type":"Retail Goods"
        }
    ],
    "sg:owner":"simplegeo",
    "sg:phone":"+1 804 270 6277",
    "sg:postcode":"23060",
    "sg:province":"VA",
    "sg:tags":[
        "cleaners",
        "vacuum"
    ],
    "src:geom":"simplegeo",
    "wof:belongsto":[],
    "wof:breaches":[],
    "wof:concordances":{
        "sg:id":"SG_1eX1aIhhnSnCN13Vcj05C1_37.641185_-77.562249@1294252573"
    },
    "wof:country":"US",
    "wof:created":1461886423,
    "wof:geomhash":"c421ad293a6799572ff0bef7e9c3832a",
    "wof:hierarchy":[],
    "wof:id":722671373,
    "wof:lastmodified":1461886423,
    "wof:name":"Oreck Vacuums",
    "wof:parent_id":-1,
    "wof:placetype":"venue",
    "wof:superseded_by":[],
    "wof:supersedes":[],
    "wof:tags":[
        "cleaners",
        "vacuum"
    ]
},
  "bbox": [
    -77.562249,
    37.641185,
    -77.562249,
    37.641185
],
  "geometry": {"coordinates":[-77.56224899999999,37.641185],"type":"Point"}
}