{
  "id": 722955491,
  "type": "Feature",
  "properties": {
    "edtf:cessation":"uuuu",
    "edtf:inception":"uuuu",
    "geom:area":0.0,
    "geom:bbox":"-79.274102,37.445241,-79.274102,37.445241",
    "geom:latitude":37.445241,
    "geom:longitude":-79.274102,
    "iso:country":"US",
    "sg:address":"204 Fox Hollow Rd",
    "sg:city":"Lynchburg",
    "sg:classifiers":[
        {
            "category":"Wholesale",
            "subcategory":"Computers",
            "type":"Manufacturing & Wholesale Goods"
        }
    ],
    "sg:owner":"simplegeo",
    "sg:phone":"+1 434 386 4207",
    "sg:postcode":"24503",
    "sg:province":"VA",
    "src:geom":"simplegeo",
    "wof:belongsto":[],
    "wof:breaches":[],
    "wof:concordances":{
        "sg:id":"SG_2qyCk7en4Ni2ShvxqFvAnG_37.445241_-79.274102@1294252573"
    },
    "wof:country":"US",
    "wof:created":1461891934,
    "wof:geomhash":"41050f64d19ac6992d78c41e10178877",
    "wof:hierarchy":[],
    "wof:id":722955491,
    "wof:lastmodified":1461891934,
    "wof:name":"Wildly Exciting Technologies",
    "wof:parent_id":-1,
    "wof:placetype":"venue",
    "wof:superseded_by":[],
    "wof:supersedes":[],
    "wof:tags":[]
},
  "bbox": [
    -79.274102,
    37.445241,
    -79.274102,
    37.445241
],
  "geometry": {"coordinates":[-79.274102,37.445241],"type":"Point"}
}