{
  "id": 722716413,
  "type": "Feature",
  "properties": {
    "edtf:cessation":"uuuu",
    "edtf:inception":"uuuu",
    "geom:area":0.0,
    "geom:bbox":"-77.737944,39.102556,-77.737944,39.102556",
    "geom:latitude":39.102556,
    "geom:longitude":-77.737944,
    "iso:country":"US",
    "sg:address":"36654 Paxson Rd",
    "sg:city":"Purcellville",
    "sg:classifiers":[
        {
            "category":"Professional",
            "subcategory":"Computer Services",
            "type":"Services"
        }
    ],
    "sg:owner":"simplegeo",
    "sg:phone":"+1 540 338 4573",
    "sg:postcode":"20132",
    "sg:province":"VA",
    "sg:tags":[
        "programing",
        "animal",
        "custom"
    ],
    "src:geom":"simplegeo",
    "wof:belongsto":[],
    "wof:breaches":[],
    "wof:concordances":{
        "sg:id":"SG_3wPiN4vGILxOaJCNYwomOl_39.102556_-77.737944@1294252573"
    },
    "wof:country":"US",
    "wof:created":1461887276,
    "wof:geomhash":"e5ba84aeda9b24e12a7581d0ca532576",
    "wof:hierarchy":[],
    "wof:id":722716413,
    "wof:lastmodified":1461887276,
    "wof:name":"Rebecca Woodward-Davis",
    "wof:parent_id":-1,
    "wof:placetype":"venue",
    "wof:superseded_by":[],
    "wof:supersedes":[],
    "wof:tags":[
        "programing",
        "animal",
        "custom"
    ]
},
  "bbox": [
    -77.737944,
    39.102556,
    -77.737944,
    39.102556
],
  "geometry": {"coordinates":[-77.737944,39.102556],"type":"Point"}
}