{
  "id": 722923897,
  "type": "Feature",
  "properties": {
    "edtf:cessation":"uuuu",
    "edtf:inception":"uuuu",
    "geom:area":0.0,
    "geom:bbox":"-77.503716,37.590144,-77.503716,37.590144",
    "geom:latitude":37.590144,
    "geom:longitude":-77.503716,
    "iso:country":"US",
    "sg:address":"5704 W Broad St",
    "sg:city":"Richmond",
    "sg:classifiers":[
        {
            "category":"Shopping",
            "subcategory":"",
            "type":"Retail Goods"
        }
    ],
    "sg:owner":"simplegeo",
    "sg:phone":"+1 804 672 0137",
    "sg:postcode":"23230",
    "sg:province":"VA",
    "sg:tags":[
        "pet",
        "food",
        "supply"
    ],
    "src:geom":"simplegeo",
    "wof:belongsto":[],
    "wof:breaches":[],
    "wof:concordances":{
        "sg:id":"SG_5NhPOHVyopzZtDPqi9AkNK_37.590144_-77.503716@1294252573"
    },
    "wof:country":"US",
    "wof:created":1461891283,
    "wof:geomhash":"738288040a0ca8d63c34a21491bf556a",
    "wof:hierarchy":[],
    "wof:id":722923897,
    "wof:lastmodified":1461891283,
    "wof:name":"Petsmart",
    "wof:parent_id":-1,
    "wof:placetype":"venue",
    "wof:superseded_by":[],
    "wof:supersedes":[],
    "wof:tags":[
        "pet",
        "food",
        "supply"
    ]
},
  "bbox": [
    -77.503716,
    37.590144,
    -77.503716,
    37.590144
],
  "geometry": {"coordinates":[-77.503716,37.590144],"type":"Point"}
}