{
  "id": 722541077,
  "type": "Feature",
  "properties": {
    "edtf:cessation":"uuuu",
    "edtf:inception":"uuuu",
    "geom:area":0.0,
    "geom:bbox":"-78.204711,39.248217,-78.204711,39.248217",
    "geom:latitude":39.248217,
    "geom:longitude":-78.204711,
    "iso:country":"US",
    "sg:address":"111 Ronner Ln",
    "sg:city":"Winchester",
    "sg:classifiers":[
        {
            "category":"Retail",
            "subcategory":"Repair Shop",
            "type":"Services"
        }
    ],
    "sg:owner":"simplegeo",
    "sg:phone":"+1 540 678 9552",
    "sg:postcode":"22603",
    "sg:province":"VA",
    "src:geom":"simplegeo",
    "wof:belongsto":[],
    "wof:breaches":[],
    "wof:concordances":{
        "sg:id":"SG_5ScVbooJh8pm05zwEUnhDJ_39.248217_-78.204711@1294252573"
    },
    "wof:country":"US",
    "wof:created":1461883821,
    "wof:geomhash":"c55a1b529ab3d08883f6ce7a3684eb8b",
    "wof:hierarchy":[],
    "wof:id":722541077,
    "wof:lastmodified":1461883821,
    "wof:name":"R & R Pump Specialists Inc",
    "wof:parent_id":-1,
    "wof:placetype":"venue",
    "wof:superseded_by":[],
    "wof:supersedes":[],
    "wof:tags":[]
},
  "bbox": [
    -78.204711,
    39.248217,
    -78.204711,
    39.248217
],
  "geometry": {"coordinates":[-78.204711,39.248217],"type":"Point"}
}