{
  "id": 739386775,
  "type": "Feature",
  "properties": {
    "edtf:cessation":"uuuu",
    "edtf:inception":"uuuu",
    "geom:area":0.0,
    "geom:bbox":"-80.480965,37.326924,-80.480965,37.326924",
    "geom:latitude":37.326924,
    "geom:longitude":-80.480965,
    "iso:country":"US",
    "sg:address":"197 Givens Ln",
    "sg:city":"Newport",
    "sg:classifiers":[
        {
            "category":"Farming",
            "subcategory":"Livestock Farm",
            "type":"Manufacturing & Wholesale Goods"
        }
    ],
    "sg:owner":"simplegeo",
    "sg:phone":"+1 540 544 7221",
    "sg:postcode":"24128",
    "sg:province":"VA",
    "sg:tags":[
        "feedlot",
        "cattle",
        "animal",
        "beef",
        "general"
    ],
    "src:geom":"simplegeo",
    "wof:belongsto":[],
    "wof:breaches":[],
    "wof:concordances":{
        "sg:id":"SG_3ehJN2ilGe7L48rpJ3GVpv_37.326924_-80.480965@1294252573"
    },
    "wof:country":"US",
    "wof:created":1461906332,
    "wof:geomhash":"219b999bf2987044bb5b65bfe31837e3",
    "wof:hierarchy":[],
    "wof:id":739386775,
    "wof:lastmodified":1461906332,
    "wof:name":"Mark R Givens",
    "wof:parent_id":-1,
    "wof:placetype":"venue",
    "wof:superseded_by":[],
    "wof:supersedes":[],
    "wof:tags":[
        "feedlot",
        "cattle",
        "animal",
        "beef",
        "general"
    ]
},
  "bbox": [
    -80.480965,
    37.326924,
    -80.480965,
    37.326924
],
  "geometry": {"coordinates":[-80.480965,37.326924],"type":"Point"}
}