{
  "id": 723169589,
  "type": "Feature",
  "properties": {
    "edtf:cessation":"uuuu",
    "edtf:inception":"uuuu",
    "geom:area":0.0,
    "geom:bbox":"-77.736867,38.968556,-77.736867,38.968556",
    "geom:latitude":38.968556,
    "geom:longitude":-77.736867,
    "iso:country":"US",
    "sg:address":"106 W Washington St",
    "sg:city":"Middleburg",
    "sg:classifiers":[
        {
            "category":"Food & Beverages",
            "subcategory":"Liquor & Beverages",
            "type":"Retail Goods"
        }
    ],
    "sg:owner":"simplegeo",
    "sg:phone":"+1 540 687 8721",
    "sg:postcode":"20117",
    "sg:province":"VA",
    "src:geom":"simplegeo",
    "wof:belongsto":[],
    "wof:breaches":[],
    "wof:concordances":{
        "sg:id":"SG_5epoj6Fwx2ZLHQYzF8xAFU_38.968556_-77.736867@1294252573"
    },
    "wof:country":"US",
    "wof:created":1461896470,
    "wof:geomhash":"c73d16d129837e0b7a237bca9441a3da",
    "wof:hierarchy":[],
    "wof:id":723169589,
    "wof:lastmodified":1461896470,
    "wof:name":"Virginia State Liquor Stores",
    "wof:parent_id":-1,
    "wof:placetype":"venue",
    "wof:superseded_by":[],
    "wof:supersedes":[],
    "wof:tags":[]
},
  "bbox": [
    -77.736867,
    38.968556,
    -77.736867,
    38.968556
],
  "geometry": {"coordinates":[-77.736867,38.968556],"type":"Point"}
}