{
  "id": 723283221,
  "type": "Feature",
  "properties": {
    "edtf:cessation":"uuuu",
    "edtf:inception":"uuuu",
    "geom:area":0.0,
    "geom:bbox":"-77.43432,38.656488,-77.43432,38.656488",
    "geom:latitude":38.656488,
    "geom:longitude":-77.43432,
    "iso:country":"US",
    "sg:address":"13621 Independence Dr",
    "sg:city":"Manassas",
    "sg:classifiers":[
        {
            "category":"Professional",
            "subcategory":"",
            "type":"Services"
        }
    ],
    "sg:owner":"simplegeo",
    "sg:phone":"+1 703 791 2366",
    "sg:postcode":"20112",
    "sg:province":"VA",
    "sg:tags":[
        "establishment"
    ],
    "src:geom":"simplegeo",
    "wof:belongsto":[],
    "wof:breaches":[],
    "wof:concordances":{
        "sg:id":"SG_5IqSV0GMUzhUuuVIufEimc_38.656488_-77.434320@1294252573"
    },
    "wof:country":"US",
    "wof:created":1461898740,
    "wof:geomhash":"a00b923074196383b55aba9b7936c3ee",
    "wof:hierarchy":[],
    "wof:id":723283221,
    "wof:lastmodified":1461898740,
    "wof:name":"Mobilecomm",
    "wof:parent_id":-1,
    "wof:placetype":"venue",
    "wof:superseded_by":[],
    "wof:supersedes":[],
    "wof:tags":[
        "establishment"
    ]
},
  "bbox": [
    -77.43432,
    38.656488,
    -77.43432,
    38.656488
],
  "geometry": {"coordinates":[-77.43432,38.656488],"type":"Point"}
}