{
  "id": 722747381,
  "type": "Feature",
  "properties": {
    "edtf:cessation":"uuuu",
    "edtf:inception":"uuuu",
    "geom:area":0.0,
    "geom:bbox":"-78.152992,39.16014,-78.152992,39.16014",
    "geom:latitude":39.16014,
    "geom:longitude":-78.152992,
    "iso:country":"US",
    "sg:address":"1039 Millwood Pike",
    "sg:city":"Winchester",
    "sg:classifiers":[
        {
            "category":"Food & Beverages",
            "subcategory":"Groceries & Convenience Stores",
            "type":"Retail Goods"
        }
    ],
    "sg:owner":"simplegeo",
    "sg:phone":"+1 540 665 2080",
    "sg:postcode":"22602",
    "sg:province":"VA",
    "src:geom":"simplegeo",
    "wof:belongsto":[],
    "wof:breaches":[],
    "wof:concordances":{
        "sg:id":"SG_0qkvRBwPwTlJaKsTPevR3I_39.160140_-78.152992@1294252573"
    },
    "wof:country":"US",
    "wof:created":1461887892,
    "wof:geomhash":"6747b33adea701b9d64b3c416448a1a1",
    "wof:hierarchy":[],
    "wof:id":722747381,
    "wof:lastmodified":1461887892,
    "wof:name":"One Stop Food Mart",
    "wof:parent_id":-1,
    "wof:placetype":"venue",
    "wof:superseded_by":[],
    "wof:supersedes":[],
    "wof:tags":[]
},
  "bbox": [
    -78.152992,
    39.16014,
    -78.152992,
    39.16014
],
  "geometry": {"coordinates":[-78.152992,39.16014],"type":"Point"}
}