{
  "id": 723162775,
  "type": "Feature",
  "properties": {
    "edtf:cessation":"uuuu",
    "edtf:inception":"uuuu",
    "geom:area":0.0,
    "geom:bbox":"-77.357308,37.357157,-77.357308,37.357157",
    "geom:latitude":37.357157,
    "geom:longitude":-77.357308,
    "iso:country":"US",
    "sg:address":"12606 Hogans Dr",
    "sg:city":"Chester",
    "sg:classifiers":[
        {
            "category":"Professional",
            "subcategory":"",
            "type":"Services"
        }
    ],
    "sg:owner":"simplegeo",
    "sg:phone":"+1 804 530 8832",
    "sg:postcode":"23836",
    "sg:province":"VA",
    "src:geom":"simplegeo",
    "wof:belongsto":[],
    "wof:breaches":[],
    "wof:concordances":{
        "sg:id":"SG_6oK6wjjrNJevM5uJfb1dVR_37.357157_-77.357308@1294252573"
    },
    "wof:country":"US",
    "wof:created":1461896336,
    "wof:geomhash":"e7736ef1c1212cba967b63c533ae506f",
    "wof:hierarchy":[],
    "wof:id":723162775,
    "wof:lastmodified":1461896336,
    "wof:name":"O Brien Services",
    "wof:parent_id":-1,
    "wof:placetype":"venue",
    "wof:superseded_by":[],
    "wof:supersedes":[],
    "wof:tags":[]
},
  "bbox": [
    -77.357308,
    37.357157,
    -77.357308,
    37.357157
],
  "geometry": {"coordinates":[-77.357308,37.357157],"type":"Point"}
}