{
  "id": 722862681,
  "type": "Feature",
  "properties": {
    "edtf:cessation":"uuuu",
    "edtf:inception":"uuuu",
    "geom:area":0.0,
    "geom:bbox":"-77.400341,37.494957,-77.400341,37.494957",
    "geom:latitude":37.494957,
    "geom:longitude":-77.400341,
    "iso:country":"US",
    "sg:address":"1121 Durley Ct",
    "sg:city":"Richmond",
    "sg:classifiers":[
        {
            "category":"Shopping",
            "subcategory":"Beauty & Cosmetics",
            "type":"Retail Goods"
        }
    ],
    "sg:owner":"simplegeo",
    "sg:phone":"+1 804 640 3463",
    "sg:postcode":"23231",
    "sg:province":"VA",
    "src:geom":"simplegeo",
    "wof:belongsto":[],
    "wof:breaches":[],
    "wof:concordances":{
        "sg:id":"SG_1YLloznUC2wizuR3fuaG6q_37.494957_-77.400341@1294252573"
    },
    "wof:country":"US",
    "wof:created":1461890064,
    "wof:geomhash":"e2d8de31e77ba943ea57e876ae35d543",
    "wof:hierarchy":[],
    "wof:id":722862681,
    "wof:lastmodified":1461890064,
    "wof:name":"Universal Face",
    "wof:parent_id":-1,
    "wof:placetype":"venue",
    "wof:superseded_by":[],
    "wof:supersedes":[],
    "wof:tags":[]
},
  "bbox": [
    -77.400341,
    37.494957,
    -77.400341,
    37.494957
],
  "geometry": {"coordinates":[-77.400341,37.494957],"type":"Point"}
}