{
  "id": 722647295,
  "type": "Feature",
  "properties": {
    "edtf:cessation":"uuuu",
    "edtf:inception":"uuuu",
    "geom:area":0.0,
    "geom:bbox":"-77.333149,37.553017,-77.333149,37.553017",
    "geom:latitude":37.553017,
    "geom:longitude":-77.333149,
    "iso:country":"US",
    "sg:address":"10 Beauregard Ave",
    "sg:city":"Highland Springs",
    "sg:classifiers":[
        {
            "category":"Professional",
            "subcategory":"Accounting & Tax Preparation",
            "type":"Services"
        }
    ],
    "sg:owner":"simplegeo",
    "sg:phone":"+1 804 737 1232",
    "sg:postcode":"23075",
    "sg:province":"VA",
    "src:geom":"simplegeo",
    "wof:belongsto":[],
    "wof:breaches":[],
    "wof:concordances":{
        "sg:id":"SG_4PU9DVg4MZ5z7TCsyAv50z_37.553017_-77.333149@1294252573"
    },
    "wof:country":"US",
    "wof:created":1461885966,
    "wof:geomhash":"0d54ad891c42280f8f6a8c26bbe4d6fc",
    "wof:hierarchy":[],
    "wof:id":722647295,
    "wof:lastmodified":1461885966,
    "wof:name":"Kenneth C Boyle Accounting",
    "wof:parent_id":-1,
    "wof:placetype":"venue",
    "wof:superseded_by":[],
    "wof:supersedes":[],
    "wof:tags":[]
},
  "bbox": [
    -77.333149,
    37.553017,
    -77.333149,
    37.553017
],
  "geometry": {"coordinates":[-77.33314900000001,37.553017],"type":"Point"}
}