{
  "id": 739694377,
  "type": "Feature",
  "properties": {
    "edtf:cessation":"uuuu",
    "edtf:inception":"uuuu",
    "geom:area":0.0,
    "geom:bbox":"-76.274351,37.844689,-76.274351,37.844689",
    "geom:latitude":37.844689,
    "geom:longitude":-76.274351,
    "iso:country":"US",
    "sg:address":"316 Main St",
    "sg:city":"Reedville",
    "sg:classifiers":[
        {
            "category":"Travel",
            "subcategory":"Hotels & Motels",
            "type":"Entertainment"
        },
        {
            "category":"Travel",
            "subcategory":"Bed & Breakfast",
            "type":"Entertainment"
        }
    ],
    "sg:owner":"simplegeo",
    "sg:phone":"+1 804 453 5300",
    "sg:postcode":"22539",
    "sg:province":"VA",
    "sg:tags":[
        "inn",
        "lodging"
    ],
    "src:geom":"simplegeo",
    "wof:belongsto":[],
    "wof:breaches":[],
    "wof:concordances":{
        "sg:id":"SG_6QrDnECq8NGEdkLr5zS0cL_37.844689_-76.274351@1303262547"
    },
    "wof:country":"US",
    "wof:created":1461912425,
    "wof:geomhash":"f13c18e733aa77b89b94a6fba0d8cd2b",
    "wof:hierarchy":[],
    "wof:id":739694377,
    "wof:lastmodified":1461912425,
    "wof:name":"Azalea Grove Bed & Breakfast",
    "wof:parent_id":-1,
    "wof:placetype":"venue",
    "wof:superseded_by":[],
    "wof:supersedes":[],
    "wof:tags":[
        "inn",
        "lodging"
    ]
},
  "bbox": [
    -76.274351,
    37.844689,
    -76.274351,
    37.844689
],
  "geometry": {"coordinates":[-76.274351,37.844689],"type":"Point"}
}