{
  "id": 723028217,
  "type": "Feature",
  "properties": {
    "edtf:cessation":"uuuu",
    "edtf:inception":"uuuu",
    "geom:area":0.0,
    "geom:bbox":"-78.188548,39.140544,-78.188548,39.140544",
    "geom:latitude":39.140544,
    "geom:longitude":-78.188548,
    "iso:country":"US",
    "sg:address":"548 Brookfield Dr",
    "sg:city":"Winchester",
    "sg:classifiers":[
        {
            "category":"Real Estate",
            "subcategory":"Real Estate Operator",
            "type":"Services"
        }
    ],
    "sg:owner":"simplegeo",
    "sg:phone":"+1 540 722 3509",
    "sg:postcode":"22601",
    "sg:province":"VA",
    "sg:tags":[
        "building",
        "builder",
        "apartment",
        "operative"
    ],
    "src:geom":"simplegeo",
    "wof:belongsto":[],
    "wof:breaches":[],
    "wof:concordances":{
        "sg:id":"SG_5hYeoHOfUTqVlV8ZcRz9st_39.140544_-78.188548@1294252573"
    },
    "wof:country":"US",
    "wof:created":1461893565,
    "wof:geomhash":"0f0bdbc321147d62cdb1285501800025",
    "wof:hierarchy":[],
    "wof:id":723028217,
    "wof:lastmodified":1461893565,
    "wof:name":"Lee Lizer Builders",
    "wof:parent_id":-1,
    "wof:placetype":"venue",
    "wof:superseded_by":[],
    "wof:supersedes":[],
    "wof:tags":[
        "building",
        "builder",
        "apartment",
        "operative"
    ]
},
  "bbox": [
    -78.188548,
    39.140544,
    -78.188548,
    39.140544
],
  "geometry": {"coordinates":[-78.188548,39.140544],"type":"Point"}
}