{
  "id": 723405619,
  "type": "Feature",
  "properties": {
    "edtf:cessation":"uuuu",
    "edtf:inception":"uuuu",
    "geom:area":0.0,
    "geom:bbox":"-80.918804,36.649135,-80.918804,36.649135",
    "geom:latitude":36.649135,
    "geom:longitude":-80.918804,
    "iso:country":"US",
    "sg:address":"806 S Main St",
    "sg:city":"Galax",
    "sg:classifiers":[
        {
            "category":"Food & Beverages",
            "subcategory":"Groceries & Convenience Stores",
            "type":"Retail Goods"
        }
    ],
    "sg:owner":"simplegeo",
    "sg:phone":"+1 276 236 4144",
    "sg:postcode":"24333",
    "sg:province":"VA",
    "src:geom":"simplegeo",
    "wof:belongsto":[],
    "wof:breaches":[],
    "wof:concordances":{
        "sg:id":"SG_6V27AYl28BX8GTwjtpJdqQ_36.649135_-80.918804@1294252573"
    },
    "wof:country":"US",
    "wof:created":1461901081,
    "wof:geomhash":"c8423a8b9801390ddd77c39bfa769c1f",
    "wof:hierarchy":[],
    "wof:id":723405619,
    "wof:lastmodified":1461901081,
    "wof:name":"On The Way Food Store",
    "wof:parent_id":-1,
    "wof:placetype":"venue",
    "wof:superseded_by":[],
    "wof:supersedes":[],
    "wof:tags":[]
},
  "bbox": [
    -80.918804,
    36.649135,
    -80.918804,
    36.649135
],
  "geometry": {"coordinates":[-80.91880399999999,36.649135],"type":"Point"}
}