{
  "id": 722870477,
  "type": "Feature",
  "properties": {
    "edtf:cessation":"uuuu",
    "edtf:inception":"uuuu",
    "geom:area":0.0,
    "geom:bbox":"-77.651425,37.427944,-77.651425,37.427944",
    "geom:latitude":37.427944,
    "geom:longitude":-77.651425,
    "iso:country":"US",
    "sg:address":"4201 Hickory Nut Ct",
    "sg:city":"Midlothian",
    "sg:classifiers":[
        {
            "category":"Health Services",
            "subcategory":"Doctor",
            "type":"Services"
        }
    ],
    "sg:owner":"simplegeo",
    "sg:phone":"+1 804 744 2396",
    "sg:postcode":"23112",
    "sg:province":"VA",
    "src:geom":"simplegeo",
    "wof:belongsto":[],
    "wof:breaches":[],
    "wof:concordances":{
        "sg:id":"SG_4zQuX3YWwT7O0uXFFt1Vc6_37.427944_-77.651425@1294252573"
    },
    "wof:country":"US",
    "wof:created":1461890206,
    "wof:geomhash":"5a69661bba172427242875d8b0fb40b8",
    "wof:hierarchy":[],
    "wof:id":722870477,
    "wof:lastmodified":1461890206,
    "wof:name":"Cook DDS Ltd Phillip M",
    "wof:parent_id":-1,
    "wof:placetype":"venue",
    "wof:superseded_by":[],
    "wof:supersedes":[],
    "wof:tags":[]
},
  "bbox": [
    -77.651425,
    37.427944,
    -77.651425,
    37.427944
],
  "geometry": {"coordinates":[-77.651425,37.427944],"type":"Point"}
}