{
  "id": 722711647,
  "type": "Feature",
  "properties": {
    "edtf:cessation":"uuuu",
    "edtf:inception":"uuuu",
    "geom:area":0.0,
    "geom:bbox":"-77.117323,38.845774,-77.117323,38.845774",
    "geom:latitude":38.845774,
    "geom:longitude":-77.117323,
    "iso:country":"US",
    "sg:address":"5203 Leesburg Pike",
    "sg:city":"Falls Church",
    "sg:classifiers":[
        {
            "category":"Real Estate",
            "subcategory":"Developer",
            "type":"Services"
        }
    ],
    "sg:owner":"simplegeo",
    "sg:phone":"+1 703 284 7082",
    "sg:postcode":"22041",
    "sg:province":"VA",
    "sg:tags":[
        "land",
        "subdivider"
    ],
    "src:geom":"simplegeo",
    "wof:belongsto":[],
    "wof:breaches":[],
    "wof:concordances":{
        "sg:id":"SG_7PT5xLAOI3vbX3Yz5r14yR_38.845774_-77.117323@1294252573"
    },
    "wof:country":"US",
    "wof:created":1461887185,
    "wof:geomhash":"665e75a3a7515d7b9fdfb075c12cf59b",
    "wof:hierarchy":[],
    "wof:id":722711647,
    "wof:lastmodified":1461887185,
    "wof:name":"Universal Construction",
    "wof:parent_id":-1,
    "wof:placetype":"venue",
    "wof:superseded_by":[],
    "wof:supersedes":[],
    "wof:tags":[
        "land",
        "subdivider"
    ]
},
  "bbox": [
    -77.117323,
    38.845774,
    -77.117323,
    38.845774
],
  "geometry": {"coordinates":[-77.117323,38.845774],"type":"Point"}
}