{
  "id": 722665275,
  "type": "Feature",
  "properties": {
    "edtf:cessation":"uuuu",
    "edtf:inception":"uuuu",
    "geom:area":0.0,
    "geom:bbox":"-77.259846,38.851179,-77.259846,38.851179",
    "geom:latitude":38.851179,
    "geom:longitude":-77.259846,
    "iso:country":"US",
    "sg:address":"9107 Courtley Ct",
    "sg:city":"Fairfax",
    "sg:classifiers":[
        {
            "category":"Professional",
            "subcategory":"",
            "type":"Services"
        }
    ],
    "sg:owner":"simplegeo",
    "sg:phone":"+1 703 280 1267",
    "sg:postcode":"22031",
    "sg:province":"VA",
    "src:geom":"simplegeo",
    "wof:belongsto":[],
    "wof:breaches":[],
    "wof:concordances":{
        "sg:id":"SG_4h1bHhadAutpQUg8UhzjzQ_38.851179_-77.259846@1294252573"
    },
    "wof:country":"US",
    "wof:created":1461886307,
    "wof:geomhash":"e80bb707e9678b7254a6572040ae7c71",
    "wof:hierarchy":[],
    "wof:id":722665275,
    "wof:lastmodified":1461886307,
    "wof:name":"N W T M Corp",
    "wof:parent_id":-1,
    "wof:placetype":"venue",
    "wof:superseded_by":[],
    "wof:supersedes":[],
    "wof:tags":[]
},
  "bbox": [
    -77.259846,
    38.851179,
    -77.259846,
    38.851179
],
  "geometry": {"coordinates":[-77.259846,38.851179],"type":"Point"}
}