{
  "id": 723502097,
  "type": "Feature",
  "properties": {
    "edtf:cessation":"uuuu",
    "edtf:inception":"uuuu",
    "geom:area":0.0,
    "geom:bbox":"-76.570116,37.338452,-76.570116,37.338452",
    "geom:latitude":37.338452,
    "geom:longitude":-76.570116,
    "iso:country":"US",
    "sg:address":"4521 Mallard Dr",
    "sg:city":"Gloucester",
    "sg:classifiers":[
        {
            "category":"Building & Trades",
            "subcategory":"Construction",
            "type":"Services"
        }
    ],
    "sg:owner":"simplegeo",
    "sg:phone":"+1 804 693 4796",
    "sg:postcode":"23061",
    "sg:province":"VA",
    "sg:tags":[
        "roofing",
        "contractor"
    ],
    "src:geom":"simplegeo",
    "wof:belongsto":[],
    "wof:breaches":[],
    "wof:concordances":{
        "sg:id":"SG_3xHkbqOYmRy20Jpf0GTWKI_37.338452_-76.570116@1294252573"
    },
    "wof:country":"US",
    "wof:created":1461903001,
    "wof:geomhash":"3ca67095c193454ba3c1f6fbad0e61e5",
    "wof:hierarchy":[],
    "wof:id":723502097,
    "wof:lastmodified":1461903001,
    "wof:name":"No Leak Roofing Co",
    "wof:parent_id":-1,
    "wof:placetype":"venue",
    "wof:superseded_by":[],
    "wof:supersedes":[],
    "wof:tags":[
        "roofing",
        "contractor"
    ]
},
  "bbox": [
    -76.570116,
    37.338452,
    -76.570116,
    37.338452
],
  "geometry": {"coordinates":[-76.570116,37.338452],"type":"Point"}
}