{
  "id": 739426105,
  "type": "Feature",
  "properties": {
    "edtf:cessation":"uuuu",
    "edtf:inception":"uuuu",
    "geom:area":0.0,
    "geom:bbox":"-77.644272,38.356745,-77.644272,38.356745",
    "geom:latitude":38.356745,
    "geom:longitude":-77.644272,
    "iso:country":"US",
    "sg:address":"14735 Spotswood Furnace Rd",
    "sg:city":"Fredericksburg",
    "sg:classifiers":[
        {
            "category":"Building & Trades",
            "subcategory":"Construction",
            "type":"Services"
        }
    ],
    "sg:owner":"simplegeo",
    "sg:phone":"+1 540 548 0105",
    "sg:postcode":"22407",
    "sg:province":"VA",
    "sg:tags":[
        "excavation",
        "contractor"
    ],
    "src:geom":"simplegeo",
    "wof:belongsto":[],
    "wof:breaches":[],
    "wof:concordances":{
        "sg:id":"SG_5kohH3yFg1c4GRpKMosWV0_38.356745_-77.644272@1294252573"
    },
    "wof:country":"US",
    "wof:created":1461907093,
    "wof:geomhash":"05be3de53995353df35c313deecf2c55",
    "wof:hierarchy":[],
    "wof:id":739426105,
    "wof:lastmodified":1461907093,
    "wof:name":"Bishops Grading & Excavating",
    "wof:parent_id":-1,
    "wof:placetype":"venue",
    "wof:superseded_by":[],
    "wof:supersedes":[],
    "wof:tags":[
        "excavation",
        "contractor"
    ]
},
  "bbox": [
    -77.644272,
    38.356745,
    -77.644272,
    38.356745
],
  "geometry": {"coordinates":[-77.644272,38.356745],"type":"Point"}
}