{
  "id": 723001273,
  "type": "Feature",
  "properties": {
    "edtf:cessation":"uuuu",
    "edtf:inception":"uuuu",
    "geom:area":0.0,
    "geom:bbox":"-77.501849,38.794391,-77.501849,38.794391",
    "geom:latitude":38.794391,
    "geom:longitude":-77.501849,
    "iso:country":"US",
    "sg:address":"10108 Henry Ct",
    "sg:city":"Manassas",
    "sg:classifiers":[
        {
            "category":"Home & Garden",
            "subcategory":"Building Materials",
            "type":"Retail Goods"
        }
    ],
    "sg:owner":"simplegeo",
    "sg:phone":"+1 703 361 6226",
    "sg:postcode":"20109",
    "sg:province":"VA",
    "src:geom":"simplegeo",
    "wof:belongsto":[],
    "wof:breaches":[],
    "wof:concordances":{
        "sg:id":"SG_5rPerZ3QdtErbBe5JrLPAG_38.794391_-77.501849@1294252573"
    },
    "wof:country":"US",
    "wof:created":1461892929,
    "wof:geomhash":"08ceea57aa8f464c37171865a8291568",
    "wof:hierarchy":[],
    "wof:id":723001273,
    "wof:lastmodified":1461892929,
    "wof:name":"King Services Paul",
    "wof:parent_id":-1,
    "wof:placetype":"venue",
    "wof:superseded_by":[],
    "wof:supersedes":[],
    "wof:tags":[]
},
  "bbox": [
    -77.501849,
    38.794391,
    -77.501849,
    38.794391
],
  "geometry": {"coordinates":[-77.50184900000001,38.794391],"type":"Point"}
}