{
  "id": 723062019,
  "type": "Feature",
  "properties": {
    "edtf:cessation":"uuuu",
    "edtf:inception":"uuuu",
    "geom:area":0.0,
    "geom:bbox":"-77.170766,38.872114,-77.170766,38.872114",
    "geom:latitude":38.872114,
    "geom:longitude":-77.170766,
    "iso:country":"US",
    "sg:address":"6621 Mayfair Dr",
    "sg:city":"Falls Church",
    "sg:classifiers":[
        {
            "category":"Building & Trades",
            "subcategory":"Cleaning & Sanitation",
            "type":"Services"
        },
        {
            "category":"Professional",
            "subcategory":"Employment Agencies",
            "type":"Services"
        }
    ],
    "sg:owner":"simplegeo",
    "sg:phone":"+1 703 575 8051",
    "sg:postcode":"22042",
    "sg:province":"VA",
    "sg:tags":[
        "house",
        "help",
        "supply"
    ],
    "src:geom":"simplegeo",
    "wof:belongsto":[],
    "wof:breaches":[],
    "wof:concordances":{
        "sg:id":"SG_6uXvyi9ZF8AjAovOw29JDf_38.872114_-77.170766@1294252573"
    },
    "wof:country":"US",
    "wof:created":1461894262,
    "wof:geomhash":"7bacd7adb8c58752c086f1447b9b176a",
    "wof:hierarchy":[],
    "wof:id":723062019,
    "wof:lastmodified":1461894262,
    "wof:name":"Professional Home Cleaning Svc",
    "wof:parent_id":-1,
    "wof:placetype":"venue",
    "wof:superseded_by":[],
    "wof:supersedes":[],
    "wof:tags":[
        "house",
        "help",
        "supply"
    ]
},
  "bbox": [
    -77.170766,
    38.872114,
    -77.170766,
    38.872114
],
  "geometry": {"coordinates":[-77.170766,38.872114],"type":"Point"}
}