{
  "id": 722997739,
  "type": "Feature",
  "properties": {
    "edtf:cessation":"uuuu",
    "edtf:inception":"uuuu",
    "geom:area":0.0,
    "geom:bbox":"-77.398843,37.21583,-77.398843,37.21583",
    "geom:latitude":37.21583,
    "geom:longitude":-77.398843,
    "iso:country":"US",
    "sg:address":"812 S Sycamore St",
    "sg:city":"Petersburg",
    "sg:classifiers":[
        {
            "category":"Retail",
            "subcategory":"Auto Repair",
            "type":"Services"
        }
    ],
    "sg:owner":"simplegeo",
    "sg:phone":"+1 804 733 6278",
    "sg:postcode":"23803",
    "sg:province":"VA",
    "sg:tags":[
        "transmission"
    ],
    "src:geom":"simplegeo",
    "wof:belongsto":[],
    "wof:breaches":[],
    "wof:concordances":{
        "sg:id":"SG_0RaFx136TXaFwI7OiZ4U2P_37.215830_-77.398843@1294252573"
    },
    "wof:country":"US",
    "wof:created":1461892849,
    "wof:geomhash":"5142afec91846fbb4bc4e54570dbfc8d",
    "wof:hierarchy":[],
    "wof:id":722997739,
    "wof:lastmodified":1461892849,
    "wof:name":"Gene's Transmission Shop",
    "wof:parent_id":-1,
    "wof:placetype":"venue",
    "wof:superseded_by":[],
    "wof:supersedes":[],
    "wof:tags":[
        "transmission"
    ]
},
  "bbox": [
    -77.398843,
    37.21583,
    -77.398843,
    37.21583
],
  "geometry": {"coordinates":[-77.398843,37.21583],"type":"Point"}
}