{
  "id": 722850805,
  "type": "Feature",
  "properties": {
    "edtf:cessation":"uuuu",
    "edtf:inception":"uuuu",
    "geom:area":0.0,
    "geom:bbox":"-77.451195,38.818515,-77.451195,38.818515",
    "geom:latitude":38.818515,
    "geom:longitude":-77.451195,
    "iso:country":"US",
    "sg:address":"6700 Mossy Bank Ln",
    "sg:city":"Centreville",
    "sg:classifiers":[
        {
            "category":"Building & Trades",
            "subcategory":"Construction",
            "type":"Services"
        }
    ],
    "sg:owner":"simplegeo",
    "sg:phone":"+1 703 830 3337",
    "sg:postcode":"20121",
    "sg:province":"VA",
    "sg:tags":[
        "house"
    ],
    "src:geom":"simplegeo",
    "wof:belongsto":[],
    "wof:breaches":[],
    "wof:concordances":{
        "sg:id":"SG_1NbxAHKs0aDoCXKf1RADuL_38.818515_-77.451195@1294252573"
    },
    "wof:country":"US",
    "wof:created":1461889838,
    "wof:geomhash":"e427368f0797b92af58f7df192da9d19",
    "wof:hierarchy":[],
    "wof:id":722850805,
    "wof:lastmodified":1461889838,
    "wof:name":"Fernwood Richmond Amercn Homes",
    "wof:parent_id":-1,
    "wof:placetype":"venue",
    "wof:superseded_by":[],
    "wof:supersedes":[],
    "wof:tags":[
        "house"
    ]
},
  "bbox": [
    -77.451195,
    38.818515,
    -77.451195,
    38.818515
],
  "geometry": {"coordinates":[-77.451195,38.818515],"type":"Point"}
}