{
  "id": 739344759,
  "type": "Feature",
  "properties": {
    "edtf:cessation":"uuuu",
    "edtf:inception":"uuuu",
    "geom:area":0.0,
    "geom:bbox":"-77.113647,38.864461,-77.113647,38.864461",
    "geom:latitude":38.864461,
    "geom:longitude":-77.113647,
    "iso:country":"US",
    "sg:address":"4600 4th St S",
    "sg:city":"Arlington",
    "sg:classifiers":[
        {
            "category":"Freight",
            "subcategory":"",
            "type":"Transportation"
        }
    ],
    "sg:owner":"simplegeo",
    "sg:phone":"+1 703 671 7761",
    "sg:postcode":"22204",
    "sg:province":"VA",
    "sg:tags":[
        "operator",
        "local",
        "trucking"
    ],
    "src:geom":"simplegeo",
    "wof:belongsto":[],
    "wof:breaches":[],
    "wof:concordances":{
        "sg:id":"SG_1PYR2sxFgAtkFR1sU05qLR_38.864461_-77.113647@1294252573"
    },
    "wof:country":"US",
    "wof:created":1461905495,
    "wof:geomhash":"eef7165fbe1174fa023b7b47be7e5755",
    "wof:hierarchy":[],
    "wof:id":739344759,
    "wof:lastmodified":1461905495,
    "wof:name":"Idrizovic Almir",
    "wof:parent_id":-1,
    "wof:placetype":"venue",
    "wof:superseded_by":[],
    "wof:supersedes":[],
    "wof:tags":[
        "operator",
        "local",
        "trucking"
    ]
},
  "bbox": [
    -77.113647,
    38.864461,
    -77.113647,
    38.864461
],
  "geometry": {"coordinates":[-77.113647,38.864461],"type":"Point"}
}