{
  "id": 723391527,
  "type": "Feature",
  "properties": {
    "edtf:cessation":"uuuu",
    "edtf:inception":"uuuu",
    "geom:area":0.0,
    "geom:bbox":"-80.811942,37.330881,-80.811942,37.330881",
    "geom:latitude":37.330881,
    "geom:longitude":-80.811942,
    "iso:country":"US",
    "sg:address":"118 Monroe St",
    "sg:city":"Narrows",
    "sg:classifiers":[
        {
            "category":"Restaurant",
            "subcategory":"",
            "type":"Food & Drink"
        }
    ],
    "sg:owner":"simplegeo",
    "sg:phone":"+1 540 726 3180",
    "sg:postcode":"24124",
    "sg:province":"VA",
    "src:geom":"simplegeo",
    "wof:belongsto":[],
    "wof:breaches":[],
    "wof:concordances":{
        "sg:id":"SG_2wL1aDF4613bayucR1VS4W_37.330881_-80.811942@1294252573"
    },
    "wof:country":"US",
    "wof:created":1461900806,
    "wof:geomhash":"4c6c3214f677b8818388f2e403023058",
    "wof:hierarchy":[],
    "wof:id":723391527,
    "wof:lastmodified":1461900806,
    "wof:name":"Greenwave Cafe",
    "wof:parent_id":-1,
    "wof:placetype":"venue",
    "wof:superseded_by":[],
    "wof:supersedes":[],
    "wof:tags":[]
},
  "bbox": [
    -80.811942,
    37.330881,
    -80.811942,
    37.330881
],
  "geometry": {"coordinates":[-80.811942,37.330881],"type":"Point"}
}