{
  "id": 723103611,
  "type": "Feature",
  "properties": {
    "edtf:cessation":"uuuu",
    "edtf:inception":"uuuu",
    "geom:area":0.0,
    "geom:bbox":"-78.20393,39.187821,-78.20393,39.187821",
    "geom:latitude":39.187821,
    "geom:longitude":-78.20393,
    "iso:country":"US",
    "sg:address":"165 Ward Ave",
    "sg:city":"Winchester",
    "sg:classifiers":[
        {
            "category":"Travel",
            "subcategory":"Campground",
            "type":"Entertainment"
        }
    ],
    "sg:owner":"simplegeo",
    "sg:phone":"+1 540 662 8010",
    "sg:postcode":"22602",
    "sg:province":"VA",
    "src:geom":"simplegeo",
    "wof:belongsto":[],
    "wof:breaches":[],
    "wof:concordances":{
        "sg:id":"SG_2Gt2cmsBsp7ua7fpCmOVWc_39.187821_-78.203930@1294252573"
    },
    "wof:country":"US",
    "wof:created":1461895187,
    "wof:geomhash":"fbca405d91c49102ea696d8ede6d7926",
    "wof:hierarchy":[],
    "wof:id":723103611,
    "wof:lastmodified":1461895187,
    "wof:name":"Candy Hill Camp Ground",
    "wof:parent_id":-1,
    "wof:placetype":"venue",
    "wof:superseded_by":[],
    "wof:supersedes":[],
    "wof:tags":[]
},
  "bbox": [
    -78.20393,
    39.187821,
    -78.20393,
    39.187821
],
  "geometry": {"coordinates":[-78.20393,39.187821],"type":"Point"}
}