{
  "id": 739374629,
  "type": "Feature",
  "properties": {
    "edtf:cessation":"uuuu",
    "edtf:inception":"uuuu",
    "geom:area":0.0,
    "geom:bbox":"-77.475575,37.445784,-77.475575,37.445784",
    "geom:latitude":37.445784,
    "geom:longitude":-77.475575,
    "iso:country":"US",
    "sg:address":"5531 Sunbeam Rd",
    "sg:city":"Richmond",
    "sg:classifiers":[
        {
            "category":"Real Estate",
            "subcategory":"Real Estate Agent",
            "type":"Services"
        }
    ],
    "sg:owner":"simplegeo",
    "sg:phone":"+1 804 743 3156",
    "sg:postcode":"23234",
    "sg:province":"VA",
    "src:geom":"simplegeo",
    "wof:belongsto":[],
    "wof:breaches":[],
    "wof:concordances":{
        "sg:id":"SG_6N3yIcPT9OyY7fSnwXiUP9_37.445784_-77.475575@1294252573"
    },
    "wof:country":"US",
    "wof:created":1461906093,
    "wof:geomhash":"bf6d6e8746ddc44fd57877d454863e51",
    "wof:hierarchy":[],
    "wof:id":739374629,
    "wof:lastmodified":1461906093,
    "wof:name":"Spectrum Properties Inc",
    "wof:parent_id":-1,
    "wof:placetype":"venue",
    "wof:superseded_by":[],
    "wof:supersedes":[],
    "wof:tags":[]
},
  "bbox": [
    -77.475575,
    37.445784,
    -77.475575,
    37.445784
],
  "geometry": {"coordinates":[-77.47557500000001,37.445784],"type":"Point"}
}