{
  "id": 722717943,
  "type": "Feature",
  "properties": {
    "edtf:cessation":"uuuu",
    "edtf:inception":"uuuu",
    "geom:area":0.0,
    "geom:bbox":"-77.478549,38.751817,-77.478549,38.751817",
    "geom:latitude":38.751817,
    "geom:longitude":-77.478549,
    "iso:country":"US",
    "sg:address":"9320 Lee Ave",
    "sg:city":"Manassas",
    "sg:classifiers":[
        {
            "category":"Government",
            "subcategory":"Office",
            "type":"Public Place"
        }
    ],
    "sg:owner":"simplegeo",
    "sg:phone":"+1 703 792 6420",
    "sg:postcode":"20110",
    "sg:province":"VA",
    "src:geom":"simplegeo",
    "wof:belongsto":[],
    "wof:breaches":[],
    "wof:concordances":{
        "sg:id":"SG_43FHQVgvlXLjrTExeyIibG_38.751817_-77.478549@1294252573"
    },
    "wof:country":"US",
    "wof:created":1461887305,
    "wof:geomhash":"7c4fe38d2d78d53931e293962dc291c2",
    "wof:hierarchy":[],
    "wof:id":722717943,
    "wof:lastmodified":1461887305,
    "wof:name":"Prince William Adult Detention",
    "wof:parent_id":-1,
    "wof:placetype":"venue",
    "wof:superseded_by":[],
    "wof:supersedes":[],
    "wof:tags":[]
},
  "bbox": [
    -77.478549,
    38.751817,
    -77.478549,
    38.751817
],
  "geometry": {"coordinates":[-77.478549,38.751817],"type":"Point"}
}