{
  "id": 722883999,
  "type": "Feature",
  "properties": {
    "edtf:cessation":"uuuu",
    "edtf:inception":"uuuu",
    "geom:area":0.0,
    "geom:bbox":"-77.376896,37.493069,-77.376896,37.493069",
    "geom:latitude":37.493069,
    "geom:longitude":-77.376896,
    "iso:country":"US",
    "sg:address":"6412 Springcrest Ln",
    "sg:city":"Richmond",
    "sg:classifiers":[
        {
            "category":"Building & Trades",
            "subcategory":"Landscaping Services",
            "type":"Services"
        }
    ],
    "sg:owner":"simplegeo",
    "sg:phone":"+1 804 226 3626",
    "sg:postcode":"23231",
    "sg:province":"VA",
    "sg:tags":[
        "landscape"
    ],
    "src:geom":"simplegeo",
    "wof:belongsto":[],
    "wof:breaches":[],
    "wof:concordances":{
        "sg:id":"SG_53muDGKuSddSqkyoi8Xe1n_37.493069_-77.376896@1294252573"
    },
    "wof:country":"US",
    "wof:created":1461890468,
    "wof:geomhash":"da30a0614b71dc0daa67af4a7e0fa27c",
    "wof:hierarchy":[],
    "wof:id":722883999,
    "wof:lastmodified":1461890468,
    "wof:name":"Tylers Landscaping Inc",
    "wof:parent_id":-1,
    "wof:placetype":"venue",
    "wof:superseded_by":[],
    "wof:supersedes":[],
    "wof:tags":[
        "landscape"
    ]
},
  "bbox": [
    -77.376896,
    37.493069,
    -77.376896,
    37.493069
],
  "geometry": {"coordinates":[-77.376896,37.493069],"type":"Point"}
}