{
  "id": 723453269,
  "type": "Feature",
  "properties": {
    "edtf:cessation":"uuuu",
    "edtf:inception":"uuuu",
    "geom:area":0.0,
    "geom:bbox":"-77.61828,38.752867,-77.61828,38.752867",
    "geom:latitude":38.752867,
    "geom:longitude":-77.61828,
    "iso:country":"US",
    "sg:address":"14301 Vint Hill Rd",
    "sg:city":"Nokesville",
    "sg:classifiers":[
        {
            "category":"Farming",
            "subcategory":"Dairy Farm",
            "type":"Manufacturing & Wholesale Goods"
        }
    ],
    "sg:owner":"simplegeo",
    "sg:phone":"+1 703 754 0136",
    "sg:postcode":"20181",
    "sg:province":"VA",
    "src:geom":"simplegeo",
    "wof:belongsto":[],
    "wof:breaches":[],
    "wof:concordances":{
        "sg:id":"SG_2MNnqvx60vFKhX9XJ19SS1_38.752867_-77.618280@1294252573"
    },
    "wof:country":"US",
    "wof:created":1461901998,
    "wof:geomhash":"b2affd2f6aeab1d327b074d4b886fc6a",
    "wof:hierarchy":[],
    "wof:id":723453269,
    "wof:lastmodified":1461901998,
    "wof:name":"Dutch Land Farm",
    "wof:parent_id":-1,
    "wof:placetype":"venue",
    "wof:superseded_by":[],
    "wof:supersedes":[],
    "wof:tags":[]
},
  "bbox": [
    -77.61828,
    38.752867,
    -77.61828,
    38.752867
],
  "geometry": {"coordinates":[-77.61828,38.752867],"type":"Point"}
}