{
  "id": 723224949,
  "type": "Feature",
  "properties": {
    "edtf:cessation":"uuuu",
    "edtf:inception":"uuuu",
    "geom:area":0.0,
    "geom:bbox":"-77.411462,38.950448,-77.411462,38.950448",
    "geom:latitude":38.950448,
    "geom:longitude":-77.411462,
    "iso:country":"US",
    "sg:address":"2401 Centreville Rd",
    "sg:city":"Herndon",
    "sg:classifiers":[
        {
            "category":"Professional",
            "subcategory":"",
            "type":"Services"
        }
    ],
    "sg:owner":"simplegeo",
    "sg:phone":"+1 703 838 3429",
    "sg:postcode":"20171",
    "sg:province":"VA",
    "src:geom":"simplegeo",
    "wof:belongsto":[],
    "wof:breaches":[],
    "wof:concordances":{
        "sg:id":"SG_6UlacSqUivSapaqT6TvMNC_38.950448_-77.411462@1294252573"
    },
    "wof:country":"US",
    "wof:created":1461897594,
    "wof:geomhash":"c94f75b2eca8247da049dc4c51a9b65b",
    "wof:hierarchy":[],
    "wof:id":723224949,
    "wof:lastmodified":1461897594,
    "wof:name":"Putnam College Advantage",
    "wof:parent_id":-1,
    "wof:placetype":"venue",
    "wof:superseded_by":[],
    "wof:supersedes":[],
    "wof:tags":[]
},
  "bbox": [
    -77.411462,
    38.950448,
    -77.411462,
    38.950448
],
  "geometry": {"coordinates":[-77.411462,38.950448],"type":"Point"}
}