{
  "id": 722650501,
  "type": "Feature",
  "properties": {
    "edtf:cessation":"uuuu",
    "edtf:inception":"uuuu",
    "geom:area":0.0,
    "geom:bbox":"-80.823023,37.3833,-80.823023,37.3833",
    "geom:latitude":37.3833,
    "geom:longitude":-80.823023,
    "iso:country":"US",
    "sg:address":"201 Virginia Ave",
    "sg:city":"Rich Creek",
    "sg:classifiers":[
        {
            "category":"Food & Beverages",
            "subcategory":"Groceries & Convenience Stores",
            "type":"Retail Goods"
        }
    ],
    "sg:owner":"simplegeo",
    "sg:phone":"+1 540 726 7880",
    "sg:postcode":"24147",
    "sg:province":"VA",
    "sg:tags":[
        "grocer"
    ],
    "src:geom":"simplegeo",
    "wof:belongsto":[],
    "wof:breaches":[],
    "wof:concordances":{
        "sg:id":"SG_2IvNujKOYKOCg6zRGqSlcE_37.383300_-80.823023@1294252573"
    },
    "wof:country":"US",
    "wof:created":1461886027,
    "wof:geomhash":"9abb8307df378865b8ce3c0314c69eff",
    "wof:hierarchy":[],
    "wof:id":722650501,
    "wof:lastmodified":1461886027,
    "wof:name":"Corner Market LLC",
    "wof:parent_id":-1,
    "wof:placetype":"venue",
    "wof:superseded_by":[],
    "wof:supersedes":[],
    "wof:tags":[
        "grocer"
    ]
},
  "bbox": [
    -80.823023,
    37.3833,
    -80.823023,
    37.3833
],
  "geometry": {"coordinates":[-80.82302300000001,37.3833],"type":"Point"}
}