{
  "id": 739726089,
  "type": "Feature",
  "properties": {
    "edtf:cessation":"uuuu",
    "edtf:inception":"uuuu",
    "geom:area":0.0,
    "geom:bbox":"-77.563579,37.635747,-77.563579,37.635747",
    "geom:latitude":37.635747,
    "geom:longitude":-77.563579,
    "iso:country":"US",
    "sg:address":"9705 Pemberton Crossing Dr",
    "sg:city":"Henrico",
    "sg:classifiers":[
        {
            "category":"Organizations",
            "subcategory":"Community Association",
            "type":"Services"
        }
    ],
    "sg:owner":"simplegeo",
    "sg:phone":"+1 804 290 0044",
    "sg:postcode":"23294",
    "sg:province":"VA",
    "sg:tags":[
        "club"
    ],
    "src:geom":"simplegeo",
    "wof:belongsto":[],
    "wof:breaches":[],
    "wof:concordances":{
        "sg:id":"SG_4sSD1Yk6vwajsLuPhg8a1b_37.635747_-77.563579@1303262551"
    },
    "wof:country":"US",
    "wof:created":1461913114,
    "wof:geomhash":"a1d5d45768aee33b9e0d9ac816f38d4f",
    "wof:hierarchy":[],
    "wof:id":739726089,
    "wof:lastmodified":1461913114,
    "wof:name":"Twin Oaks Fund",
    "wof:parent_id":-1,
    "wof:placetype":"venue",
    "wof:superseded_by":[],
    "wof:supersedes":[],
    "wof:tags":[
        "club"
    ]
},
  "bbox": [
    -77.563579,
    37.635747,
    -77.563579,
    37.635747
],
  "geometry": {"coordinates":[-77.563579,37.635747],"type":"Point"}
}