{
  "id": 739368601,
  "type": "Feature",
  "properties": {
    "edtf:cessation":"uuuu",
    "edtf:inception":"uuuu",
    "geom:area":0.0,
    "geom:bbox":"-77.551133,37.190098,-77.551133,37.190098",
    "geom:latitude":37.190098,
    "geom:longitude":-77.551133,
    "iso:country":"US",
    "sg:address":"6025 Sutherland Dr",
    "sg:city":"Sutherland",
    "sg:classifiers":[
        {
            "category":"Organizations",
            "subcategory":"Community Association",
            "type":"Services"
        }
    ],
    "sg:owner":"simplegeo",
    "sg:phone":"+1 804 732 9644",
    "sg:postcode":"23885",
    "sg:province":"VA",
    "sg:tags":[
        "club"
    ],
    "src:geom":"simplegeo",
    "wof:belongsto":[],
    "wof:breaches":[],
    "wof:concordances":{
        "sg:id":"SG_0GUMCQi3Fsoj4Pox9lf241_37.190098_-77.551133@1294252573"
    },
    "wof:country":"US",
    "wof:created":1461905972,
    "wof:geomhash":"4f1036ec4e637cdf5be17b344a3c6aed",
    "wof:hierarchy":[],
    "wof:id":739368601,
    "wof:lastmodified":1461905972,
    "wof:name":"Sutherland Manor Swim Club",
    "wof:parent_id":-1,
    "wof:placetype":"venue",
    "wof:superseded_by":[],
    "wof:supersedes":[],
    "wof:tags":[
        "club"
    ]
},
  "bbox": [
    -77.551133,
    37.190098,
    -77.551133,
    37.190098
],
  "geometry": {"coordinates":[-77.55113299999999,37.190098],"type":"Point"}
}