{
  "id": 722568235,
  "type": "Feature",
  "properties": {
    "edtf:cessation":"uuuu",
    "edtf:inception":"uuuu",
    "geom:area":0.0,
    "geom:bbox":"-83.030834,36.755458,-83.030834,36.755458",
    "geom:latitude":36.755458,
    "geom:longitude":-83.030834,
    "iso:country":"US",
    "sg:address":"502 Joslyn Ave",
    "sg:city":"Pennington Gap",
    "sg:classifiers":[
        {
            "category":"Health Services",
            "subcategory":"Nursing And Care Facility",
            "type":"Services"
        }
    ],
    "sg:owner":"simplegeo",
    "sg:phone":"+1 276 546 0023",
    "sg:postcode":"24277",
    "sg:province":"VA",
    "sg:tags":[
        "adult"
    ],
    "src:geom":"simplegeo",
    "wof:belongsto":[],
    "wof:breaches":[],
    "wof:concordances":{
        "sg:id":"SG_3hH3KuYQh2dBkXDVA3BfFP_36.755458_-83.030834@1294252573"
    },
    "wof:country":"US",
    "wof:created":1461884379,
    "wof:geomhash":"fcfcfed9906bea17622f5445009379d2",
    "wof:hierarchy":[],
    "wof:id":722568235,
    "wof:lastmodified":1461884379,
    "wof:name":"Homestead Foundational Svc Inc",
    "wof:parent_id":-1,
    "wof:placetype":"venue",
    "wof:superseded_by":[],
    "wof:supersedes":[],
    "wof:tags":[
        "adult"
    ]
},
  "bbox": [
    -83.030834,
    36.755458,
    -83.030834,
    36.755458
],
  "geometry": {"coordinates":[-83.030834,36.755458],"type":"Point"}
}