{
  "id": 723029991,
  "type": "Feature",
  "properties": {
    "edtf:cessation":"uuuu",
    "edtf:inception":"uuuu",
    "geom:area":0.0,
    "geom:bbox":"-81.250205,37.241657,-81.250205,37.241657",
    "geom:latitude":37.241657,
    "geom:longitude":-81.250205,
    "iso:country":"US",
    "sg:address":"37 College Dr",
    "sg:city":"Bluefield",
    "sg:classifiers":[
        {
            "category":"Professional",
            "subcategory":"Employment Agencies",
            "type":"Services"
        }
    ],
    "sg:owner":"simplegeo",
    "sg:phone":"+1 276 326 3289",
    "sg:postcode":"24605",
    "sg:province":"VA",
    "sg:tags":[
        "help",
        "contractor"
    ],
    "src:geom":"simplegeo",
    "wof:belongsto":[],
    "wof:breaches":[],
    "wof:concordances":{
        "sg:id":"SG_4Ura9uYuyuCZXQtmDSVMCM_37.241657_-81.250205@1294252573"
    },
    "wof:country":"US",
    "wof:created":1461893600,
    "wof:geomhash":"245185cfb577bc8bb91fbc4bfe07d9ed",
    "wof:hierarchy":[],
    "wof:id":723029991,
    "wof:lastmodified":1461893600,
    "wof:name":"Personnel Pool Of Va Inc",
    "wof:parent_id":-1,
    "wof:placetype":"venue",
    "wof:superseded_by":[],
    "wof:supersedes":[],
    "wof:tags":[
        "help",
        "contractor"
    ]
},
  "bbox": [
    -81.250205,
    37.241657,
    -81.250205,
    37.241657
],
  "geometry": {"coordinates":[-81.25020499999999,37.241657],"type":"Point"}
}