{
  "id": 739694617,
  "type": "Feature",
  "properties": {
    "edtf:cessation":"uuuu",
    "edtf:inception":"uuuu",
    "geom:area":0.0,
    "geom:bbox":"-77.569743,38.246986,-77.569743,38.246986",
    "geom:latitude":38.246986,
    "geom:longitude":-77.569743,
    "iso:country":"US",
    "sg:address":"6815 Silverbrook Dr",
    "sg:city":"Spotsylvania",
    "sg:classifiers":[
        {
            "category":"Shopping",
            "subcategory":"Clothing, Apparel, & Fashions",
            "type":"Retail Goods"
        }
    ],
    "sg:owner":"simplegeo",
    "sg:phone":"+1 540 322 8831",
    "sg:postcode":"22553",
    "sg:province":"VA",
    "sg:tags":[
        "apparel",
        "women's"
    ],
    "src:geom":"simplegeo",
    "wof:belongsto":[],
    "wof:breaches":[],
    "wof:concordances":{
        "sg:id":"SG_0k9H04IcfiepMNjDVKzp3y_38.246986_-77.569743@1303262547"
    },
    "wof:country":"US",
    "wof:created":1461912430,
    "wof:geomhash":"95604949b6d220dd1b1b4fc4ee7d4388",
    "wof:hierarchy":[],
    "wof:id":739694617,
    "wof:lastmodified":1461912430,
    "wof:name":"Knd Fashions",
    "wof:parent_id":-1,
    "wof:placetype":"venue",
    "wof:superseded_by":[],
    "wof:supersedes":[],
    "wof:tags":[
        "apparel",
        "women's"
    ]
},
  "bbox": [
    -77.569743,
    38.246986,
    -77.569743,
    38.246986
],
  "geometry": {"coordinates":[-77.569743,38.246986],"type":"Point"}
}