{
  "id": 722750385,
  "type": "Feature",
  "properties": {
    "edtf:cessation":"uuuu",
    "edtf:inception":"uuuu",
    "geom:area":0.0,
    "geom:bbox":"-77.58609,37.550844,-77.58609,37.550844",
    "geom:latitude":37.550844,
    "geom:longitude":-77.58609,
    "iso:country":"US",
    "sg:address":"10300 Apache Rd",
    "sg:city":"Richmond",
    "sg:classifiers":[
        {
            "category":"Professional",
            "subcategory":"Accounting & Tax Preparation",
            "type":"Services"
        }
    ],
    "sg:owner":"simplegeo",
    "sg:phone":"+1 804 330 5486",
    "sg:postcode":"23235",
    "sg:province":"VA",
    "src:geom":"simplegeo",
    "wof:belongsto":[],
    "wof:breaches":[],
    "wof:concordances":{
        "sg:id":"SG_34KARe3JRymaUZamRYevMl_37.550844_-77.586090@1294252573"
    },
    "wof:country":"US",
    "wof:created":1461887945,
    "wof:geomhash":"6801b4b31ff6eb652c0de7160dfe0c80",
    "wof:hierarchy":[],
    "wof:id":722750385,
    "wof:lastmodified":1461887945,
    "wof:name":"Carol B Markow CPA",
    "wof:parent_id":-1,
    "wof:placetype":"venue",
    "wof:superseded_by":[],
    "wof:supersedes":[],
    "wof:tags":[]
},
  "bbox": [
    -77.58609,
    37.550844,
    -77.58609,
    37.550844
],
  "geometry": {"coordinates":[-77.58609,37.550844],"type":"Point"}
}