{
  "id": 739505541,
  "type": "Feature",
  "properties": {
    "edtf:cessation":"uuuu",
    "edtf:inception":"uuuu",
    "geom:area":0.0,
    "geom:bbox":"-77.488486,38.669741,-77.488486,38.669741",
    "geom:latitude":38.669741,
    "geom:longitude":-77.488486,
    "iso:country":"US",
    "sg:address":"13140 Ada Ln",
    "sg:city":"Nokesville",
    "sg:classifiers":[
        {
            "category":"Building & Trades",
            "subcategory":"Construction",
            "type":"Services"
        }
    ],
    "sg:owner":"simplegeo",
    "sg:phone":"+1 703 791 4695",
    "sg:postcode":"20181",
    "sg:province":"VA",
    "sg:tags":[
        "swimming",
        "pool",
        "contractor"
    ],
    "src:geom":"simplegeo",
    "wof:belongsto":[],
    "wof:breaches":[],
    "wof:concordances":{
        "sg:id":"SG_0fBoTYmYYm9epJU8wXaSlq_38.669741_-77.488486@1294252573"
    },
    "wof:country":"US",
    "wof:created":1461908528,
    "wof:geomhash":"e9f73ee7e0eb779329246da1dfaa1e39",
    "wof:hierarchy":[],
    "wof:id":739505541,
    "wof:lastmodified":1461908528,
    "wof:name":"Lane Riddle Inc",
    "wof:parent_id":-1,
    "wof:placetype":"venue",
    "wof:superseded_by":[],
    "wof:supersedes":[],
    "wof:tags":[
        "swimming",
        "pool",
        "contractor"
    ]
},
  "bbox": [
    -77.488486,
    38.669741,
    -77.488486,
    38.669741
],
  "geometry": {"coordinates":[-77.48848599999999,38.669741],"type":"Point"}
}