{
  "id": 723303105,
  "type": "Feature",
  "properties": {
    "edtf:cessation":"uuuu",
    "edtf:inception":"uuuu",
    "geom:area":0.0,
    "geom:bbox":"-77.947476,37.985286,-77.947476,37.985286",
    "geom:latitude":37.985286,
    "geom:longitude":-77.947476,
    "iso:country":"US",
    "sg:address":"2703 Jefferson Hwy",
    "sg:city":"Louisa",
    "sg:classifiers":[
        {
            "category":"Building & Trades",
            "subcategory":"Construction",
            "type":"Services"
        }
    ],
    "sg:owner":"simplegeo",
    "sg:phone":"+1 540 967 2103",
    "sg:postcode":"23093",
    "sg:province":"VA",
    "sg:tags":[
        "house"
    ],
    "src:geom":"simplegeo",
    "wof:belongsto":[],
    "wof:breaches":[],
    "wof:concordances":{
        "sg:id":"SG_5m0iZhl9M2N5BUpBpyL6qH_37.985286_-77.947476@1294252573"
    },
    "wof:country":"US",
    "wof:created":1461899120,
    "wof:geomhash":"2b56e25b0e9ddabeabcdfdb226e21240",
    "wof:hierarchy":[],
    "wof:id":723303105,
    "wof:lastmodified":1461899120,
    "wof:name":"Dunivan Construction",
    "wof:parent_id":-1,
    "wof:placetype":"venue",
    "wof:superseded_by":[],
    "wof:supersedes":[],
    "wof:tags":[
        "house"
    ]
},
  "bbox": [
    -77.947476,
    37.985286,
    -77.947476,
    37.985286
],
  "geometry": {"coordinates":[-77.94747599999999,37.985286],"type":"Point"}
}