{
  "id": 722973487,
  "type": "Feature",
  "properties": {
    "edtf:cessation":"uuuu",
    "edtf:inception":"uuuu",
    "geom:area":0.0,
    "geom:bbox":"-78.165751,39.183945,-78.165751,39.183945",
    "geom:latitude":39.183945,
    "geom:longitude":-78.165751,
    "iso:country":"US",
    "sg:address":"13 S Loudoun St",
    "sg:city":"Winchester",
    "sg:classifiers":[
        {
            "category":"Real Estate",
            "subcategory":"Real Estate Agent",
            "type":"Services"
        }
    ],
    "sg:owner":"simplegeo",
    "sg:phone":"+1 540 662 7215",
    "sg:postcode":"22601",
    "sg:province":"VA",
    "src:geom":"simplegeo",
    "wof:belongsto":[],
    "wof:breaches":[],
    "wof:concordances":{
        "sg:id":"SG_4GqDaKLuMxASyXVZJZRox2_39.183945_-78.165751@1294252573"
    },
    "wof:country":"US",
    "wof:created":1461892320,
    "wof:geomhash":"8fc4eb8fb239457d16ba84b2219ece2f",
    "wof:hierarchy":[],
    "wof:id":722973487,
    "wof:lastmodified":1461892320,
    "wof:name":"James R Wilkins Realty Inc",
    "wof:parent_id":-1,
    "wof:placetype":"venue",
    "wof:superseded_by":[],
    "wof:supersedes":[],
    "wof:tags":[]
},
  "bbox": [
    -78.165751,
    39.183945,
    -78.165751,
    39.183945
],
  "geometry": {"coordinates":[-78.165751,39.183945],"type":"Point"}
}