{
  "id": 722795943,
  "type": "Feature",
  "properties": {
    "edtf:cessation":"uuuu",
    "edtf:inception":"uuuu",
    "geom:area":0.0,
    "geom:bbox":"-79.246198,37.37828,-79.246198,37.37828",
    "geom:latitude":37.37828,
    "geom:longitude":-79.246198,
    "iso:country":"US",
    "sg:address":"1922 Graves Mill Rd",
    "sg:city":"Lynchburg",
    "sg:classifiers":[
        {
            "category":"Social Services",
            "subcategory":"",
            "type":"Services"
        }
    ],
    "sg:owner":"simplegeo",
    "sg:phone":"+1 434 385 0013",
    "sg:postcode":"24502",
    "sg:province":"VA",
    "src:geom":"simplegeo",
    "wof:belongsto":[],
    "wof:breaches":[],
    "wof:concordances":{
        "sg:id":"SG_5FDI7d3ii0yp6M5GQriGZ7_37.378280_-79.246198@1294252573"
    },
    "wof:country":"US",
    "wof:created":1461888813,
    "wof:geomhash":"53bc036347ae51368ae3f448d363f31c",
    "wof:hierarchy":[],
    "wof:id":722795943,
    "wof:lastmodified":1461888813,
    "wof:name":"Ferrell Pamela LPC",
    "wof:parent_id":-1,
    "wof:placetype":"venue",
    "wof:superseded_by":[],
    "wof:supersedes":[],
    "wof:tags":[]
},
  "bbox": [
    -79.246198,
    37.37828,
    -79.246198,
    37.37828
],
  "geometry": {"coordinates":[-79.24619800000001,37.37828],"type":"Point"}
}