{
  "id": 722730061,
  "type": "Feature",
  "properties": {
    "edtf:cessation":"uuuu",
    "edtf:inception":"uuuu",
    "geom:area":0.0,
    "geom:bbox":"-77.460337,38.227841,-77.460337,38.227841",
    "geom:latitude":38.227841,
    "geom:longitude":-77.460337,
    "iso:country":"US",
    "sg:address":"3600 Lee Hill School Dr",
    "sg:city":"Fredericksburg",
    "sg:classifiers":[
        {
            "category":"Education",
            "subcategory":"School",
            "type":"Public Place"
        }
    ],
    "sg:owner":"simplegeo",
    "sg:phone":"+1 540 898 1433",
    "sg:postcode":"22408",
    "sg:province":"VA",
    "src:geom":"simplegeo",
    "wof:belongsto":[],
    "wof:breaches":[],
    "wof:concordances":{
        "sg:id":"SG_2iHsy0KgUbuAqt5Y8knusb_38.227841_-77.460337@1294252573"
    },
    "wof:country":"US",
    "wof:created":1461887527,
    "wof:geomhash":"cfd22d0688619d30d5ba2e6a448d5d63",
    "wof:hierarchy":[],
    "wof:id":722730061,
    "wof:lastmodified":1461887527,
    "wof:name":"Lee Hill Elementary School",
    "wof:parent_id":-1,
    "wof:placetype":"venue",
    "wof:superseded_by":[],
    "wof:supersedes":[],
    "wof:tags":[]
},
  "bbox": [
    -77.460337,
    38.227841,
    -77.460337,
    38.227841
],
  "geometry": {"coordinates":[-77.460337,38.227841],"type":"Point"}
}