{
  "id": 722716287,
  "type": "Feature",
  "properties": {
    "edtf:cessation":"uuuu",
    "edtf:inception":"uuuu",
    "geom:area":0.0,
    "geom:bbox":"-79.936244,37.319181,-79.936244,37.319181",
    "geom:latitude":37.319181,
    "geom:longitude":-79.936244,
    "iso:country":"US",
    "sg:address":"4501 Oliver Rd NE",
    "sg:city":"Roanoke",
    "sg:classifiers":[
        {
            "category":"Education",
            "subcategory":"School",
            "type":"Public Place"
        }
    ],
    "sg:owner":"simplegeo",
    "sg:phone":"+1 540 853 2933",
    "sg:postcode":"24012",
    "sg:province":"VA",
    "src:geom":"simplegeo",
    "wof:belongsto":[],
    "wof:breaches":[],
    "wof:concordances":{
        "sg:id":"SG_46NUHd0C71E01UCXkf03Bn_37.319181_-79.936244@1294252573"
    },
    "wof:country":"US",
    "wof:created":1461887274,
    "wof:geomhash":"61923c720eb039931ce500417a7d32f3",
    "wof:hierarchy":[],
    "wof:id":722716287,
    "wof:lastmodified":1461887274,
    "wof:name":"Monterey Elementary School",
    "wof:parent_id":-1,
    "wof:placetype":"venue",
    "wof:superseded_by":[],
    "wof:supersedes":[],
    "wof:tags":[]
},
  "bbox": [
    -79.936244,
    37.319181,
    -79.936244,
    37.319181
],
  "geometry": {"coordinates":[-79.936244,37.319181],"type":"Point"}
}