{
  "id": 722983359,
  "type": "Feature",
  "properties": {
    "edtf:cessation":"uuuu",
    "edtf:inception":"uuuu",
    "geom:area":0.0,
    "geom:bbox":"-77.581434,39.042602,-77.581434,39.042602",
    "geom:latitude":39.042602,
    "geom:longitude":-77.581434,
    "iso:country":"US",
    "sg:address":"20945 Evergreen Mills Rd",
    "sg:city":"Leesburg",
    "sg:classifiers":[
        {
            "category":"Building & Trades",
            "subcategory":"Construction",
            "type":"Services"
        }
    ],
    "sg:owner":"simplegeo",
    "sg:phone":"+1 703 771 9274",
    "sg:postcode":"20175",
    "sg:province":"VA",
    "sg:tags":[
        "house"
    ],
    "src:geom":"simplegeo",
    "wof:belongsto":[],
    "wof:breaches":[],
    "wof:concordances":{
        "sg:id":"SG_37AGBGaBGZL45ubfNbgXB4_39.042602_-77.581434@1294252573"
    },
    "wof:country":"US",
    "wof:created":1461892530,
    "wof:geomhash":"c3ef96c71f111cb3d94d2bde02508972",
    "wof:hierarchy":[],
    "wof:id":722983359,
    "wof:lastmodified":1461892530,
    "wof:name":"New Dominion Construction Inc",
    "wof:parent_id":-1,
    "wof:placetype":"venue",
    "wof:superseded_by":[],
    "wof:supersedes":[],
    "wof:tags":[
        "house"
    ]
},
  "bbox": [
    -77.581434,
    39.042602,
    -77.581434,
    39.042602
],
  "geometry": {"coordinates":[-77.581434,39.042602],"type":"Point"}
}