{
  "id": 739401149,
  "type": "Feature",
  "properties": {
    "edtf:cessation":"uuuu",
    "edtf:inception":"uuuu",
    "geom:area":0.0,
    "geom:bbox":"-79.17427,37.366787,-79.17427,37.366787",
    "geom:latitude":37.366787,
    "geom:longitude":-79.17427,
    "iso:country":"US",
    "sg:address":"3405 Candlers Mountain Rd",
    "sg:city":"Lynchburg",
    "sg:classifiers":[
        {
            "category":"Shopping",
            "subcategory":"Jewelry",
            "type":"Retail Goods"
        }
    ],
    "sg:owner":"simplegeo",
    "sg:phone":"+1 434 237 5213",
    "sg:postcode":"24502",
    "sg:province":"VA",
    "src:geom":"simplegeo",
    "wof:belongsto":[],
    "wof:breaches":[],
    "wof:concordances":{
        "sg:id":"SG_6W0oTBuNY2WFzIlENQoL6d_37.366787_-79.174270@1294252573"
    },
    "wof:country":"US",
    "wof:created":1461906601,
    "wof:geomhash":"9d35bb46f82b5e3d349d438decf755e6",
    "wof:hierarchy":[],
    "wof:id":739401149,
    "wof:lastmodified":1461906601,
    "wof:name":"Finlay Fine Jewelry",
    "wof:parent_id":-1,
    "wof:placetype":"venue",
    "wof:superseded_by":[],
    "wof:supersedes":[],
    "wof:tags":[]
},
  "bbox": [
    -79.17427,
    37.366787,
    -79.17427,
    37.366787
],
  "geometry": {"coordinates":[-79.17427000000001,37.366787],"type":"Point"}
}