{
  "id": 722938369,
  "type": "Feature",
  "properties": {
    "edtf:cessation":"uuuu",
    "edtf:inception":"uuuu",
    "geom:area":0.0,
    "geom:bbox":"-77.543809,38.283126,-77.543809,38.283126",
    "geom:latitude":38.283126,
    "geom:longitude":-77.543809,
    "iso:country":"US",
    "sg:address":"11820 Hoover Ln",
    "sg:city":"Fredericksburg",
    "sg:classifiers":[
        {
            "category":"Building & Trades",
            "subcategory":"Construction",
            "type":"Services"
        }
    ],
    "sg:owner":"simplegeo",
    "sg:phone":"+1 540 785 4577",
    "sg:postcode":"22407",
    "sg:province":"VA",
    "sg:tags":[
        "home",
        "builder"
    ],
    "src:geom":"simplegeo",
    "wof:belongsto":[],
    "wof:breaches":[],
    "wof:concordances":{
        "sg:id":"SG_3bXaNhXnf26TmbmYjVJrsQ_38.283126_-77.543809@1294252573"
    },
    "wof:country":"US",
    "wof:created":1461891598,
    "wof:geomhash":"74e83dcc81b22b7774e1697fb664d903",
    "wof:hierarchy":[],
    "wof:id":722938369,
    "wof:lastmodified":1461891598,
    "wof:name":"Snead Custom Homes",
    "wof:parent_id":-1,
    "wof:placetype":"venue",
    "wof:superseded_by":[],
    "wof:supersedes":[],
    "wof:tags":[
        "home",
        "builder"
    ]
},
  "bbox": [
    -77.543809,
    38.283126,
    -77.543809,
    38.283126
],
  "geometry": {"coordinates":[-77.543809,38.283126],"type":"Point"}
}