{
  "id": 723219671,
  "type": "Feature",
  "properties": {
    "edtf:cessation":"uuuu",
    "edtf:inception":"uuuu",
    "geom:area":0.0,
    "geom:bbox":"-77.268497,38.831126,-77.268497,38.831126",
    "geom:latitude":38.831126,
    "geom:longitude":-77.268497,
    "iso:country":"US",
    "sg:address":"9333 Tartan View Dr",
    "sg:city":"Fairfax",
    "sg:classifiers":[
        {
            "category":"Insurance",
            "subcategory":"Health Insurance",
            "type":"Services"
        }
    ],
    "sg:owner":"simplegeo",
    "sg:phone":"+1 703 978 3512",
    "sg:postcode":"22032",
    "sg:province":"VA",
    "sg:tags":[
        "carrier"
    ],
    "src:geom":"simplegeo",
    "wof:belongsto":[],
    "wof:breaches":[],
    "wof:concordances":{
        "sg:id":"SG_0S13KhPqj8srnxI9VxfdwN_38.831126_-77.268497@1294252573"
    },
    "wof:country":"US",
    "wof:created":1461897490,
    "wof:geomhash":"cce9bf28f78b72e01755d90aee71a7f4",
    "wof:hierarchy":[],
    "wof:id":723219671,
    "wof:lastmodified":1461897490,
    "wof:name":"Viet Voyager Aide",
    "wof:parent_id":-1,
    "wof:placetype":"venue",
    "wof:superseded_by":[],
    "wof:supersedes":[],
    "wof:tags":[
        "carrier"
    ]
},
  "bbox": [
    -77.268497,
    38.831126,
    -77.268497,
    38.831126
],
  "geometry": {"coordinates":[-77.268497,38.831126],"type":"Point"}
}