{
  "id": 739272327,
  "type": "Feature",
  "properties": {
    "edtf:cessation":"uuuu",
    "edtf:inception":"uuuu",
    "geom:area":0.0,
    "geom:bbox":"-80.059671,37.292417,-80.059671,37.292417",
    "geom:latitude":37.292417,
    "geom:longitude":-80.059671,
    "iso:country":"US",
    "sg:address":"10 W Main St",
    "sg:city":"Salem",
    "sg:classifiers":[
        {
            "category":"Autos & Motor Vehicles",
            "subcategory":"Automobile Sales",
            "type":"Retail Goods"
        }
    ],
    "sg:owner":"simplegeo",
    "sg:phone":"+1 540 389 3047",
    "sg:postcode":"24153",
    "sg:province":"VA",
    "sg:tags":[
        "car",
        "dealer"
    ],
    "src:geom":"simplegeo",
    "wof:belongsto":[],
    "wof:breaches":[],
    "wof:concordances":{
        "sg:id":"SG_4NiP0a1AORovWcCGYyVyaN_37.292417_-80.059671@1294252573"
    },
    "wof:country":"US",
    "wof:created":1461903971,
    "wof:geomhash":"5c25a0e430e8ef35d90333177fb34b83",
    "wof:hierarchy":[],
    "wof:id":739272327,
    "wof:lastmodified":1461903971,
    "wof:name":"West Salem Auto & Trailor Sls",
    "wof:parent_id":-1,
    "wof:placetype":"venue",
    "wof:superseded_by":[],
    "wof:supersedes":[],
    "wof:tags":[
        "car",
        "dealer"
    ]
},
  "bbox": [
    -80.059671,
    37.292417,
    -80.059671,
    37.292417
],
  "geometry": {"coordinates":[-80.05967099999999,37.292417],"type":"Point"}
}