{
  "id": 722929537,
  "type": "Feature",
  "properties": {
    "edtf:cessation":"uuuu",
    "edtf:inception":"uuuu",
    "geom:area":0.0,
    "geom:bbox":"-80.04194,37.287117,-80.04194,37.287117",
    "geom:latitude":37.287117,
    "geom:longitude":-80.04194,
    "iso:country":"US",
    "sg:address":"1004 Texas St",
    "sg:city":"Salem",
    "sg:classifiers":[
        {
            "category":"Government",
            "subcategory":"Office",
            "type":"Public Place"
        }
    ],
    "sg:owner":"simplegeo",
    "sg:phone":"+1 540 375 4009",
    "sg:postcode":"24153",
    "sg:province":"VA",
    "sg:tags":[
        "village"
    ],
    "src:geom":"simplegeo",
    "wof:belongsto":[],
    "wof:breaches":[],
    "wof:concordances":{
        "sg:id":"SG_0U1Px921R8z6TMG23HRMzs_37.287117_-80.041940@1294252573"
    },
    "wof:country":"US",
    "wof:created":1461891400,
    "wof:geomhash":"57d8b9027bd87db892a5a2af72242e76",
    "wof:hierarchy":[],
    "wof:id":722929537,
    "wof:lastmodified":1461891400,
    "wof:name":"Salem Football Stadium",
    "wof:parent_id":-1,
    "wof:placetype":"venue",
    "wof:superseded_by":[],
    "wof:supersedes":[],
    "wof:tags":[
        "village"
    ]
},
  "bbox": [
    -80.04194,
    37.287117,
    -80.04194,
    37.287117
],
  "geometry": {"coordinates":[-80.04194,37.287117],"type":"Point"}
}