{
  "id": 739300431,
  "type": "Feature",
  "properties": {
    "edtf:cessation":"uuuu",
    "edtf:inception":"uuuu",
    "geom:area":0.0,
    "geom:bbox":"-77.413796,37.398183,-77.413796,37.398183",
    "geom:latitude":37.398183,
    "geom:longitude":-77.413796,
    "iso:country":"US",
    "sg:address":"9733 Coach Rd",
    "sg:city":"Richmond",
    "sg:classifiers":[
        {
            "category":"Wholesale",
            "subcategory":"Machinery & Supplies",
            "type":"Manufacturing & Wholesale Goods"
        }
    ],
    "sg:owner":"simplegeo",
    "sg:phone":"+1 804 279 0203",
    "sg:postcode":"23237",
    "sg:province":"VA",
    "sg:tags":[
        "equipment",
        "industrial"
    ],
    "src:geom":"simplegeo",
    "wof:belongsto":[],
    "wof:breaches":[],
    "wof:concordances":{
        "sg:id":"SG_6sRpsHyh1WLQ8zWQ6sAdpB_37.398183_-77.413796@1294252573"
    },
    "wof:country":"US",
    "wof:created":1461904588,
    "wof:geomhash":"3128c971342badec5724916b1d924574",
    "wof:hierarchy":[],
    "wof:id":739300431,
    "wof:lastmodified":1461904588,
    "wof:name":"Tarantin Tank Equipment Co",
    "wof:parent_id":-1,
    "wof:placetype":"venue",
    "wof:superseded_by":[],
    "wof:supersedes":[],
    "wof:tags":[
        "equipment",
        "industrial"
    ]
},
  "bbox": [
    -77.413796,
    37.398183,
    -77.413796,
    37.398183
],
  "geometry": {"coordinates":[-77.413796,37.398183],"type":"Point"}
}