{
  "id": 739607477,
  "type": "Feature",
  "properties": {
    "edtf:cessation":"uuuu",
    "edtf:inception":"uuuu",
    "geom:area":0.0,
    "geom:bbox":"-77.507926,39.026116,-77.507926,39.026116",
    "geom:latitude":39.026116,
    "geom:longitude":-77.507926,
    "iso:country":"US",
    "sg:address":"43150 Broadlands Center Plz B",
    "sg:city":"Broadlands",
    "sg:classifiers":[
        {
            "category":"Restaurant",
            "subcategory":"",
            "type":"Food & Drink"
        }
    ],
    "sg:owner":"simplegeo",
    "sg:phone":"+1 703 223 0100",
    "sg:postcode":"20148",
    "sg:province":"VA",
    "sg:tags":[
        "house",
        "steak"
    ],
    "src:geom":"simplegeo",
    "wof:belongsto":[],
    "wof:breaches":[],
    "wof:concordances":{
        "sg:id":"SG_7KOyV4Hcsn0jHTUnfFaW2X_39.026116_-77.507926@1303262496"
    },
    "wof:country":"US",
    "wof:created":1461910552,
    "wof:geomhash":"1e349489c8857524020fbc11d2e5299f",
    "wof:hierarchy":[],
    "wof:id":739607477,
    "wof:lastmodified":1461910552,
    "wof:name":"Original Steakhouse & Sports Theatre",
    "wof:parent_id":-1,
    "wof:placetype":"venue",
    "wof:superseded_by":[],
    "wof:supersedes":[],
    "wof:tags":[
        "house",
        "steak"
    ]
},
  "bbox": [
    -77.507926,
    39.026116,
    -77.507926,
    39.026116
],
  "geometry": {"coordinates":[-77.507926,39.026116],"type":"Point"}
}