{
  "id": 722902885,
  "type": "Feature",
  "properties": {
    "edtf:cessation":"uuuu",
    "edtf:inception":"uuuu",
    "geom:area":0.0,
    "geom:bbox":"-77.644545,37.502572,-77.644545,37.502572",
    "geom:latitude":37.502572,
    "geom:longitude":-77.644545,
    "iso:country":"US",
    "sg:address":"13312 Midlothian Tpke",
    "sg:city":"Midlothian",
    "sg:classifiers":[
        {
            "category":"Restaurant",
            "subcategory":"",
            "type":"Food & Drink"
        }
    ],
    "sg:owner":"simplegeo",
    "sg:phone":"+1 804 794 3007",
    "sg:postcode":"23113",
    "sg:province":"VA",
    "src:geom":"simplegeo",
    "wof:belongsto":[],
    "wof:breaches":[],
    "wof:concordances":{
        "sg:id":"SG_6s7CdVgSnZRZbHmRMqjoWZ_37.502572_-77.644545@1294252573"
    },
    "wof:country":"US",
    "wof:created":1461890845,
    "wof:geomhash":"8ec5d05442aa741386308ec2c2b2dfcb",
    "wof:hierarchy":[],
    "wof:id":722902885,
    "wof:lastmodified":1461890845,
    "wof:name":"Caddy's",
    "wof:parent_id":-1,
    "wof:placetype":"venue",
    "wof:superseded_by":[],
    "wof:supersedes":[],
    "wof:tags":[]
},
  "bbox": [
    -77.644545,
    37.502572,
    -77.644545,
    37.502572
],
  "geometry": {"coordinates":[-77.64454499999999,37.502572],"type":"Point"}
}