{
  "id": 722744519,
  "type": "Feature",
  "properties": {
    "edtf:cessation":"uuuu",
    "edtf:inception":"uuuu",
    "geom:area":0.0,
    "geom:bbox":"-78.09746,38.245763,-78.09746,38.245763",
    "geom:latitude":38.245763,
    "geom:longitude":-78.09746,
    "iso:country":"US",
    "sg:address":"201 Selma Rd",
    "sg:city":"Orange",
    "sg:classifiers":[
        {
            "category":"Professional",
            "subcategory":"Computer Services",
            "type":"Services"
        }
    ],
    "sg:owner":"simplegeo",
    "sg:phone":"+1 540 672 7170",
    "sg:postcode":"22960",
    "sg:province":"VA",
    "sg:tags":[
        "equipment",
        "retail",
        "system"
    ],
    "sg:website":"www.ocss-va.org",
    "src:geom":"simplegeo",
    "wof:belongsto":[],
    "wof:breaches":[],
    "wof:concordances":{
        "sg:id":"SG_1rcGcsVO2OiRoz7QtWAcbT_38.245763_-78.097460@1294252573"
    },
    "wof:country":"US",
    "wof:created":1461887833,
    "wof:geomhash":"134a11edb4a49ce5dd4aeec8a28bf468",
    "wof:hierarchy":[],
    "wof:id":722744519,
    "wof:lastmodified":1461887833,
    "wof:name":"Orange County High School",
    "wof:parent_id":-1,
    "wof:placetype":"venue",
    "wof:superseded_by":[],
    "wof:supersedes":[],
    "wof:tags":[
        "equipment",
        "retail",
        "system"
    ]
},
  "bbox": [
    -78.09746,
    38.245763,
    -78.09746,
    38.245763
],
  "geometry": {"coordinates":[-78.09746,38.245763],"type":"Point"}
}