{
  "id": 723119573,
  "type": "Feature",
  "properties": {
    "edtf:cessation":"uuuu",
    "edtf:inception":"uuuu",
    "geom:area":0.0,
    "geom:bbox":"-77.378715,37.600095,-77.378715,37.600095",
    "geom:latitude":37.600095,
    "geom:longitude":-77.378715,
    "iso:country":"US",
    "sg:address":"8096 Elm Dr",
    "sg:city":"Mechanicsville",
    "sg:classifiers":[
        {
            "category":"Insurance",
            "subcategory":"Insurance Agent",
            "type":"Services"
        }
    ],
    "sg:owner":"simplegeo",
    "sg:phone":"+1 804 559 1200",
    "sg:postcode":"23111",
    "sg:province":"VA",
    "src:geom":"simplegeo",
    "wof:belongsto":[],
    "wof:breaches":[],
    "wof:concordances":{
        "sg:id":"SG_50O9e4kWgnzl4kOaU55CxS_37.600095_-77.378715@1294252573"
    },
    "wof:country":"US",
    "wof:created":1461895511,
    "wof:geomhash":"fad72a596282f7c3d7a3867269d79da2",
    "wof:hierarchy":[],
    "wof:id":723119573,
    "wof:lastmodified":1461895511,
    "wof:name":"John R Stech Jr Insurance",
    "wof:parent_id":-1,
    "wof:placetype":"venue",
    "wof:superseded_by":[],
    "wof:supersedes":[],
    "wof:tags":[]
},
  "bbox": [
    -77.378715,
    37.600095,
    -77.378715,
    37.600095
],
  "geometry": {"coordinates":[-77.378715,37.600095],"type":"Point"}
}