{
  "id": 723142227,
  "type": "Feature",
  "properties": {
    "edtf:cessation":"uuuu",
    "edtf:inception":"uuuu",
    "geom:area":0.0,
    "geom:bbox":"-77.35812,37.482116,-77.35812,37.482116",
    "geom:latitude":37.482116,
    "geom:longitude":-77.35812,
    "iso:country":"US",
    "sg:address":"6601 S Laburnum Ave",
    "sg:city":"Richmond",
    "sg:classifiers":[
        {
            "category":"Wholesale",
            "subcategory":"Machinery & Supplies",
            "type":"Manufacturing & Wholesale Goods"
        }
    ],
    "sg:owner":"simplegeo",
    "sg:phone":"+1 804 226 0400",
    "sg:postcode":"23231",
    "sg:province":"VA",
    "sg:tags":[
        "bookbinder",
        "equipment"
    ],
    "src:geom":"simplegeo",
    "wof:belongsto":[],
    "wof:breaches":[],
    "wof:concordances":{
        "sg:id":"SG_4yxI8c84bH8uZSX8aHkuN5_37.482116_-77.358120@1294252573"
    },
    "wof:country":"US",
    "wof:created":1461895941,
    "wof:geomhash":"7717f6e23d222c983a07b791e3dd5bc5",
    "wof:hierarchy":[],
    "wof:id":723142227,
    "wof:lastmodified":1461895941,
    "wof:name":"Southwest Plastic",
    "wof:parent_id":-1,
    "wof:placetype":"venue",
    "wof:superseded_by":[],
    "wof:supersedes":[],
    "wof:tags":[
        "bookbinder",
        "equipment"
    ]
},
  "bbox": [
    -77.35812,
    37.482116,
    -77.35812,
    37.482116
],
  "geometry": {"coordinates":[-77.35812,37.482116],"type":"Point"}
}