{
  "id": 722975799,
  "type": "Feature",
  "properties": {
    "edtf:cessation":"uuuu",
    "edtf:inception":"uuuu",
    "geom:area":0.0,
    "geom:bbox":"-77.46515,38.789886,-77.46515,38.789886",
    "geom:latitude":38.789886,
    "geom:longitude":-77.46515,
    "iso:country":"US",
    "sg:address":"7601 Bull Run Rd",
    "sg:city":"Manassas",
    "sg:classifiers":[
        {
            "category":"Building & Trades",
            "subcategory":"Construction",
            "type":"Services"
        }
    ],
    "sg:owner":"simplegeo",
    "sg:phone":"+1 703 368 0231",
    "sg:postcode":"20111",
    "sg:province":"VA",
    "sg:tags":[
        "excavation",
        "contractor"
    ],
    "src:geom":"simplegeo",
    "wof:belongsto":[],
    "wof:breaches":[],
    "wof:concordances":{
        "sg:id":"SG_77zi0QSij2xN7DbRcGgf9V_38.789886_-77.465150@1294252573"
    },
    "wof:country":"US",
    "wof:created":1461892376,
    "wof:geomhash":"fc5fe263748c8b2d82303bb905aa16da",
    "wof:hierarchy":[],
    "wof:id":722975799,
    "wof:lastmodified":1461892376,
    "wof:name":"Jack L Agee Renting and Hlg",
    "wof:parent_id":-1,
    "wof:placetype":"venue",
    "wof:superseded_by":[],
    "wof:supersedes":[],
    "wof:tags":[
        "excavation",
        "contractor"
    ]
},
  "bbox": [
    -77.46515,
    38.789886,
    -77.46515,
    38.789886
],
  "geometry": {"coordinates":[-77.46514999999999,38.789886],"type":"Point"}
}