{
  "id": 739715081,
  "type": "Feature",
  "properties": {
    "edtf:cessation":"uuuu",
    "edtf:inception":"uuuu",
    "geom:area":0.0,
    "geom:bbox":"-77.405323,37.578419,-77.405323,37.578419",
    "geom:latitude":37.578419,
    "geom:longitude":-77.405323,
    "iso:country":"US",
    "sg:address":"3810 Thimble Ln",
    "sg:city":"Richmond",
    "sg:classifiers":[
        {
            "category":"Arts & Performance",
            "subcategory":"Art Gallery",
            "type":"Entertainment"
        }
    ],
    "sg:owner":"simplegeo",
    "sg:phone":"+1 804 321 0022",
    "sg:postcode":"23222",
    "sg:province":"VA",
    "sg:tags":[
        "fine",
        "artist"
    ],
    "src:geom":"simplegeo",
    "wof:belongsto":[],
    "wof:breaches":[],
    "wof:concordances":{
        "sg:id":"SG_62ZLxSRlGCXKSxsQToaicy_37.578419_-77.405323@1303262549"
    },
    "wof:country":"US",
    "wof:created":1461912893,
    "wof:geomhash":"263836257123659ea8ab39dee552848e",
    "wof:hierarchy":[],
    "wof:id":739715081,
    "wof:lastmodified":1461912893,
    "wof:name":"Coloratura",
    "wof:parent_id":-1,
    "wof:placetype":"venue",
    "wof:superseded_by":[],
    "wof:supersedes":[],
    "wof:tags":[
        "fine",
        "artist"
    ]
},
  "bbox": [
    -77.405323,
    37.578419,
    -77.405323,
    37.578419
],
  "geometry": {"coordinates":[-77.405323,37.578419],"type":"Point"}
}