{
  "id": 723127213,
  "type": "Feature",
  "properties": {
    "edtf:cessation":"uuuu",
    "edtf:inception":"uuuu",
    "geom:area":0.0,
    "geom:bbox":"-76.580219,36.937553,-76.580219,36.937553",
    "geom:latitude":36.937553,
    "geom:longitude":-76.580219,
    "iso:country":"US",
    "sg:address":"20370 Brewers Neck Blvd",
    "sg:city":"Carrollton",
    "sg:classifiers":[
        {
            "category":"Professional",
            "subcategory":"Business Services",
            "type":"Services"
        }
    ],
    "sg:owner":"simplegeo",
    "sg:phone":"+1 757 238 9084",
    "sg:postcode":"23314",
    "sg:province":"VA",
    "sg:tags":[
        "interior",
        "consultant",
        "design",
        "decorator"
    ],
    "src:geom":"simplegeo",
    "wof:belongsto":[],
    "wof:breaches":[],
    "wof:concordances":{
        "sg:id":"SG_0ipGiQkQO6ALXMTGibGa9Q_36.937553_-76.580219@1294252573"
    },
    "wof:country":"US",
    "wof:created":1461895648,
    "wof:geomhash":"6664202086769b59c7ec87dccac6d831",
    "wof:hierarchy":[],
    "wof:id":723127213,
    "wof:lastmodified":1461895648,
    "wof:name":"Jackie Marie Decorating & Pnt",
    "wof:parent_id":-1,
    "wof:placetype":"venue",
    "wof:superseded_by":[],
    "wof:supersedes":[],
    "wof:tags":[
        "interior",
        "consultant",
        "design",
        "decorator"
    ]
},
  "bbox": [
    -76.580219,
    36.937553,
    -76.580219,
    36.937553
],
  "geometry": {"coordinates":[-76.580219,36.937553],"type":"Point"}
}