{
  "id": 723334935,
  "type": "Feature",
  "properties": {
    "edtf:cessation":"uuuu",
    "edtf:inception":"uuuu",
    "geom:area":0.0,
    "geom:bbox":"-78.389453,37.301507,-78.389453,37.301507",
    "geom:latitude":37.301507,
    "geom:longitude":-78.389453,
    "iso:country":"US",
    "sg:address":"310 E 3rd St",
    "sg:city":"Farmville",
    "sg:classifiers":[
        {
            "category":"Retail",
            "subcategory":"Laundry & Dry Cleaning",
            "type":"Services"
        }
    ],
    "sg:owner":"simplegeo",
    "sg:phone":"+1 434 392 4025",
    "sg:postcode":"23901",
    "sg:province":"VA",
    "sg:tags":[
        "drycleaning",
        "plant"
    ],
    "src:geom":"simplegeo",
    "wof:belongsto":[],
    "wof:breaches":[],
    "wof:concordances":{
        "sg:id":"SG_1NloSsBz8fjglMq0EhwoYp_37.301507_-78.389453@1294252573"
    },
    "wof:country":"US",
    "wof:created":1461899714,
    "wof:geomhash":"70442cb99ee414cc3b5cd0e9296326d5",
    "wof:hierarchy":[],
    "wof:id":723334935,
    "wof:lastmodified":1461899714,
    "wof:name":"Deluxe Cleaners",
    "wof:parent_id":-1,
    "wof:placetype":"venue",
    "wof:superseded_by":[],
    "wof:supersedes":[],
    "wof:tags":[
        "drycleaning",
        "plant"
    ]
},
  "bbox": [
    -78.389453,
    37.301507,
    -78.389453,
    37.301507
],
  "geometry": {"coordinates":[-78.389453,37.301507],"type":"Point"}
}