{
  "id": 739695003,
  "type": "Feature",
  "properties": {
    "edtf:cessation":"uuuu",
    "edtf:inception":"uuuu",
    "geom:area":0.0,
    "geom:bbox":"-77.34057,38.476861,-77.34057,38.476861",
    "geom:latitude":38.476861,
    "geom:longitude":-77.34057,
    "iso:country":"US",
    "sg:address":"60 Clifton Chapel Ln",
    "sg:city":"Stafford",
    "sg:classifiers":[
        {
            "category":"Place Of Worship",
            "subcategory":"Church",
            "type":"Public Place"
        },
        {
            "category":"Place Of Worship",
            "subcategory":"",
            "type":"Public Place"
        }
    ],
    "sg:owner":"simplegeo",
    "sg:phone":"+1 703 221 8404",
    "sg:postcode":"22554",
    "sg:province":"VA",
    "sg:tags":[
        "churches-episcopal-anglican",
        "churches-episcopal"
    ],
    "src:geom":"simplegeo",
    "wof:belongsto":[],
    "wof:breaches":[],
    "wof:concordances":{
        "sg:id":"SG_2rwjnshmJiyo60ntAlSUH7_38.476861_-77.340570@1303262547"
    },
    "wof:country":"US",
    "wof:created":1461912439,
    "wof:geomhash":"9f0ed334925307cc9699e73a4982a781",
    "wof:hierarchy":[],
    "wof:id":739695003,
    "wof:lastmodified":1461912439,
    "wof:name":"Clifton Chapel",
    "wof:parent_id":420547123,
    "wof:placetype":"venue",
    "wof:superseded_by":[],
    "wof:supersedes":[],
    "wof:tags":[
        "churches-episcopal-anglican",
        "churches-episcopal"
    ]
},
  "bbox": [
    -77.34057,
    38.476861,
    -77.34057,
    38.476861
],
  "geometry": {"coordinates":[-77.34057,38.476861],"type":"Point"}
}