{
  "id": 723503977,
  "type": "Feature",
  "properties": {
    "edtf:cessation":"uuuu",
    "edtf:inception":"uuuu",
    "geom:area":0.0,
    "geom:bbox":"-77.61189,39.187183,-77.61189,39.187183",
    "geom:latitude":39.187183,
    "geom:longitude":-77.61189,
    "iso:country":"US",
    "sg:address":"15481 2nd St",
    "sg:city":"Waterford",
    "sg:classifiers":[
        {
            "category":"Manufacturing",
            "subcategory":"Printing",
            "type":"Manufacturing & Wholesale Goods"
        }
    ],
    "sg:owner":"simplegeo",
    "sg:phone":"+1 540 882 3576",
    "sg:postcode":"20197",
    "sg:province":"VA",
    "sg:tags":[
        "publisher"
    ],
    "sg:website":"www.claytimes.com",
    "src:geom":"simplegeo",
    "wof:belongsto":[],
    "wof:breaches":[],
    "wof:concordances":{
        "sg:id":"SG_0TdactNDggCpsUL4YF2zjQ_39.187183_-77.611890@1294252573"
    },
    "wof:country":"US",
    "wof:created":1461903046,
    "wof:geomhash":"7dd5b42b59a0d649a972648efe989dee",
    "wof:hierarchy":[],
    "wof:id":723503977,
    "wof:lastmodified":1461903046,
    "wof:name":"Clay Times Inc",
    "wof:parent_id":-1,
    "wof:placetype":"venue",
    "wof:superseded_by":[],
    "wof:supersedes":[],
    "wof:tags":[
        "publisher"
    ]
},
  "bbox": [
    -77.61189,
    39.187183,
    -77.61189,
    39.187183
],
  "geometry": {"coordinates":[-77.61189,39.187183],"type":"Point"}
}