{
  "id": 723491925,
  "type": "Feature",
  "properties": {
    "edtf:cessation":"uuuu",
    "edtf:inception":"uuuu",
    "geom:area":0.0,
    "geom:bbox":"-77.564288,37.642031,-77.564288,37.642031",
    "geom:latitude":37.642031,
    "geom:longitude":-77.564288,
    "iso:country":"US",
    "sg:address":"9623 W Broad St",
    "sg:city":"Glen Allen",
    "sg:classifiers":[
        {
            "category":"Retail",
            "subcategory":"Laundry & Dry Cleaning",
            "type":"Services"
        }
    ],
    "sg:owner":"simplegeo",
    "sg:phone":"+1 804 273 0591",
    "sg:postcode":"23060",
    "sg:province":"VA",
    "sg:tags":[
        "cleaners"
    ],
    "src:geom":"simplegeo",
    "wof:belongsto":[],
    "wof:breaches":[],
    "wof:concordances":{
        "sg:id":"SG_0KJ9mL5LaU93QIXWsobM1n_37.642031_-77.564288@1294252573"
    },
    "wof:country":"US",
    "wof:created":1461902779,
    "wof:geomhash":"f742fb09858204248799d54f7c18c18d",
    "wof:hierarchy":[],
    "wof:id":723491925,
    "wof:lastmodified":1461902779,
    "wof:name":"Ireland Cleaners",
    "wof:parent_id":-1,
    "wof:placetype":"venue",
    "wof:superseded_by":[],
    "wof:supersedes":[],
    "wof:tags":[
        "cleaners"
    ]
},
  "bbox": [
    -77.564288,
    37.642031,
    -77.564288,
    37.642031
],
  "geometry": {"coordinates":[-77.564288,37.642031],"type":"Point"}
}