{
  "id": 723393057,
  "type": "Feature",
  "properties": {
    "edtf:cessation":"uuuu",
    "edtf:inception":"uuuu",
    "geom:area":0.0,
    "geom:bbox":"-79.524292,36.656881,-79.524292,36.656881",
    "geom:latitude":36.656881,
    "geom:longitude":-79.524292,
    "iso:country":"US",
    "sg:address":"428 Winterberry Rd",
    "sg:city":"Danville",
    "sg:classifiers":[
        {
            "category":"Retail",
            "subcategory":"Auto Repair",
            "type":"Services"
        }
    ],
    "sg:owner":"simplegeo",
    "sg:phone":"+1 434 724 1226",
    "sg:postcode":"24549",
    "sg:province":"VA",
    "sg:tags":[
        "repairing",
        "automobile"
    ],
    "src:geom":"simplegeo",
    "wof:belongsto":[],
    "wof:breaches":[],
    "wof:concordances":{
        "sg:id":"SG_4CYTR1LMcIpQpNiXg4Zj46_36.656881_-79.524292@1294252573"
    },
    "wof:country":"US",
    "wof:created":1461900838,
    "wof:geomhash":"6870414368cc05716bc78b9511136382",
    "wof:hierarchy":[],
    "wof:id":723393057,
    "wof:lastmodified":1461900838,
    "wof:name":"Chevyland Automotive",
    "wof:parent_id":420547051,
    "wof:placetype":"venue",
    "wof:superseded_by":[],
    "wof:supersedes":[],
    "wof:tags":[
        "repairing",
        "automobile"
    ]
},
  "bbox": [
    -79.524292,
    36.656881,
    -79.524292,
    36.656881
],
  "geometry": {"coordinates":[-79.524292,36.656881],"type":"Point"}
}