{
  "id": 722669431,
  "type": "Feature",
  "properties": {
    "edtf:cessation":"uuuu",
    "edtf:inception":"uuuu",
    "geom:area":0.0,
    "geom:bbox":"-77.519735,37.478022,-77.519735,37.478022",
    "geom:latitude":37.478022,
    "geom:longitude":-77.519735,
    "iso:country":"US",
    "sg:address":"2022 Tacony Dr",
    "sg:city":"Richmond",
    "sg:classifiers":[
        {
            "category":"Retail",
            "subcategory":"Auto Repair",
            "type":"Services"
        }
    ],
    "sg:owner":"simplegeo",
    "sg:phone":"+1 804 276 4222",
    "sg:postcode":"23225",
    "sg:province":"VA",
    "sg:tags":[
        "body",
        "automobile",
        "top",
        "upholstery"
    ],
    "src:geom":"simplegeo",
    "wof:belongsto":[],
    "wof:breaches":[],
    "wof:concordances":{
        "sg:id":"SG_5PepsAjCkKanFQWbLqDwqt_37.478022_-77.519735@1294252573"
    },
    "wof:country":"US",
    "wof:created":1461886386,
    "wof:geomhash":"6abf3c2522173c9f8866221277b337c5",
    "wof:hierarchy":[],
    "wof:id":722669431,
    "wof:lastmodified":1461886386,
    "wof:name":"Hull Street Auto Upholstery",
    "wof:parent_id":-1,
    "wof:placetype":"venue",
    "wof:superseded_by":[],
    "wof:supersedes":[],
    "wof:tags":[
        "body",
        "automobile",
        "top",
        "upholstery"
    ]
},
  "bbox": [
    -77.519735,
    37.478022,
    -77.519735,
    37.478022
],
  "geometry": {"coordinates":[-77.519735,37.478022],"type":"Point"}
}