{
  "id": 739726715,
  "type": "Feature",
  "properties": {
    "edtf:cessation":"uuuu",
    "edtf:inception":"uuuu",
    "geom:area":0.0,
    "geom:bbox":"-76.532236,36.950038,-76.532236,36.950038",
    "geom:latitude":36.950038,
    "geom:longitude":-76.532236,
    "iso:country":"US",
    "sg:address":"13609 Carrollton Blvd",
    "sg:city":"Carrollton",
    "sg:classifiers":[
        {
            "category":"Sports & Exercise",
            "subcategory":"Gym",
            "type":"Entertainment"
        }
    ],
    "sg:owner":"simplegeo",
    "sg:phone":"+1 757 745 7060",
    "sg:postcode":"23314",
    "sg:province":"VA",
    "src:geom":"simplegeo",
    "wof:belongsto":[],
    "wof:breaches":[],
    "wof:concordances":{
        "sg:id":"SG_2MhnzhjyzQD6kMbDh0Xq04_36.950038_-76.532236@1303262551"
    },
    "wof:country":"US",
    "wof:created":1461913124,
    "wof:geomhash":"de9124945dc3ab40cd07b128c4e77adc",
    "wof:hierarchy":[],
    "wof:id":739726715,
    "wof:lastmodified":1461913124,
    "wof:name":"Anytime Fitness",
    "wof:parent_id":-1,
    "wof:placetype":"venue",
    "wof:superseded_by":[],
    "wof:supersedes":[],
    "wof:tags":[]
},
  "bbox": [
    -76.532236,
    36.950038,
    -76.532236,
    36.950038
],
  "geometry": {"coordinates":[-76.532236,36.950038],"type":"Point"}
}