{
  "id": 723331669,
  "type": "Feature",
  "properties": {
    "edtf:cessation":"uuuu",
    "edtf:inception":"uuuu",
    "geom:area":0.0,
    "geom:bbox":"-77.637427,37.533049,-77.637427,37.533049",
    "geom:latitude":37.533049,
    "geom:longitude":-77.637427,
    "iso:country":"US",
    "sg:address":"2721 Chartstone Dr",
    "sg:city":"Midlothian",
    "sg:classifiers":[
        {
            "category":"Professional",
            "subcategory":"Employment Agencies",
            "type":"Services"
        }
    ],
    "sg:owner":"simplegeo",
    "sg:phone":"+1 804 379 1946",
    "sg:postcode":"23113",
    "sg:province":"VA",
    "sg:tags":[
        "modeling"
    ],
    "src:geom":"simplegeo",
    "wof:belongsto":[],
    "wof:breaches":[],
    "wof:concordances":{
        "sg:id":"SG_2VN57dBPZ7uMJswReYyJkb_37.533049_-77.637427@1294252573"
    },
    "wof:country":"US",
    "wof:created":1461899658,
    "wof:geomhash":"56ab526874f50421b96fce353f667075",
    "wof:hierarchy":[],
    "wof:id":723331669,
    "wof:lastmodified":1461899658,
    "wof:name":"Marilyn's-Professional Model",
    "wof:parent_id":-1,
    "wof:placetype":"venue",
    "wof:superseded_by":[],
    "wof:supersedes":[],
    "wof:tags":[
        "modeling"
    ]
},
  "bbox": [
    -77.637427,
    37.533049,
    -77.637427,
    37.533049
],
  "geometry": {"coordinates":[-77.637427,37.533049],"type":"Point"}
}