{
  "id": 722911841,
  "type": "Feature",
  "properties": {
    "edtf:cessation":"uuuu",
    "edtf:inception":"uuuu",
    "geom:area":0.0,
    "geom:bbox":"-78.104229,39.183705,-78.104229,39.183705",
    "geom:latitude":39.183705,
    "geom:longitude":-78.104229,
    "iso:country":"US",
    "sg:address":"200 Cavalry Dr",
    "sg:city":"Winchester",
    "sg:classifiers":[
        {
            "category":"Professional",
            "subcategory":"",
            "type":"Services"
        }
    ],
    "sg:owner":"simplegeo",
    "sg:phone":"+1 540 667 5105",
    "sg:postcode":"22602",
    "sg:province":"VA",
    "src:geom":"simplegeo",
    "wof:belongsto":[],
    "wof:breaches":[],
    "wof:concordances":{
        "sg:id":"SG_5p6S8sNhTCLMYfR1QsfN0q_39.183705_-78.104229@1294252573"
    },
    "wof:country":"US",
    "wof:created":1461891023,
    "wof:geomhash":"4a0093fb5c18682961a922459dc0a419",
    "wof:hierarchy":[],
    "wof:id":722911841,
    "wof:lastmodified":1461891023,
    "wof:name":"Dennis S Corrigan",
    "wof:parent_id":-1,
    "wof:placetype":"venue",
    "wof:superseded_by":[],
    "wof:supersedes":[],
    "wof:tags":[]
},
  "bbox": [
    -78.104229,
    39.183705,
    -78.104229,
    39.183705
],
  "geometry": {"coordinates":[-78.104229,39.183705],"type":"Point"}
}