{
  "id": 722988199,
  "type": "Feature",
  "properties": {
    "edtf:cessation":"uuuu",
    "edtf:inception":"uuuu",
    "geom:area":0.0,
    "geom:bbox":"-77.602158,37.46857,-77.602158,37.46857",
    "geom:latitude":37.46857,
    "geom:longitude":-77.602158,
    "iso:country":"US",
    "sg:address":"11221 Pennway Dr",
    "sg:city":"Richmond",
    "sg:classifiers":[
        {
            "category":"Professional",
            "subcategory":"",
            "type":"Services"
        }
    ],
    "sg:owner":"simplegeo",
    "sg:phone":"+1 804 378 7641",
    "sg:postcode":"23236",
    "sg:province":"VA",
    "src:geom":"simplegeo",
    "wof:belongsto":[],
    "wof:breaches":[],
    "wof:concordances":{
        "sg:id":"SG_3tWzL7MPCwQrZZ9agRNjui_37.468570_-77.602158@1294252573"
    },
    "wof:country":"US",
    "wof:created":1461892659,
    "wof:geomhash":"0bab8c66eaf97f2ffa6683673b4a6623",
    "wof:hierarchy":[],
    "wof:id":722988199,
    "wof:lastmodified":1461892659,
    "wof:name":"Robert Welch Svc",
    "wof:parent_id":-1,
    "wof:placetype":"venue",
    "wof:superseded_by":[],
    "wof:supersedes":[],
    "wof:tags":[]
},
  "bbox": [
    -77.602158,
    37.46857,
    -77.602158,
    37.46857
],
  "geometry": {"coordinates":[-77.602158,37.46857],"type":"Point"}
}