{
  "id": 739391865,
  "type": "Feature",
  "properties": {
    "edtf:cessation":"uuuu",
    "edtf:inception":"uuuu",
    "geom:area":0.0,
    "geom:bbox":"-77.279792,37.255237,-77.279792,37.255237",
    "geom:latitude":37.255237,
    "geom:longitude":-77.279792,
    "iso:country":"US",
    "sg:address":"4006 Prince George Dr",
    "sg:city":"Prince George",
    "sg:classifiers":[
        {
            "category":"Restaurant",
            "subcategory":"",
            "type":"Food & Drink"
        }
    ],
    "sg:owner":"simplegeo",
    "sg:phone":"+1 804 458 6200",
    "sg:postcode":"23875",
    "sg:province":"VA",
    "sg:tags":[
        "eating"
    ],
    "src:geom":"simplegeo",
    "wof:belongsto":[],
    "wof:breaches":[],
    "wof:concordances":{
        "sg:id":"SG_7hHVfLRCFocmGLnFWYKoGG_37.255237_-77.279792@1294252573"
    },
    "wof:country":"US",
    "wof:created":1461906427,
    "wof:geomhash":"30beb0a37dfd9917135a19649bdbcae4",
    "wof:hierarchy":[],
    "wof:id":739391865,
    "wof:lastmodified":1461906427,
    "wof:name":"Amore Pizzeria",
    "wof:parent_id":-1,
    "wof:placetype":"venue",
    "wof:superseded_by":[],
    "wof:supersedes":[],
    "wof:tags":[
        "eating"
    ]
},
  "bbox": [
    -77.279792,
    37.255237,
    -77.279792,
    37.255237
],
  "geometry": {"coordinates":[-77.279792,37.255237],"type":"Point"}
}