{
  "id": 723376579,
  "type": "Feature",
  "properties": {
    "edtf:cessation":"uuuu",
    "edtf:inception":"uuuu",
    "geom:area":0.0,
    "geom:bbox":"-77.439568,38.893072,-77.439568,38.893072",
    "geom:latitude":38.893072,
    "geom:longitude":-77.439568,
    "iso:country":"US",
    "sg:address":"14310 Sullyfield Cir",
    "sg:city":"Chantilly",
    "sg:classifiers":[
        {
            "category":"Manufacturing",
            "subcategory":"Printing",
            "type":"Manufacturing & Wholesale Goods"
        }
    ],
    "sg:owner":"simplegeo",
    "sg:phone":"+1 703 968 9682",
    "sg:postcode":"20151",
    "sg:province":"VA",
    "sg:tags":[
        "printer"
    ],
    "src:geom":"simplegeo",
    "wof:belongsto":[],
    "wof:breaches":[],
    "wof:concordances":{
        "sg:id":"SG_6EneC78cLxVne3qNJAxVrG_38.893072_-77.439568@1294252573"
    },
    "wof:country":"US",
    "wof:created":1461900508,
    "wof:geomhash":"e5b7141ccc2b3b68bbb3eb84252430ba",
    "wof:hierarchy":[],
    "wof:id":723376579,
    "wof:lastmodified":1461900508,
    "wof:name":"Signature Printing",
    "wof:parent_id":-1,
    "wof:placetype":"venue",
    "wof:superseded_by":[],
    "wof:supersedes":[],
    "wof:tags":[
        "printer"
    ]
},
  "bbox": [
    -77.439568,
    38.893072,
    -77.439568,
    38.893072
],
  "geometry": {"coordinates":[-77.43956799999999,38.893072],"type":"Point"}
}