{
  "id": 722750743,
  "type": "Feature",
  "properties": {
    "edtf:cessation":"uuuu",
    "edtf:inception":"uuuu",
    "geom:area":0.0,
    "geom:bbox":"-77.416004,37.70159,-77.416004,37.70159",
    "geom:latitude":37.70159,
    "geom:longitude":-77.416004,
    "iso:country":"US",
    "sg:address":"9187 Breeders Cup Pl",
    "sg:city":"Mechanicsville",
    "sg:classifiers":[
        {
            "category":"Restaurant",
            "subcategory":"",
            "type":"Food & Drink"
        }
    ],
    "sg:owner":"simplegeo",
    "sg:phone":"+1 804 550 2737",
    "sg:postcode":"23116",
    "sg:province":"VA",
    "sg:tags":[
        "eating"
    ],
    "src:geom":"simplegeo",
    "wof:belongsto":[],
    "wof:breaches":[],
    "wof:concordances":{
        "sg:id":"SG_0nSrhAFvPZPeZQN1iAwDZu_37.701590_-77.416004@1294252573"
    },
    "wof:country":"US",
    "wof:created":1461887950,
    "wof:geomhash":"e5a74be89269c91dcf66ef90b5a6fb4e",
    "wof:hierarchy":[],
    "wof:id":722750743,
    "wof:lastmodified":1461887950,
    "wof:name":"Mg Food Enterprises Inc",
    "wof:parent_id":-1,
    "wof:placetype":"venue",
    "wof:superseded_by":[],
    "wof:supersedes":[],
    "wof:tags":[
        "eating"
    ]
},
  "bbox": [
    -77.416004,
    37.70159,
    -77.416004,
    37.70159
],
  "geometry": {"coordinates":[-77.416004,37.70159],"type":"Point"}
}