{
  "id": 722613337,
  "type": "Feature",
  "properties": {
    "edtf:cessation":"uuuu",
    "edtf:inception":"uuuu",
    "geom:area":0.0,
    "geom:bbox":"-78.833429,38.425047,-78.833429,38.425047",
    "geom:latitude":38.425047,
    "geom:longitude":-78.833429,
    "iso:country":"US",
    "sg:address":"251 Fairway Dr",
    "sg:city":"Harrisonburg",
    "sg:classifiers":[
        {
            "category":"Restaurant",
            "subcategory":"",
            "type":"Food & Drink"
        }
    ],
    "sg:owner":"simplegeo",
    "sg:phone":"+1 540 442 8822",
    "sg:postcode":"22802",
    "sg:province":"VA",
    "sg:tags":[
        "eating"
    ],
    "src:geom":"simplegeo",
    "wof:belongsto":[],
    "wof:breaches":[],
    "wof:concordances":{
        "sg:id":"SG_3KbMb3UMveBarzx0VChxpY_38.425047_-78.833429@1294252573"
    },
    "wof:country":"US",
    "wof:created":1461885234,
    "wof:geomhash":"a7e8861ea014b1b77861291c50b728d6",
    "wof:hierarchy":[],
    "wof:id":722613337,
    "wof:lastmodified":1461885234,
    "wof:name":"Gwalthney Food Service",
    "wof:parent_id":-1,
    "wof:placetype":"venue",
    "wof:superseded_by":[],
    "wof:supersedes":[],
    "wof:tags":[
        "eating"
    ]
},
  "bbox": [
    -78.833429,
    38.425047,
    -78.833429,
    38.425047
],
  "geometry": {"coordinates":[-78.833429,38.425047],"type":"Point"}
}