{
  "id": 722630377,
  "type": "Feature",
  "properties": {
    "edtf:cessation":"uuuu",
    "edtf:inception":"uuuu",
    "geom:area":0.0,
    "geom:bbox":"-77.635667,38.974238,-77.635667,38.974238",
    "geom:latitude":38.974238,
    "geom:longitude":-77.635667,
    "iso:country":"US",
    "sg:address":"39472 John Mosby Hwy",
    "sg:city":"Aldie",
    "sg:classifiers":[
        {
            "category":"Shopping",
            "subcategory":"Florist",
            "type":"Retail Goods"
        }
    ],
    "sg:owner":"simplegeo",
    "sg:phone":"+1 703 542 7367",
    "sg:postcode":"20105",
    "sg:province":"VA",
    "src:geom":"simplegeo",
    "wof:belongsto":[],
    "wof:breaches":[],
    "wof:concordances":{
        "sg:id":"SG_4u7IzotC6zUro0dNzOXo6x_38.974238_-77.635667@1294252573"
    },
    "wof:country":"US",
    "wof:created":1461885630,
    "wof:geomhash":"3d12d9fb8aa1e6e59f9ce33a1ffa207a",
    "wof:hierarchy":[],
    "wof:id":722630377,
    "wof:lastmodified":1461885630,
    "wof:name":"Napa Valley Flowers",
    "wof:parent_id":-1,
    "wof:placetype":"venue",
    "wof:superseded_by":[],
    "wof:supersedes":[],
    "wof:tags":[]
},
  "bbox": [
    -77.635667,
    38.974238,
    -77.635667,
    38.974238
],
  "geometry": {"coordinates":[-77.635667,38.974238],"type":"Point"}
}