{
  "id": 739596341,
  "type": "Feature",
  "properties": {
    "edtf:cessation":"uuuu",
    "edtf:inception":"uuuu",
    "geom:area":0.0,
    "geom:bbox":"-77.420265,38.88962,-77.420265,38.88962",
    "geom:latitude":38.88962,
    "geom:longitude":-77.420265,
    "iso:country":"US",
    "sg:address":"13661 Lee Jackson Memorial Hwy",
    "sg:city":"Chantilly",
    "sg:classifiers":[
        {
            "category":"Restaurant",
            "subcategory":"",
            "type":"Food & Drink"
        }
    ],
    "sg:menulink":"http://www.allmenus.com/va/sully/116308-quiznos-sub/menu/",
    "sg:owner":"simplegeo",
    "sg:phone":"+1 703 817 1244",
    "sg:postcode":"20151",
    "sg:province":"VA",
    "sg:tags":[
        "wrap",
        "american",
        "sandwich"
    ],
    "src:geom":"simplegeo",
    "wof:belongsto":[],
    "wof:breaches":[],
    "wof:concordances":{
        "sg:id":"SG_5F9ahgeLXlcBbyJpUj7ofC_38.890055_-77.420969@1294252573"
    },
    "wof:country":"US",
    "wof:created":1461910321,
    "wof:geomhash":"4be34e842b99a48e8136f57a8081fccf",
    "wof:hierarchy":[],
    "wof:id":739596341,
    "wof:lastmodified":1461910321,
    "wof:name":"Quiznos Sub",
    "wof:parent_id":-1,
    "wof:placetype":"venue",
    "wof:superseded_by":[],
    "wof:supersedes":[],
    "wof:tags":[
        "wrap",
        "american",
        "sandwich"
    ]
},
  "bbox": [
    -77.420265,
    38.88962,
    -77.420265,
    38.88962
],
  "geometry": {"coordinates":[-77.420265,38.88962],"type":"Point"}
}