{
  "id": 723383443,
  "type": "Feature",
  "properties": {
    "edtf:cessation":"uuuu",
    "edtf:inception":"uuuu",
    "geom:area":0.0,
    "geom:bbox":"-78.147035,39.186001,-78.147035,39.186001",
    "geom:latitude":39.186001,
    "geom:longitude":-78.147035,
    "iso:country":"US",
    "sg:address":"827 Berryville Ave",
    "sg:city":"Winchester",
    "sg:classifiers":[
        {
            "category":"Restaurant",
            "subcategory":"",
            "type":"Food & Drink"
        }
    ],
    "sg:owner":"simplegeo",
    "sg:phone":"+1 540 869 2090",
    "sg:postcode":"22601",
    "sg:province":"VA",
    "sg:tags":[
        "eating"
    ],
    "src:geom":"simplegeo",
    "wof:belongsto":[],
    "wof:breaches":[],
    "wof:concordances":{
        "sg:id":"SG_7CH8ovENNSCbZ21TQ8q42X_39.186001_-78.147035@1294252573"
    },
    "wof:country":"US",
    "wof:created":1461900648,
    "wof:geomhash":"41e41ff957219c92269f1bdffe57c103",
    "wof:hierarchy":[],
    "wof:id":723383443,
    "wof:lastmodified":1461900648,
    "wof:name":"Panache Catering",
    "wof:parent_id":-1,
    "wof:placetype":"venue",
    "wof:superseded_by":[],
    "wof:supersedes":[],
    "wof:tags":[
        "eating"
    ]
},
  "bbox": [
    -78.147035,
    39.186001,
    -78.147035,
    39.186001
],
  "geometry": {"coordinates":[-78.147035,39.186001],"type":"Point"}
}