{
  "id": 722632555,
  "type": "Feature",
  "properties": {
    "edtf:cessation":"uuuu",
    "edtf:inception":"uuuu",
    "geom:area":0.0,
    "geom:bbox":"-77.443471,37.541065,-77.443471,37.541065",
    "geom:latitude":37.541065,
    "geom:longitude":-77.443471,
    "iso:country":"US",
    "sg:address":"103 E Cary St",
    "sg:city":"Richmond",
    "sg:classifiers":[
        {
            "category":"Restaurant",
            "subcategory":"",
            "type":"Food & Drink"
        }
    ],
    "sg:owner":"simplegeo",
    "sg:phone":"+1 804 644 2328",
    "sg:postcode":"23219",
    "sg:province":"VA",
    "sg:tags":[
        "personal",
        "eating"
    ],
    "sg:website":"www.thairoom.com",
    "src:geom":"simplegeo",
    "wof:belongsto":[
        85688747,
        102191575,
        85633793,
        101728675,
        102085959,
        85880309
    ],
    "wof:breaches":[],
    "wof:concordances":{
        "sg:id":"SG_3onjbclJxMYtFenZ5GLRIZ_37.541065_-77.443471@1294252573"
    },
    "wof:country":"US",
    "wof:created":1461885696,
    "wof:geomhash":"6f9311ae09d0e73605aedb1e5ebc4d5b",
    "wof:hierarchy":[
        {
            "continent_id":102191575,
            "country_id":85633793,
            "county_id":102085959,
            "locality_id":101728675,
            "neighbourhood_id":85880309,
            "region_id":85688747,
            "venue_id":722632555
        }
    ],
    "wof:id":722632555,
    "wof:lastmodified":1461885696,
    "wof:name":"Beauregard's Thai Room",
    "wof:parent_id":85880309,
    "wof:placetype":"venue",
    "wof:superseded_by":[],
    "wof:supersedes":[],
    "wof:tags":[
        "personal",
        "eating"
    ]
},
  "bbox": [
    -77.443471,
    37.541065,
    -77.443471,
    37.541065
],
  "geometry": {"coordinates":[-77.443471,37.541065],"type":"Point"}
}