{
  "id": 739351835,
  "type": "Feature",
  "properties": {
    "edtf:cessation":"uuuu",
    "edtf:inception":"uuuu",
    "geom:area":0.0,
    "geom:bbox":"-77.545488,37.795464,-77.545488,37.795464",
    "geom:latitude":37.795464,
    "geom:longitude":-77.545488,
    "iso:country":"US",
    "sg:address":"13065 W Patrick Henry Rd",
    "sg:city":"Ashland",
    "sg:classifiers":[
        {
            "category":"Building & Trades",
            "subcategory":"Plumbing",
            "type":"Services"
        }
    ],
    "sg:owner":"simplegeo",
    "sg:phone":"+1 804 798 4981",
    "sg:postcode":"23005",
    "sg:province":"VA",
    "sg:tags":[
        "contractor"
    ],
    "src:geom":"simplegeo",
    "wof:belongsto":[],
    "wof:breaches":[],
    "wof:concordances":{
        "sg:id":"SG_2EbX4eRFBPOrq7yI5mKHkq_37.795464_-77.545488@1294252573"
    },
    "wof:country":"US",
    "wof:created":1461905648,
    "wof:geomhash":"1cc4d8f2ed6d655a08df4f79c6445ccf",
    "wof:hierarchy":[],
    "wof:id":739351835,
    "wof:lastmodified":1461905648,
    "wof:name":"Hamm Heating & AC",
    "wof:parent_id":-1,
    "wof:placetype":"venue",
    "wof:superseded_by":[],
    "wof:supersedes":[],
    "wof:tags":[
        "contractor"
    ]
},
  "bbox": [
    -77.545488,
    37.795464,
    -77.545488,
    37.795464
],
  "geometry": {"coordinates":[-77.54548800000001,37.795464],"type":"Point"}
}