{
  "id": 723142609,
  "type": "Feature",
  "properties": {
    "edtf:cessation":"uuuu",
    "edtf:inception":"uuuu",
    "geom:area":0.0,
    "geom:bbox":"-79.811599,37.37224,-79.811599,37.37224",
    "geom:latitude":37.37224,
    "geom:longitude":-79.811599,
    "iso:country":"US",
    "sg:address":"4297 Blue Ridge Blvd",
    "sg:city":"Blue Ridge",
    "sg:classifiers":[
        {
            "category":"Manufacturing",
            "subcategory":"Signs",
            "type":"Manufacturing & Wholesale Goods"
        }
    ],
    "sg:owner":"simplegeo",
    "sg:phone":"+1 540 977 3626",
    "sg:postcode":"24064",
    "sg:province":"VA",
    "src:geom":"simplegeo",
    "wof:belongsto":[],
    "wof:breaches":[],
    "wof:concordances":{
        "sg:id":"SG_080ho77Srhy9kjb4xdTIot_37.372240_-79.811599@1294252573"
    },
    "wof:country":"US",
    "wof:created":1461895948,
    "wof:geomhash":"7b370c3468e65acec8c9b9d65b76d0b4",
    "wof:hierarchy":[],
    "wof:id":723142609,
    "wof:lastmodified":1461895948,
    "wof:name":"ABC Sign Co",
    "wof:parent_id":-1,
    "wof:placetype":"venue",
    "wof:superseded_by":[],
    "wof:supersedes":[],
    "wof:tags":[]
},
  "bbox": [
    -79.811599,
    37.37224,
    -79.811599,
    37.37224
],
  "geometry": {"coordinates":[-79.811599,37.37224],"type":"Point"}
}