{
  "id": 722632505,
  "type": "Feature",
  "properties": {
    "edtf:cessation":"uuuu",
    "edtf:inception":"uuuu",
    "geom:area":0.0,
    "geom:bbox":"-77.512576,37.617143,-77.512576,37.617143",
    "geom:latitude":37.617143,
    "geom:longitude":-77.512576,
    "iso:country":"US",
    "sg:address":"3211 Webb Rd",
    "sg:city":"Richmond",
    "sg:classifiers":[
        {
            "category":"Social Services",
            "subcategory":"",
            "type":"Services"
        }
    ],
    "sg:owner":"simplegeo",
    "sg:phone":"+1 804 672 6330",
    "sg:postcode":"23228",
    "sg:province":"VA",
    "src:geom":"simplegeo",
    "wof:belongsto":[],
    "wof:breaches":[],
    "wof:concordances":{
        "sg:id":"SG_3AnNoGYqesfzaBJSFHymxU_37.617143_-77.512576@1294252573"
    },
    "wof:country":"US",
    "wof:created":1461885695,
    "wof:geomhash":"78d8d3cca8f71eeb60742d2d559e3b69",
    "wof:hierarchy":[],
    "wof:id":722632505,
    "wof:lastmodified":1461885695,
    "wof:name":"Smarts Educational Program",
    "wof:parent_id":-1,
    "wof:placetype":"venue",
    "wof:superseded_by":[],
    "wof:supersedes":[],
    "wof:tags":[]
},
  "bbox": [
    -77.512576,
    37.617143,
    -77.512576,
    37.617143
],
  "geometry": {"coordinates":[-77.512576,37.617143],"type":"Point"}
}