{
  "id": 723014267,
  "type": "Feature",
  "properties": {
    "edtf:cessation":"uuuu",
    "edtf:inception":"uuuu",
    "geom:area":0.0,
    "geom:bbox":"-82.558719,36.968493,-82.558719,36.968493",
    "geom:latitude":36.968493,
    "geom:longitude":-82.558719,
    "iso:country":"US",
    "sg:address":"9434 Coeburn Mountain Rd",
    "sg:city":"Wise",
    "sg:classifiers":[
        {
            "category":"Health Services",
            "subcategory":"Nursing And Care Facility",
            "type":"Services"
        }
    ],
    "sg:owner":"simplegeo",
    "sg:phone":"+1 276 328 2721",
    "sg:postcode":"24293",
    "sg:province":"VA",
    "sg:tags":[
        "home",
        "convalescent"
    ],
    "src:geom":"simplegeo",
    "wof:belongsto":[],
    "wof:breaches":[],
    "wof:concordances":{
        "sg:id":"SG_06hHKUiI3vbH7R8ilEJv6o_36.968493_-82.558719@1294252573"
    },
    "wof:country":"US",
    "wof:created":1461893228,
    "wof:geomhash":"78b7aa0822473cd4f96a8adb77157cbf",
    "wof:hierarchy":[],
    "wof:id":723014267,
    "wof:lastmodified":1461893228,
    "wof:name":"Heritage Hall",
    "wof:parent_id":420547321,
    "wof:placetype":"venue",
    "wof:superseded_by":[],
    "wof:supersedes":[],
    "wof:tags":[
        "home",
        "convalescent"
    ]
},
  "bbox": [
    -82.558719,
    36.968493,
    -82.558719,
    36.968493
],
  "geometry": {"coordinates":[-82.558719,36.968493],"type":"Point"}
}