{
  "id": 739383071,
  "type": "Feature",
  "properties": {
    "edtf:cessation":"uuuu",
    "edtf:inception":"uuuu",
    "geom:area":0.0,
    "geom:bbox":"-78.671437,38.648303,-78.671437,38.648303",
    "geom:latitude":38.648303,
    "geom:longitude":-78.671437,
    "iso:country":"US",
    "sg:address":"9357 N Congress St",
    "sg:city":"New Market",
    "sg:classifiers":[
        {
            "category":"Building & Trades",
            "subcategory":"Construction",
            "type":"Services"
        }
    ],
    "sg:owner":"simplegeo",
    "sg:phone":"+1 540 740 4433",
    "sg:postcode":"22844",
    "sg:province":"VA",
    "sg:tags":[
        "residential"
    ],
    "src:geom":"simplegeo",
    "wof:belongsto":[],
    "wof:breaches":[],
    "wof:concordances":{
        "sg:id":"SG_577KcNEZVulZYqGqZTFfrE_38.648303_-78.671437@1294252573"
    },
    "wof:country":"US",
    "wof:created":1461906252,
    "wof:geomhash":"c0f9c876be55daaa3027737a622b5b36",
    "wof:hierarchy":[],
    "wof:id":739383071,
    "wof:lastmodified":1461906252,
    "wof:name":"Wilkins Construction",
    "wof:parent_id":-1,
    "wof:placetype":"venue",
    "wof:superseded_by":[],
    "wof:supersedes":[],
    "wof:tags":[
        "residential"
    ]
},
  "bbox": [
    -78.671437,
    38.648303,
    -78.671437,
    38.648303
],
  "geometry": {"coordinates":[-78.671437,38.648303],"type":"Point"}
}