{
  "id": 723265521,
  "type": "Feature",
  "properties": {
    "edtf:cessation":"uuuu",
    "edtf:inception":"uuuu",
    "geom:area":0.0,
    "geom:bbox":"-77.471498,37.649542,-77.471498,37.649542",
    "geom:latitude":37.649542,
    "geom:longitude":-77.471498,
    "iso:country":"US",
    "sg:address":"1605 Hope Rd",
    "sg:city":"Glen Allen",
    "sg:classifiers":[
        {
            "category":"Real Estate",
            "subcategory":"Real Estate Operator",
            "type":"Services"
        }
    ],
    "sg:owner":"simplegeo",
    "sg:phone":"+1 804 264 5934",
    "sg:postcode":"23060",
    "sg:province":"VA",
    "sg:tags":[
        "building",
        "apartment"
    ],
    "src:geom":"simplegeo",
    "wof:belongsto":[],
    "wof:breaches":[],
    "wof:concordances":{
        "sg:id":"SG_1Id6KijBujRM1vZSOvXKg0_37.649542_-77.471498@1294252573"
    },
    "wof:country":"US",
    "wof:created":1461898414,
    "wof:geomhash":"8fa24ce41613830e8494b887d8c2a5b0",
    "wof:hierarchy":[],
    "wof:id":723265521,
    "wof:lastmodified":1461898414,
    "wof:name":"Randolph Court Apartments",
    "wof:parent_id":-1,
    "wof:placetype":"venue",
    "wof:superseded_by":[],
    "wof:supersedes":[],
    "wof:tags":[
        "building",
        "apartment"
    ]
},
  "bbox": [
    -77.471498,
    37.649542,
    -77.471498,
    37.649542
],
  "geometry": {"coordinates":[-77.471498,37.649542],"type":"Point"}
}