{
  "id": 739725793,
  "type": "Feature",
  "properties": {
    "edtf:cessation":"uuuu",
    "edtf:inception":"uuuu",
    "geom:area":0.0,
    "geom:bbox":"-77.674973,37.601692,-77.674973,37.601692",
    "geom:latitude":37.601692,
    "geom:longitude":-77.674973,
    "iso:country":"US",
    "sg:address":"304 Victoria Way",
    "sg:city":"Richmond",
    "sg:classifiers":[
        {
            "category":"Autos & Motor Vehicles",
            "subcategory":"Auto Supplies",
            "type":"Retail Goods"
        }
    ],
    "sg:owner":"simplegeo",
    "sg:phone":"+1 804 784 8898",
    "sg:postcode":"23238",
    "sg:province":"VA",
    "sg:tags":[
        "engraving",
        "equipment"
    ],
    "src:geom":"simplegeo",
    "wof:belongsto":[],
    "wof:breaches":[],
    "wof:concordances":{
        "sg:id":"SG_3EK1Ckw03efcZgkdJ0buOx_37.601692_-77.674973@1303262551"
    },
    "wof:country":"US",
    "wof:created":1461913109,
    "wof:geomhash":"0a759ba5c1306fafe5af8dbe0bf7e7ba",
    "wof:hierarchy":[],
    "wof:id":739725793,
    "wof:lastmodified":1461913109,
    "wof:name":"Gig Berkowitz",
    "wof:parent_id":-1,
    "wof:placetype":"venue",
    "wof:superseded_by":[],
    "wof:supersedes":[],
    "wof:tags":[
        "engraving",
        "equipment"
    ]
},
  "bbox": [
    -77.674973,
    37.601692,
    -77.674973,
    37.601692
],
  "geometry": {"coordinates":[-77.67497299999999,37.601692],"type":"Point"}
}