{
  "id": 739515299,
  "type": "Feature",
  "properties": {
    "edtf:cessation":"uuuu",
    "edtf:inception":"uuuu",
    "geom:area":0.0,
    "geom:bbox":"-79.889595,36.993057,-79.889595,36.993057",
    "geom:latitude":36.993057,
    "geom:longitude":-79.889595,
    "iso:country":"US",
    "sg:address":"355 S Main St",
    "sg:city":"Rocky Mount",
    "sg:classifiers":[
        {
            "category":"Organizations",
            "subcategory":"Membership Organization",
            "type":"Services"
        }
    ],
    "sg:owner":"simplegeo",
    "sg:phone":"+1 540 483 5621",
    "sg:postcode":"24151",
    "sg:province":"VA",
    "src:geom":"simplegeo",
    "wof:belongsto":[],
    "wof:breaches":[],
    "wof:concordances":{
        "sg:id":"SG_7EkawAjHQl0H5QvLFDJQaT_36.993057_-79.889595@1294252573"
    },
    "wof:country":"US",
    "wof:created":1461908709,
    "wof:geomhash":"1942349af2b5804d957c7b29460c479a",
    "wof:hierarchy":[],
    "wof:id":739515299,
    "wof:lastmodified":1461908709,
    "wof:name":"Red Cross",
    "wof:parent_id":-1,
    "wof:placetype":"venue",
    "wof:superseded_by":[],
    "wof:supersedes":[],
    "wof:tags":[]
},
  "bbox": [
    -79.889595,
    36.993057,
    -79.889595,
    36.993057
],
  "geometry": {"coordinates":[-79.889595,36.993057],"type":"Point"}
}