{
  "id": 739617153,
  "type": "Feature",
  "properties": {
    "edtf:cessation":"uuuu",
    "edtf:inception":"uuuu",
    "geom:area":0.0,
    "geom:bbox":"-77.583212,38.699815,-77.583212,38.699815",
    "geom:latitude":38.699815,
    "geom:longitude":-77.583212,
    "iso:country":"US",
    "sg:address":"13065 Fitzwater Dr",
    "sg:city":"Nokesville",
    "sg:classifiers":[
        {
            "category":"Building & Trades",
            "subcategory":"Locksmith",
            "type":"Services"
        }
    ],
    "sg:owner":"simplegeo",
    "sg:phone":"+1 703 291 9985",
    "sg:postcode":"20181",
    "sg:province":"VA",
    "sg:tags":[
        "key"
    ],
    "src:geom":"simplegeo",
    "wof:belongsto":[],
    "wof:breaches":[],
    "wof:concordances":{
        "sg:id":"SG_2iqfXRiJTQ9FVl3ALEIHcX_38.699815_-77.583212@1303262497"
    },
    "wof:country":"US",
    "wof:created":1461910761,
    "wof:geomhash":"0bb0b94767ac20b103fd8c7787aa8179",
    "wof:hierarchy":[],
    "wof:id":739617153,
    "wof:lastmodified":1461910761,
    "wof:name":"7 Day 24 Hour Emergency Locksmith",
    "wof:parent_id":-1,
    "wof:placetype":"venue",
    "wof:superseded_by":[],
    "wof:supersedes":[],
    "wof:tags":[
        "key"
    ]
},
  "bbox": [
    -77.583212,
    38.699815,
    -77.583212,
    38.699815
],
  "geometry": {"coordinates":[-77.583212,38.699815],"type":"Point"}
}