{
  "id": 723329139,
  "type": "Feature",
  "properties": {
    "edtf:cessation":"uuuu",
    "edtf:inception":"uuuu",
    "geom:area":0.0,
    "geom:bbox":"-76.600137,37.344776,-76.600137,37.344776",
    "geom:latitude":37.344776,
    "geom:longitude":-76.600137,
    "iso:country":"US",
    "sg:address":"4674 Groh Ln",
    "sg:city":"Gloucester",
    "sg:classifiers":[
        {
            "category":"Building & Trades",
            "subcategory":"Construction",
            "type":"Services"
        }
    ],
    "sg:owner":"simplegeo",
    "sg:phone":"+1 804 693 0998",
    "sg:postcode":"23061",
    "sg:province":"VA",
    "sg:tags":[
        "house"
    ],
    "src:geom":"simplegeo",
    "wof:belongsto":[],
    "wof:breaches":[],
    "wof:concordances":{
        "sg:id":"SG_6BjxWofqU1LErGeobZ6wCA_37.344776_-76.600137@1294252573"
    },
    "wof:country":"US",
    "wof:created":1461899611,
    "wof:geomhash":"1ba1ca94d74bdccf13b63c8e3ad675a7",
    "wof:hierarchy":[],
    "wof:id":723329139,
    "wof:lastmodified":1461899611,
    "wof:name":"Watch & See Construction",
    "wof:parent_id":-1,
    "wof:placetype":"venue",
    "wof:superseded_by":[],
    "wof:supersedes":[],
    "wof:tags":[
        "house"
    ]
},
  "bbox": [
    -76.600137,
    37.344776,
    -76.600137,
    37.344776
],
  "geometry": {"coordinates":[-76.600137,37.344776],"type":"Point"}
}