{
  "id": 739693739,
  "type": "Feature",
  "properties": {
    "edtf:cessation":"uuuu",
    "edtf:inception":"uuuu",
    "geom:area":0.0,
    "geom:bbox":"-77.501167,38.253399,-77.501167,38.253399",
    "geom:latitude":38.253399,
    "geom:longitude":-77.501167,
    "iso:country":"US",
    "sg:address":"10901 Courthouse Rd",
    "sg:city":"Fredericksburg",
    "sg:classifiers":[],
    "sg:owner":"simplegeo",
    "sg:phone":"+1 540 710 1322",
    "sg:postcode":"22408",
    "sg:province":"VA",
    "sg:website":"http://www.goodyeartires.com/",
    "src:geom":"simplegeo",
    "wof:belongsto":[],
    "wof:breaches":[],
    "wof:concordances":{
        "sg:id":"SG_7VstSuP1gly56aki0Qek5S_38.253399_-77.501167@1303262547"
    },
    "wof:country":"US",
    "wof:created":1461912413,
    "wof:geomhash":"fd4f42279c22fb1e19dc87e52c7df7d3",
    "wof:hierarchy":[],
    "wof:id":739693739,
    "wof:lastmodified":1461912413,
    "wof:name":"Courthouse Tire Service Center",
    "wof:parent_id":-1,
    "wof:placetype":"venue",
    "wof:superseded_by":[],
    "wof:supersedes":[],
    "wof:tags":[]
},
  "bbox": [
    -77.501167,
    38.253399,
    -77.501167,
    38.253399
],
  "geometry": {"coordinates":[-77.501167,38.253399],"type":"Point"}
}