{
  "id": 723162499,
  "type": "Feature",
  "properties": {
    "edtf:cessation":"uuuu",
    "edtf:inception":"uuuu",
    "geom:area":0.0,
    "geom:bbox":"-77.467374,37.602988,-77.467374,37.602988",
    "geom:latitude":37.602988,
    "geom:longitude":-77.467374,
    "iso:country":"US",
    "sg:address":"5400 Lakeside Ave",
    "sg:city":"Richmond",
    "sg:classifiers":[
        {
            "category":"Shopping",
            "subcategory":"Florist",
            "type":"Retail Goods"
        }
    ],
    "sg:owner":"simplegeo",
    "sg:phone":"+1 804 262 8455",
    "sg:postcode":"23228",
    "sg:province":"VA",
    "src:geom":"simplegeo",
    "wof:belongsto":[],
    "wof:breaches":[],
    "wof:concordances":{
        "sg:id":"SG_3V5FbJNs2jRPyzStXESWwp_37.602988_-77.467374@1294252573"
    },
    "wof:country":"US",
    "wof:created":1461896331,
    "wof:geomhash":"277cef0b890287a1870d78f3874ec6ec",
    "wof:hierarchy":[],
    "wof:id":723162499,
    "wof:lastmodified":1461896331,
    "wof:name":"Silk Dept",
    "wof:parent_id":-1,
    "wof:placetype":"venue",
    "wof:superseded_by":[],
    "wof:supersedes":[],
    "wof:tags":[]
},
  "bbox": [
    -77.467374,
    37.602988,
    -77.467374,
    37.602988
],
  "geometry": {"coordinates":[-77.46737400000001,37.602988],"type":"Point"}
}