{
  "id": 723174969,
  "type": "Feature",
  "properties": {
    "edtf:cessation":"uuuu",
    "edtf:inception":"uuuu",
    "geom:area":0.0,
    "geom:bbox":"-77.226845,37.256809,-77.226845,37.256809",
    "geom:latitude":37.256809,
    "geom:longitude":-77.226845,
    "iso:country":"US",
    "sg:address":"10109 Merchants Hope Rd",
    "sg:city":"Hopewell",
    "sg:classifiers":[
        {
            "category":"Retail",
            "subcategory":"Auto Repair",
            "type":"Services"
        }
    ],
    "sg:owner":"simplegeo",
    "sg:phone":"+1 804 458 5888",
    "sg:postcode":"23860",
    "sg:province":"VA",
    "sg:tags":[
        "automotive",
        "general"
    ],
    "src:geom":"simplegeo",
    "wof:belongsto":[],
    "wof:breaches":[],
    "wof:concordances":{
        "sg:id":"SG_6vKjOkh9OytyCl668SsPR8_37.256809_-77.226845@1294252573"
    },
    "wof:country":"US",
    "wof:created":1461896577,
    "wof:geomhash":"9f1a559e9da0de69dc1fe2b08f19e765",
    "wof:hierarchy":[],
    "wof:id":723174969,
    "wof:lastmodified":1461896577,
    "wof:name":"Hollywood Machine Company",
    "wof:parent_id":-1,
    "wof:placetype":"venue",
    "wof:superseded_by":[],
    "wof:supersedes":[],
    "wof:tags":[
        "automotive",
        "general"
    ]
},
  "bbox": [
    -77.226845,
    37.256809,
    -77.226845,
    37.256809
],
  "geometry": {"coordinates":[-77.226845,37.256809],"type":"Point"}
}