{
  "id": 723404973,
  "type": "Feature",
  "properties": {
    "edtf:cessation":"uuuu",
    "edtf:inception":"uuuu",
    "geom:area":0.0,
    "geom:bbox":"-77.549131,37.531761,-77.549131,37.531761",
    "geom:latitude":37.531761,
    "geom:longitude":-77.549131,
    "iso:country":"US",
    "sg:address":"2520 Professional Rd",
    "sg:city":"Richmond",
    "sg:classifiers":[
        {
            "category":"Social Services",
            "subcategory":"",
            "type":"Services"
        }
    ],
    "sg:owner":"simplegeo",
    "sg:phone":"+1 804 320 6456",
    "sg:postcode":"23235",
    "sg:province":"VA",
    "sg:tags":[
        "mission"
    ],
    "src:geom":"simplegeo",
    "wof:belongsto":[],
    "wof:breaches":[],
    "wof:concordances":{
        "sg:id":"SG_1EIxhvj8sTGnJwQg1GJP1g_37.531761_-77.549131@1294252573"
    },
    "wof:country":"US",
    "wof:created":1461901070,
    "wof:geomhash":"b85f33649b9f5cb24c70ebcba31fed9a",
    "wof:hierarchy":[],
    "wof:id":723404973,
    "wof:lastmodified":1461901070,
    "wof:name":"Ministry To Eastern Europe",
    "wof:parent_id":-1,
    "wof:placetype":"venue",
    "wof:superseded_by":[],
    "wof:supersedes":[],
    "wof:tags":[
        "mission"
    ]
},
  "bbox": [
    -77.549131,
    37.531761,
    -77.549131,
    37.531761
],
  "geometry": {"coordinates":[-77.549131,37.531761],"type":"Point"}
}