{
  "id": 722978821,
  "type": "Feature",
  "properties": {
    "edtf:cessation":"uuuu",
    "edtf:inception":"uuuu",
    "geom:area":0.0,
    "geom:bbox":"-78.411224,37.30409,-78.411224,37.30409",
    "geom:latitude":37.30409,
    "geom:longitude":-78.411224,
    "iso:country":"US",
    "sg:address":"1414 W 3rd St",
    "sg:city":"Farmville",
    "sg:classifiers":[
        {
            "category":"Health Services",
            "subcategory":"Chiropractor",
            "type":"Services"
        }
    ],
    "sg:owner":"simplegeo",
    "sg:phone":"+1 434 392 9807",
    "sg:postcode":"23901",
    "sg:province":"VA",
    "src:geom":"simplegeo",
    "wof:belongsto":[],
    "wof:breaches":[],
    "wof:concordances":{
        "sg:id":"SG_5iRW7s652kUgRrAQoRZMpM_37.304090_-78.411224@1294252573"
    },
    "wof:country":"US",
    "wof:created":1461892432,
    "wof:geomhash":"3e1314a55f6fd11deda80fb10dd85754",
    "wof:hierarchy":[],
    "wof:id":722978821,
    "wof:lastmodified":1461892432,
    "wof:name":"Deregibus Ed Dr",
    "wof:parent_id":-1,
    "wof:placetype":"venue",
    "wof:superseded_by":[],
    "wof:supersedes":[],
    "wof:tags":[]
},
  "bbox": [
    -78.411224,
    37.30409,
    -78.411224,
    37.30409
],
  "geometry": {"coordinates":[-78.411224,37.30409],"type":"Point"}
}