{
  "id": 722903723,
  "type": "Feature",
  "properties": {
    "edtf:cessation":"uuuu",
    "edtf:inception":"uuuu",
    "geom:area":0.0,
    "geom:bbox":"-80.314551,36.912188,-80.314551,36.912188",
    "geom:latitude":36.912188,
    "geom:longitude":-80.314551,
    "iso:country":"US",
    "sg:address":"416 E Main St",
    "sg:city":"Floyd",
    "sg:classifiers":[
        {
            "category":"Retail",
            "subcategory":"Animal Services",
            "type":"Services"
        }
    ],
    "sg:owner":"simplegeo",
    "sg:phone":"+1 540 745 2288",
    "sg:postcode":"24091",
    "sg:province":"VA",
    "sg:tags":[
        "pet",
        "grooming",
        "washing"
    ],
    "src:geom":"simplegeo",
    "wof:belongsto":[],
    "wof:breaches":[],
    "wof:concordances":{
        "sg:id":"SG_6DjKEYrg5bGE2PA3LUaUrr_36.912188_-80.314551@1294252573"
    },
    "wof:country":"US",
    "wof:created":1461890861,
    "wof:geomhash":"cc0b689b982e69f379060d8ec8af4f35",
    "wof:hierarchy":[],
    "wof:id":722903723,
    "wof:lastmodified":1461890861,
    "wof:name":"Kathy's Grooming",
    "wof:parent_id":-1,
    "wof:placetype":"venue",
    "wof:superseded_by":[],
    "wof:supersedes":[],
    "wof:tags":[
        "pet",
        "grooming",
        "washing"
    ]
},
  "bbox": [
    -80.314551,
    36.912188,
    -80.314551,
    36.912188
],
  "geometry": {"coordinates":[-80.31455099999999,36.912188],"type":"Point"}
}