{
  "id": 723496033,
  "type": "Feature",
  "properties": {
    "edtf:cessation":"uuuu",
    "edtf:inception":"uuuu",
    "geom:area":0.0,
    "geom:bbox":"-77.592422,39.049635,-77.592422,39.049635",
    "geom:latitude":39.049635,
    "geom:longitude":-77.592422,
    "iso:country":"US",
    "sg:address":"40802 Oak Bucket Ln",
    "sg:city":"Leesburg",
    "sg:classifiers":[
        {
            "category":"Professional",
            "subcategory":"",
            "type":"Services"
        }
    ],
    "sg:owner":"simplegeo",
    "sg:phone":"+1 703 777 9373",
    "sg:postcode":"20175",
    "sg:province":"VA",
    "src:geom":"simplegeo",
    "wof:belongsto":[],
    "wof:breaches":[],
    "wof:concordances":{
        "sg:id":"SG_16gAgKOcOw9DhkClP7mUdX_39.049635_-77.592422@1294252573"
    },
    "wof:country":"US",
    "wof:created":1461902861,
    "wof:geomhash":"3cd7c3b65a26661d79486cdd868d8abc",
    "wof:hierarchy":[],
    "wof:id":723496033,
    "wof:lastmodified":1461902861,
    "wof:name":"Hogan & Sons Leesburg LLC",
    "wof:parent_id":-1,
    "wof:placetype":"venue",
    "wof:superseded_by":[],
    "wof:supersedes":[],
    "wof:tags":[]
},
  "bbox": [
    -77.592422,
    39.049635,
    -77.592422,
    39.049635
],
  "geometry": {"coordinates":[-77.592422,39.049635],"type":"Point"}
}