{
  "id": 739692753,
  "type": "Feature",
  "properties": {
    "edtf:cessation":"uuuu",
    "edtf:inception":"uuuu",
    "geom:area":0.0,
    "geom:bbox":"-77.512704,38.302243,-77.512704,38.302243",
    "geom:latitude":38.302243,
    "geom:longitude":-77.512704,
    "iso:country":"US",
    "sg:address":"1400 Central Park Blvd",
    "sg:city":"Fredericksburg",
    "sg:classifiers":[
        {
            "category":"Shopping",
            "subcategory":"Party Supplies",
            "type":"Retail Goods"
        },
        {
            "category":"Retail",
            "subcategory":"Event Space",
            "type":"Services"
        },
        {
            "category":"Personal",
            "subcategory":"",
            "type":"Services"
        }
    ],
    "sg:owner":"simplegeo",
    "sg:phone":"+1 540 785 0222",
    "sg:postcode":"22401",
    "sg:province":"VA",
    "sg:tags":[
        "children's",
        "planning",
        "meeting",
        "entertainment"
    ],
    "sg:website":"http://www.americanindoorkarting.com",
    "src:geom":"simplegeo",
    "wof:belongsto":[],
    "wof:breaches":[],
    "wof:concordances":{
        "sg:id":"SG_1JkXNY95PaKyF5Vu5byHH9_38.302243_-77.512704@1303262546"
    },
    "wof:country":"US",
    "wof:created":1461912395,
    "wof:geomhash":"40ec1c0566a26b87996a3b96f718aa3d",
    "wof:hierarchy":[],
    "wof:id":739692753,
    "wof:lastmodified":1461912395,
    "wof:name":"American Indoor Karting",
    "wof:parent_id":-1,
    "wof:placetype":"venue",
    "wof:superseded_by":[],
    "wof:supersedes":[],
    "wof:tags":[
        "children's",
        "planning",
        "meeting",
        "entertainment"
    ]
},
  "bbox": [
    -77.512704,
    38.302243,
    -77.512704,
    38.302243
],
  "geometry": {"coordinates":[-77.512704,38.302243],"type":"Point"}
}