{
  "id": 722605391,
  "type": "Feature",
  "properties": {
    "edtf:cessation":"uuuu",
    "edtf:inception":"uuuu",
    "geom:area":0.0,
    "geom:bbox":"-78.845001,36.717083,-78.845001,36.717083",
    "geom:latitude":36.717083,
    "geom:longitude":-78.845001,
    "iso:country":"US",
    "sg:address":"1224 Wolf Trap Rd",
    "sg:city":"South Boston",
    "sg:classifiers":[
        {
            "category":"Education",
            "subcategory":"School",
            "type":"Public Place"
        }
    ],
    "sg:owner":"simplegeo",
    "sg:phone":"+1 434 575 0910",
    "sg:postcode":"24592",
    "sg:province":"VA",
    "src:geom":"simplegeo",
    "wof:belongsto":[],
    "wof:breaches":[],
    "wof:concordances":{
        "sg:id":"SG_2KmW9GW0Wth712unuOvSnY_36.717083_-78.845001@1294252573"
    },
    "wof:country":"US",
    "wof:created":1461885085,
    "wof:geomhash":"1162219eecd022183b89fc01a0a76e83",
    "wof:hierarchy":[],
    "wof:id":722605391,
    "wof:lastmodified":1461885085,
    "wof:name":"Nathan Good",
    "wof:parent_id":-1,
    "wof:placetype":"venue",
    "wof:superseded_by":[],
    "wof:supersedes":[],
    "wof:tags":[]
},
  "bbox": [
    -78.845001,
    36.717083,
    -78.845001,
    36.717083
],
  "geometry": {"coordinates":[-78.845001,36.717083],"type":"Point"}
}