{
  "id": 739711847,
  "type": "Feature",
  "properties": {
    "edtf:cessation":"uuuu",
    "edtf:inception":"uuuu",
    "geom:area":0.0,
    "geom:bbox":"-76.686809,37.236104,-76.686809,37.236104",
    "geom:latitude":37.236104,
    "geom:longitude":-76.686809,
    "iso:country":"US",
    "sg:address":"112 Mathews Grant",
    "sg:city":"Williamsburg",
    "sg:classifiers":[
        {
            "category":"Professional",
            "subcategory":"",
            "type":"Services"
        }
    ],
    "sg:owner":"simplegeo",
    "sg:phone":"+1 757 817 4632",
    "sg:postcode":"23185",
    "sg:province":"VA",
    "sg:tags":[
        "processing",
        "data"
    ],
    "src:geom":"simplegeo",
    "wof:belongsto":[],
    "wof:breaches":[],
    "wof:concordances":{
        "sg:id":"SG_0wApteXw7mGiUwDXQ6TSPl_37.236104_-76.686809@1303262549"
    },
    "wof:country":"US",
    "wof:created":1461912816,
    "wof:geomhash":"aa621cc88421037ab7c731623afc04cb",
    "wof:hierarchy":[],
    "wof:id":739711847,
    "wof:lastmodified":1461912816,
    "wof:name":"Uibs",
    "wof:parent_id":420546893,
    "wof:placetype":"venue",
    "wof:superseded_by":[],
    "wof:supersedes":[],
    "wof:tags":[
        "processing",
        "data"
    ]
},
  "bbox": [
    -76.686809,
    37.236104,
    -76.686809,
    37.236104
],
  "geometry": {"coordinates":[-76.686809,37.236104],"type":"Point"}
}