{
  "id": 722996579,
  "type": "Feature",
  "properties": {
    "edtf:cessation":"uuuu",
    "edtf:inception":"uuuu",
    "geom:area":0.0,
    "geom:bbox":"-77.051812,38.837214,-77.051812,38.837214",
    "geom:latitude":38.837214,
    "geom:longitude":-77.051812,
    "iso:country":"US",
    "sg:address":"3631 Jefferson Davis Hwy",
    "sg:city":"Alexandria",
    "sg:classifiers":[
        {
            "category":"Shopping",
            "subcategory":"Gifts & Souvenirs",
            "type":"Retail Goods"
        }
    ],
    "sg:owner":"simplegeo",
    "sg:phone":"+1 703 518 8824",
    "sg:postcode":"22305",
    "sg:province":"VA",
    "src:geom":"simplegeo",
    "wof:belongsto":[],
    "wof:breaches":[],
    "wof:concordances":{
        "sg:id":"SG_2h4dhqEjfZv75wQUrJR4lw_38.837214_-77.051812@1294252573"
    },
    "wof:country":"US",
    "wof:created":1461892823,
    "wof:geomhash":"3240dd3f6e37192cb134b2bf2377d6e4",
    "wof:hierarchy":[],
    "wof:id":722996579,
    "wof:lastmodified":1461892823,
    "wof:name":"Hallmark Creations",
    "wof:parent_id":-1,
    "wof:placetype":"venue",
    "wof:superseded_by":[],
    "wof:supersedes":[],
    "wof:tags":[]
},
  "bbox": [
    -77.051812,
    38.837214,
    -77.051812,
    38.837214
],
  "geometry": {"coordinates":[-77.051812,38.837214],"type":"Point"}
}