{
  "id": 739711805,
  "type": "Feature",
  "properties": {
    "edtf:cessation":"uuuu",
    "edtf:inception":"uuuu",
    "geom:area":0.0,
    "geom:bbox":"-76.67657,37.267852,-76.67657,37.267852",
    "geom:latitude":37.267852,
    "geom:longitude":-76.67657,
    "iso:country":"US",
    "sg:address":"736 Merrimac Trl",
    "sg:city":"Williamsburg",
    "sg:classifiers":[],
    "sg:owner":"simplegeo",
    "sg:phone":"+1 757 229 1924",
    "sg:postcode":"23185",
    "sg:province":"VA",
    "sg:website":"http://www.ljsilvers.com",
    "src:geom":"simplegeo",
    "wof:belongsto":[],
    "wof:breaches":[],
    "wof:concordances":{
        "sg:id":"SG_6JdVFf0UxeVVvtm1mRI283_37.267852_-76.676570@1303262549"
    },
    "wof:country":"US",
    "wof:created":1461912815,
    "wof:geomhash":"eb7193f13f0d17a6da177901b7fb1dd0",
    "wof:hierarchy":[],
    "wof:id":739711805,
    "wof:lastmodified":1461912815,
    "wof:name":"Long John Silver's",
    "wof:parent_id":-1,
    "wof:placetype":"venue",
    "wof:superseded_by":[],
    "wof:supersedes":[],
    "wof:tags":[]
},
  "bbox": [
    -76.67657,
    37.267852,
    -76.67657,
    37.267852
],
  "geometry": {"coordinates":[-76.67657,37.267852],"type":"Point"}
}