{
  "id": 739502347,
  "type": "Feature",
  "properties": {
    "edtf:cessation":"uuuu",
    "edtf:inception":"uuuu",
    "geom:area":0.0,
    "geom:bbox":"-76.56286,37.60249,-76.56286,37.60249",
    "geom:latitude":37.60249,
    "geom:longitude":-76.56286,
    "iso:country":"US",
    "sg:address":"2838 General Puller Hwy",
    "sg:city":"Saluda",
    "sg:classifiers":[
        {
            "category":"Education",
            "subcategory":"School",
            "type":"Public Place"
        }
    ],
    "sg:owner":"simplegeo",
    "sg:phone":"+1 804 758 1119",
    "sg:postcode":"23149",
    "sg:province":"VA",
    "src:geom":"simplegeo",
    "wof:belongsto":[],
    "wof:breaches":[],
    "wof:concordances":{
        "sg:id":"SG_0Il9dxB6lqYkFvUm82u8dR_37.602490_-76.562860@1294252573"
    },
    "wof:country":"US",
    "wof:created":1461908472,
    "wof:geomhash":"eb47c9f3630e87738c04acc961dba741",
    "wof:hierarchy":[],
    "wof:id":739502347,
    "wof:lastmodified":1461908472,
    "wof:name":"St Josephs Villa",
    "wof:parent_id":-1,
    "wof:placetype":"venue",
    "wof:superseded_by":[],
    "wof:supersedes":[],
    "wof:tags":[]
},
  "bbox": [
    -76.56286,
    37.60249,
    -76.56286,
    37.60249
],
  "geometry": {"coordinates":[-76.56286,37.60249],"type":"Point"}
}