{
  "id": 723248633,
  "type": "Feature",
  "properties": {
    "edtf:cessation":"uuuu",
    "edtf:inception":"uuuu",
    "geom:area":0.0,
    "geom:bbox":"-78.86295,38.420205,-78.86295,38.420205",
    "geom:latitude":38.420205,
    "geom:longitude":-78.86295,
    "iso:country":"US",
    "sg:address":"1159 Westmoreland Dr",
    "sg:city":"Harrisonburg",
    "sg:classifiers":[
        {
            "category":"Retail",
            "subcategory":"Repair Shop",
            "type":"Services"
        }
    ],
    "sg:owner":"simplegeo",
    "sg:phone":"+1 540 438 8303",
    "sg:postcode":"22801",
    "sg:province":"VA",
    "src:geom":"simplegeo",
    "wof:belongsto":[],
    "wof:breaches":[],
    "wof:concordances":{
        "sg:id":"SG_5Fk8eoUyimhYf9qvImqWBn_38.420205_-78.862950@1294252573"
    },
    "wof:country":"US",
    "wof:created":1461898090,
    "wof:geomhash":"dba101e5b31a1a29a85cc3ff693ffa89",
    "wof:hierarchy":[],
    "wof:id":723248633,
    "wof:lastmodified":1461898090,
    "wof:name":"Shenandoah Valley TV LLC",
    "wof:parent_id":-1,
    "wof:placetype":"venue",
    "wof:superseded_by":[],
    "wof:supersedes":[],
    "wof:tags":[]
},
  "bbox": [
    -78.86295,
    38.420205,
    -78.86295,
    38.420205
],
  "geometry": {"coordinates":[-78.86295,38.420205],"type":"Point"}
}