{
  "id": 723191575,
  "type": "Feature",
  "properties": {
    "edtf:cessation":"uuuu",
    "edtf:inception":"uuuu",
    "geom:area":0.0,
    "geom:bbox":"-77.328686,38.837635,-77.328686,38.837635",
    "geom:latitude":38.837635,
    "geom:longitude":-77.328686,
    "iso:country":"US",
    "sg:address":"11020 Stanrich Ct",
    "sg:city":"Fairfax",
    "sg:classifiers":[
        {
            "category":"Professional",
            "subcategory":"Management & Consulting",
            "type":"Services"
        }
    ],
    "sg:owner":"simplegeo",
    "sg:phone":"+1 703 279 5930",
    "sg:postcode":"22030",
    "sg:province":"VA",
    "sg:tags":[
        "agency",
        "employment",
        "business"
    ],
    "src:geom":"simplegeo",
    "wof:belongsto":[],
    "wof:breaches":[],
    "wof:concordances":{
        "sg:id":"SG_45yDgXljWFdGxhwOYpuwJ5_38.837635_-77.328686@1294252573"
    },
    "wof:country":"US",
    "wof:created":1461896913,
    "wof:geomhash":"57bb41b82a383c3099b967dd2a4d90bf",
    "wof:hierarchy":[],
    "wof:id":723191575,
    "wof:lastmodified":1461896913,
    "wof:name":"CT Solutions Inc",
    "wof:parent_id":-1,
    "wof:placetype":"venue",
    "wof:superseded_by":[],
    "wof:supersedes":[],
    "wof:tags":[
        "agency",
        "employment",
        "business"
    ]
},
  "bbox": [
    -77.328686,
    38.837635,
    -77.328686,
    38.837635
],
  "geometry": {"coordinates":[-77.328686,38.837635],"type":"Point"}
}