{
  "id": 739273035,
  "type": "Feature",
  "properties": {
    "edtf:cessation":"uuuu",
    "edtf:inception":"uuuu",
    "geom:area":0.0,
    "geom:bbox":"-77.49359,38.781156,-77.49359,38.781156",
    "geom:latitude":38.781156,
    "geom:longitude":-77.49359,
    "iso:country":"US",
    "sg:address":"9907 Rickover Ct",
    "sg:city":"Manassas",
    "sg:classifiers":[
        {
            "category":"Building & Trades",
            "subcategory":"Construction",
            "type":"Services"
        }
    ],
    "sg:owner":"simplegeo",
    "sg:phone":"+1 703 330 1726",
    "sg:postcode":"20109",
    "sg:province":"VA",
    "sg:tags":[
        "house"
    ],
    "src:geom":"simplegeo",
    "wof:belongsto":[],
    "wof:breaches":[],
    "wof:concordances":{
        "sg:id":"SG_6doMjLIf9uZx9hLpkf41gc_38.781156_-77.493590@1294252573"
    },
    "wof:country":"US",
    "wof:created":1461903993,
    "wof:geomhash":"eec3a4c1412c97235622a8b7b669d5f7",
    "wof:hierarchy":[],
    "wof:id":739273035,
    "wof:lastmodified":1461903993,
    "wof:name":"J&J General Const",
    "wof:parent_id":-1,
    "wof:placetype":"venue",
    "wof:superseded_by":[],
    "wof:supersedes":[],
    "wof:tags":[
        "house"
    ]
},
  "bbox": [
    -77.49359,
    38.781156,
    -77.49359,
    38.781156
],
  "geometry": {"coordinates":[-77.49359,38.781156],"type":"Point"}
}