{
  "id": 739608249,
  "type": "Feature",
  "properties": {
    "edtf:cessation":"uuuu",
    "edtf:inception":"uuuu",
    "geom:area":0.0,
    "geom:bbox":"-77.420266,38.900917,-77.420266,38.900917",
    "geom:latitude":38.900917,
    "geom:longitude":-77.420266,
    "iso:country":"US",
    "sg:address":"3633 Beech Down Dr",
    "sg:city":"Chantilly",
    "sg:classifiers":[
        {
            "category":"Arena",
            "subcategory":"Sports Club",
            "type":"Entertainment"
        }
    ],
    "sg:owner":"simplegeo",
    "sg:phone":"+1 703 850 2916",
    "sg:postcode":"20151",
    "sg:province":"VA",
    "sg:tags":[
        "health"
    ],
    "src:geom":"simplegeo",
    "wof:belongsto":[],
    "wof:breaches":[],
    "wof:concordances":{
        "sg:id":"SG_7jeWdejVHlUXnYWqce3KJL_38.900917_-77.420266@1303262496"
    },
    "wof:country":"US",
    "wof:created":1461910571,
    "wof:geomhash":"491984fe2b0bb25ac6c4c79e09167549",
    "wof:hierarchy":[],
    "wof:id":739608249,
    "wof:lastmodified":1461910571,
    "wof:name":"Full Circle Pilates Studio",
    "wof:parent_id":-1,
    "wof:placetype":"venue",
    "wof:superseded_by":[],
    "wof:supersedes":[],
    "wof:tags":[
        "health"
    ]
},
  "bbox": [
    -77.420266,
    38.900917,
    -77.420266,
    38.900917
],
  "geometry": {"coordinates":[-77.420266,38.900917],"type":"Point"}
}