{
  "id": 739447027,
  "type": "Feature",
  "properties": {
    "edtf:cessation":"uuuu",
    "edtf:inception":"uuuu",
    "geom:area":0.0,
    "geom:bbox":"-77.412761,37.703184,-77.412761,37.703184",
    "geom:latitude":37.703184,
    "geom:longitude":-77.412761,
    "iso:country":"US",
    "sg:address":"9138 Greenlake Cir",
    "sg:city":"Mechanicsville",
    "sg:classifiers":[
        {
            "category":"Sports & Exercise",
            "subcategory":"Gym",
            "type":"Entertainment"
        }
    ],
    "sg:owner":"simplegeo",
    "sg:phone":"+1 804 550 3328",
    "sg:postcode":"23116",
    "sg:province":"VA",
    "sg:tags":[
        "fitness",
        "physical",
        "facility"
    ],
    "src:geom":"simplegeo",
    "wof:belongsto":[],
    "wof:breaches":[],
    "wof:concordances":{
        "sg:id":"SG_7YWQXqnSFauC553fURY3Oa_37.703184_-77.412761@1294252573"
    },
    "wof:country":"US",
    "wof:created":1461907488,
    "wof:geomhash":"2cd5169e8bf4a66a63710516f4e490b8",
    "wof:hierarchy":[],
    "wof:id":739447027,
    "wof:lastmodified":1461907488,
    "wof:name":"Fitness Solutions of Virginia",
    "wof:parent_id":-1,
    "wof:placetype":"venue",
    "wof:superseded_by":[],
    "wof:supersedes":[],
    "wof:tags":[
        "fitness",
        "physical",
        "facility"
    ]
},
  "bbox": [
    -77.412761,
    37.703184,
    -77.412761,
    37.703184
],
  "geometry": {"coordinates":[-77.412761,37.703184],"type":"Point"}
}