{
  "id": 739710447,
  "type": "Feature",
  "properties": {
    "edtf:cessation":"uuuu",
    "edtf:inception":"uuuu",
    "geom:area":0.0,
    "geom:bbox":"-77.659333,37.406318,-77.659333,37.406318",
    "geom:latitude":37.406318,
    "geom:longitude":-77.659333,
    "iso:country":"US",
    "sg:address":"13841 Hull Street Rd",
    "sg:city":"Midlothian",
    "sg:classifiers":[
        {
            "category":"Health Services",
            "subcategory":"Dentist",
            "type":"Services"
        }
    ],
    "sg:owner":"simplegeo",
    "sg:phone":"+1 804 739 5791",
    "sg:postcode":"23112",
    "sg:province":"VA",
    "sg:tags":[
        "denture",
        "dentists-prosthodontists",
        "dentists-endodontists",
        "dentists-cosmetic",
        "dentistry"
    ],
    "sg:website":"http://www.drtrawickdentistry.com",
    "src:geom":"simplegeo",
    "wof:belongsto":[],
    "wof:breaches":[],
    "wof:concordances":{
        "sg:id":"SG_7loCiBlVljDee0B9DC8VHu_37.406318_-77.659333@1303262549"
    },
    "wof:country":"US",
    "wof:created":1461912790,
    "wof:geomhash":"90b44994e3a9faf40cd021bdc24ddc0e",
    "wof:hierarchy":[],
    "wof:id":739710447,
    "wof:lastmodified":1461912790,
    "wof:name":"Trawick Donald G",
    "wof:parent_id":-1,
    "wof:placetype":"venue",
    "wof:superseded_by":[],
    "wof:supersedes":[],
    "wof:tags":[
        "denture",
        "dentists-prosthodontists",
        "dentists-endodontists",
        "dentists-cosmetic",
        "dentistry"
    ]
},
  "bbox": [
    -77.659333,
    37.406318,
    -77.659333,
    37.406318
],
  "geometry": {"coordinates":[-77.659333,37.406318],"type":"Point"}
}