{
  "id": 739565761,
  "type": "Feature",
  "properties": {
    "edtf:cessation":"uuuu",
    "edtf:inception":"uuuu",
    "geom:area":0.0,
    "geom:bbox":"-76.99011,38.158932,-76.99011,38.158932",
    "geom:latitude":38.158932,
    "geom:longitude":-76.99011,
    "iso:country":"US",
    "sg:address":"156 Mark Dr",
    "sg:city":"Colonial Beach",
    "sg:classifiers":[],
    "sg:owner":"simplegeo",
    "sg:phone":"+1 804 224 4029",
    "sg:postcode":"22443",
    "sg:province":"VA",
    "sg:tags":[
        "farm"
    ],
    "src:geom":"simplegeo",
    "wof:belongsto":[],
    "wof:breaches":[],
    "wof:concordances":{
        "sg:id":"SG_3ocJMvRByKwa6QPteyZ8ei_38.158932_-76.990110@1294252573"
    },
    "wof:country":"US",
    "wof:created":1461909677,
    "wof:geomhash":"d1cb293780aaddee90fa5d644e08ff0b",
    "wof:hierarchy":[],
    "wof:id":739565761,
    "wof:lastmodified":1461909677,
    "wof:name":"Flores Produce",
    "wof:parent_id":-1,
    "wof:placetype":"venue",
    "wof:superseded_by":[],
    "wof:supersedes":[],
    "wof:tags":[
        "farm"
    ]
},
  "bbox": [
    -76.99011,
    38.158932,
    -76.99011,
    38.158932
],
  "geometry": {"coordinates":[-76.99011,38.158932],"type":"Point"}
}