{
  "id": 739585687,
  "type": "Feature",
  "properties": {
    "edtf:cessation":"uuuu",
    "edtf:inception":"uuuu",
    "geom:area":0.0,
    "geom:bbox":"-77.320666,37.536965,-77.320666,37.536965",
    "geom:latitude":37.536965,
    "geom:longitude":-77.320666,
    "iso:country":"US",
    "sg:address":"70 S Airport Dr",
    "sg:city":"Highland Springs",
    "sg:classifiers":[
        {
            "category":"Restaurant",
            "subcategory":"",
            "type":"Food & Drink"
        }
    ],
    "sg:menulink":"http://www.allmenus.com/va/varina/80385-dominos-pizza/menu/",
    "sg:owner":"simplegeo",
    "sg:phone":"+1 804 328 0300",
    "sg:postcode":"23075",
    "sg:province":"VA",
    "sg:tags":[
        "american",
        "wing",
        "pizza"
    ],
    "src:geom":"simplegeo",
    "wof:belongsto":[],
    "wof:breaches":[],
    "wof:concordances":{
        "sg:id":"SG_1ikos3yFXulbBMCyKBh8VI_37.536965_-77.320666@1299784598"
    },
    "wof:country":"US",
    "wof:created":1461910117,
    "wof:geomhash":"e2555478cbc3d997fd26ba542befca20",
    "wof:hierarchy":[],
    "wof:id":739585687,
    "wof:lastmodified":1461910117,
    "wof:name":"Domino's Pizza",
    "wof:parent_id":-1,
    "wof:placetype":"venue",
    "wof:superseded_by":[],
    "wof:supersedes":[],
    "wof:tags":[
        "american",
        "wing",
        "pizza"
    ]
},
  "bbox": [
    -77.320666,
    37.536965,
    -77.320666,
    37.536965
],
  "geometry": {"coordinates":[-77.320666,37.536965],"type":"Point"}
}