{
  "id": 739476519,
  "type": "Feature",
  "properties": {
    "edtf:cessation":"uuuu",
    "edtf:inception":"uuuu",
    "geom:area":0.0,
    "geom:bbox":"-77.588708,38.273717,-77.588708,38.273717",
    "geom:latitude":38.273717,
    "geom:longitude":-77.588708,
    "iso:country":"US",
    "sg:address":"11503 Harvestdale Dr",
    "sg:city":"Fredericksburg",
    "sg:classifiers":[
        {
            "category":"Professional",
            "subcategory":"Management & Consulting",
            "type":"Services"
        }
    ],
    "sg:owner":"simplegeo",
    "sg:phone":"+1 540 785 4572",
    "sg:postcode":"22407",
    "sg:province":"VA",
    "src:geom":"simplegeo",
    "wof:belongsto":[],
    "wof:breaches":[],
    "wof:concordances":{
        "sg:id":"SG_2otPAOs9pD3yNwvIiCWLYL_38.273717_-77.588708@1294252573"
    },
    "wof:country":"US",
    "wof:created":1461908005,
    "wof:geomhash":"9ea0930bcbe8878eca0758abcd4e7356",
    "wof:hierarchy":[],
    "wof:id":739476519,
    "wof:lastmodified":1461908005,
    "wof:name":"Bold Enterprise",
    "wof:parent_id":-1,
    "wof:placetype":"venue",
    "wof:superseded_by":[],
    "wof:supersedes":[],
    "wof:tags":[]
},
  "bbox": [
    -77.588708,
    38.273717,
    -77.588708,
    38.273717
],
  "geometry": {"coordinates":[-77.588708,38.273717],"type":"Point"}
}