{
  "id": 739431605,
  "type": "Feature",
  "properties": {
    "edtf:cessation":"uuuu",
    "edtf:inception":"uuuu",
    "geom:area":0.0,
    "geom:bbox":"-77.594404,39.09278,-77.594404,39.09278",
    "geom:latitude":39.09278,
    "geom:longitude":-77.594404,
    "iso:country":"US",
    "sg:address":"502 Brindley Pl SW",
    "sg:city":"Leesburg",
    "sg:classifiers":[
        {
            "category":"Manufacturing",
            "subcategory":"Rubber & Plastics",
            "type":"Manufacturing & Wholesale Goods"
        }
    ],
    "sg:owner":"simplegeo",
    "sg:phone":"+1 703 669 5090",
    "sg:postcode":"20175",
    "sg:province":"VA",
    "src:geom":"simplegeo",
    "wof:belongsto":[],
    "wof:breaches":[],
    "wof:concordances":{
        "sg:id":"SG_3V3oO68lbgBOlv2wJi44NB_39.092780_-77.594404@1294252573"
    },
    "wof:country":"US",
    "wof:created":1461907193,
    "wof:geomhash":"d79962b94bf17620aada1c90e3ef0e12",
    "wof:hierarchy":[],
    "wof:id":739431605,
    "wof:lastmodified":1461907193,
    "wof:name":"Sca Packaging North America",
    "wof:parent_id":-1,
    "wof:placetype":"venue",
    "wof:superseded_by":[],
    "wof:supersedes":[],
    "wof:tags":[]
},
  "bbox": [
    -77.594404,
    39.09278,
    -77.594404,
    39.09278
],
  "geometry": {"coordinates":[-77.594404,39.09278],"type":"Point"}
}