{
  "id": 739689353,
  "type": "Feature",
  "properties": {
    "edtf:cessation":"uuuu",
    "edtf:inception":"uuuu",
    "geom:area":0.0,
    "geom:bbox":"-77.040001,38.817001,-77.040001,38.817001",
    "geom:latitude":38.817001,
    "geom:longitude":-77.040001,
    "iso:country":"US",
    "sg:address":"1199 N Fairfax St",
    "sg:city":"Alexandria",
    "sg:classifiers":[
        {
            "category":"Professional",
            "subcategory":"Lawyer & Legal Services",
            "type":"Services"
        }
    ],
    "sg:owner":"simplegeo",
    "sg:phone":"+1 703 739 4900",
    "sg:postcode":"22314",
    "sg:province":"VA",
    "src:geom":"simplegeo",
    "wof:belongsto":[],
    "wof:breaches":[],
    "wof:concordances":{
        "sg:id":"SG_1y6LV3g9LpPZfnyj5jE6W0_38.817001_-77.040001@1303262546"
    },
    "wof:country":"US",
    "wof:created":1461912329,
    "wof:geomhash":"72304533f247020dbc9d30cc41ff689c",
    "wof:hierarchy":[],
    "wof:id":739689353,
    "wof:lastmodified":1461912329,
    "wof:name":"Taylor Brewster Pat Atty",
    "wof:parent_id":-1,
    "wof:placetype":"venue",
    "wof:superseded_by":[],
    "wof:supersedes":[],
    "wof:tags":[]
},
  "bbox": [
    -77.040001,
    38.817001,
    -77.040001,
    38.817001
],
  "geometry": {"coordinates":[-77.040001,38.817001],"type":"Point"}
}