{
  "id": 722976211,
  "type": "Feature",
  "properties": {
    "edtf:cessation":"uuuu",
    "edtf:inception":"uuuu",
    "geom:area":0.0,
    "geom:bbox":"-77.713031,39.138167,-77.713031,39.138167",
    "geom:latitude":39.138167,
    "geom:longitude":-77.713031,
    "iso:country":"US",
    "sg:address":"120 N Hatcher Ave",
    "sg:city":"Purcellville",
    "sg:classifiers":[
        {
            "category":"Shopping",
            "subcategory":"Optical Goods",
            "type":"Retail Goods"
        }
    ],
    "sg:owner":"simplegeo",
    "sg:phone":"+1 540 338 1833",
    "sg:postcode":"20132",
    "sg:province":"VA",
    "src:geom":"simplegeo",
    "wof:belongsto":[],
    "wof:breaches":[],
    "wof:concordances":{
        "sg:id":"SG_2a37lg5LU75DSqWeV9XA5q_39.138167_-77.713031@1294252573"
    },
    "wof:country":"US",
    "wof:created":1461892384,
    "wof:geomhash":"769aa47cd547819fbbfec584690cd7a5",
    "wof:hierarchy":[],
    "wof:id":722976211,
    "wof:lastmodified":1461892384,
    "wof:name":"Dilzer Eye Care Association PC",
    "wof:parent_id":-1,
    "wof:placetype":"venue",
    "wof:superseded_by":[],
    "wof:supersedes":[],
    "wof:tags":[]
},
  "bbox": [
    -77.713031,
    39.138167,
    -77.713031,
    39.138167
],
  "geometry": {"coordinates":[-77.713031,39.138167],"type":"Point"}
}