{
  "id": 739465907,
  "type": "Feature",
  "properties": {
    "edtf:cessation":"uuuu",
    "edtf:inception":"uuuu",
    "geom:area":0.0,
    "geom:bbox":"-77.152375,38.879777,-77.152375,38.879777",
    "geom:latitude":38.879777,
    "geom:longitude":-77.152375,
    "iso:country":"US",
    "sg:address":"6204 12th St N",
    "sg:city":"Arlington",
    "sg:classifiers":[
        {
            "category":"Professional",
            "subcategory":"Business Services",
            "type":"Services"
        }
    ],
    "sg:owner":"simplegeo",
    "sg:phone":"+1 703 237 2333",
    "sg:postcode":"22205",
    "sg:province":"VA",
    "src:geom":"simplegeo",
    "wof:belongsto":[],
    "wof:breaches":[],
    "wof:concordances":{
        "sg:id":"SG_5ZSV6fchjAOBziAdCAoOSF_38.879777_-77.152375@1294252573"
    },
    "wof:country":"US",
    "wof:created":1461907818,
    "wof:geomhash":"b849b549c726fb3b1e3b87deb761c3a2",
    "wof:hierarchy":[],
    "wof:id":739465907,
    "wof:lastmodified":1461907818,
    "wof:name":"McGovern & Associates Rita K",
    "wof:parent_id":-1,
    "wof:placetype":"venue",
    "wof:superseded_by":[],
    "wof:supersedes":[],
    "wof:tags":[]
},
  "bbox": [
    -77.152375,
    38.879777,
    -77.152375,
    38.879777
],
  "geometry": {"coordinates":[-77.15237500000001,38.879777],"type":"Point"}
}