{
  "id": 722969705,
  "type": "Feature",
  "properties": {
    "edtf:cessation":"uuuu",
    "edtf:inception":"uuuu",
    "geom:area":0.0,
    "geom:bbox":"-77.624988,38.864517,-77.624988,38.864517",
    "geom:latitude":38.864517,
    "geom:longitude":-77.624988,
    "iso:country":"US",
    "sg:address":"4345 High Ridge Rd",
    "sg:city":"Haymarket",
    "sg:classifiers":[
        {
            "category":"Professional",
            "subcategory":"Computer Services",
            "type":"Services"
        }
    ],
    "sg:owner":"simplegeo",
    "sg:phone":"+1 703 754 0115",
    "sg:postcode":"20169",
    "sg:province":"VA",
    "sg:tags":[
        "consulting",
        "management"
    ],
    "src:geom":"simplegeo",
    "wof:belongsto":[],
    "wof:breaches":[],
    "wof:concordances":{
        "sg:id":"SG_0FeRzvZkPmGjkH3wSr6WoA_38.864517_-77.624988@1294252573"
    },
    "wof:country":"US",
    "wof:created":1461892226,
    "wof:geomhash":"01c158d38d57e848beb9d5dfe21779bc",
    "wof:hierarchy":[],
    "wof:id":722969705,
    "wof:lastmodified":1461892226,
    "wof:name":"Dressage Expressions",
    "wof:parent_id":-1,
    "wof:placetype":"venue",
    "wof:superseded_by":[],
    "wof:supersedes":[],
    "wof:tags":[
        "consulting",
        "management"
    ]
},
  "bbox": [
    -77.624988,
    38.864517,
    -77.624988,
    38.864517
],
  "geometry": {"coordinates":[-77.624988,38.864517],"type":"Point"}
}