{
  "id": 722961473,
  "type": "Feature",
  "properties": {
    "edtf:cessation":"uuuu",
    "edtf:inception":"uuuu",
    "geom:area":0.0,
    "geom:bbox":"-77.473186,38.894073,-77.473186,38.894073",
    "geom:latitude":38.894073,
    "geom:longitude":-77.473186,
    "iso:country":"US",
    "sg:address":"4519 Samuels Pine Rd",
    "sg:city":"Chantilly",
    "sg:classifiers":[
        {
            "category":"Retail",
            "subcategory":"Laundry & Dry Cleaning",
            "type":"Services"
        }
    ],
    "sg:owner":"simplegeo",
    "sg:phone":"+1 703 378 7794",
    "sg:postcode":"20151",
    "sg:province":"VA",
    "src:geom":"simplegeo",
    "wof:belongsto":[],
    "wof:breaches":[],
    "wof:concordances":{
        "sg:id":"SG_2PLbIQnteGyboO1CFqHB0H_38.894073_-77.473186@1294252573"
    },
    "wof:country":"US",
    "wof:created":1461892068,
    "wof:geomhash":"259c058ec8e6ab84e9cc332546978c5a",
    "wof:hierarchy":[],
    "wof:id":722961473,
    "wof:lastmodified":1461892068,
    "wof:name":"Roy Carey Carpet Cleaning",
    "wof:parent_id":-1,
    "wof:placetype":"venue",
    "wof:superseded_by":[],
    "wof:supersedes":[],
    "wof:tags":[]
},
  "bbox": [
    -77.473186,
    38.894073,
    -77.473186,
    38.894073
],
  "geometry": {"coordinates":[-77.473186,38.894073],"type":"Point"}
}