{
  "id": 723174297,
  "type": "Feature",
  "properties": {
    "edtf:cessation":"uuuu",
    "edtf:inception":"uuuu",
    "geom:area":0.0,
    "geom:bbox":"-77.428508,38.760816,-77.428508,38.760816",
    "geom:latitude":38.760816,
    "geom:longitude":-77.428508,
    "iso:country":"US",
    "sg:address":"9308 Brandon St",
    "sg:city":"Manassas Park",
    "sg:classifiers":[
        {
            "category":"Restaurant",
            "subcategory":"",
            "type":"Food & Drink"
        }
    ],
    "sg:owner":"simplegeo",
    "sg:phone":"+1 703 450 6900",
    "sg:postcode":"20111",
    "sg:province":"VA",
    "src:geom":"simplegeo",
    "wof:belongsto":[],
    "wof:breaches":[],
    "wof:concordances":{
        "sg:id":"SG_12AgQh9gCYDhpZha9p6rNm_38.760816_-77.428508@1294252573"
    },
    "wof:country":"US",
    "wof:created":1461896565,
    "wof:geomhash":"52dd60028272381fd9260c99acee43ca",
    "wof:hierarchy":[],
    "wof:id":723174297,
    "wof:lastmodified":1461896565,
    "wof:name":"Bombay Garden",
    "wof:parent_id":-1,
    "wof:placetype":"venue",
    "wof:superseded_by":[],
    "wof:supersedes":[],
    "wof:tags":[]
},
  "bbox": [
    -77.428508,
    38.760816,
    -77.428508,
    38.760816
],
  "geometry": {"coordinates":[-77.42850799999999,38.760816],"type":"Point"}
}