{
  "id": 722567757,
  "type": "Feature",
  "properties": {
    "edtf:cessation":"uuuu",
    "edtf:inception":"uuuu",
    "geom:area":0.0,
    "geom:bbox":"-77.582366,39.269143,-77.582366,39.269143",
    "geom:latitude":39.269143,
    "geom:longitude":-77.582366,
    "iso:country":"US",
    "sg:address":"40895 Meadow Vista Pl",
    "sg:city":"Lovettsville",
    "sg:classifiers":[
        {
            "category":"Professional",
            "subcategory":"",
            "type":"Services"
        }
    ],
    "sg:owner":"simplegeo",
    "sg:phone":"+1 540 822 3903",
    "sg:postcode":"20180",
    "sg:province":"VA",
    "src:geom":"simplegeo",
    "wof:belongsto":[],
    "wof:breaches":[],
    "wof:concordances":{
        "sg:id":"SG_1Q6bd6L4fGIWipPzcIkRfk_39.269143_-77.582366@1294252573"
    },
    "wof:country":"US",
    "wof:created":1461884371,
    "wof:geomhash":"882732d904afe04929bddfe0c0ff03e5",
    "wof:hierarchy":[],
    "wof:id":722567757,
    "wof:lastmodified":1461884371,
    "wof:name":"Total Basket Cases Inc",
    "wof:parent_id":-1,
    "wof:placetype":"venue",
    "wof:superseded_by":[],
    "wof:supersedes":[],
    "wof:tags":[]
},
  "bbox": [
    -77.582366,
    39.269143,
    -77.582366,
    39.269143
],
  "geometry": {"coordinates":[-77.58236599999999,39.269143],"type":"Point"}
}