{
  "id": 723179527,
  "type": "Feature",
  "properties": {
    "edtf:cessation":"uuuu",
    "edtf:inception":"uuuu",
    "geom:area":0.0,
    "geom:bbox":"-79.537927,36.663469,-79.537927,36.663469",
    "geom:latitude":36.663469,
    "geom:longitude":-79.537927,
    "iso:country":"US",
    "sg:address":"9000 Mount Cross Rd",
    "sg:city":"Danville",
    "sg:classifiers":[
        {
            "category":"Shopping",
            "subcategory":"Gifts & Souvenirs",
            "type":"Retail Goods"
        }
    ],
    "sg:owner":"simplegeo",
    "sg:phone":"+1 434 685 3443",
    "sg:postcode":"24540",
    "sg:province":"VA",
    "src:geom":"simplegeo",
    "wof:belongsto":[],
    "wof:breaches":[],
    "wof:concordances":{
        "sg:id":"SG_4UWQBD1caYqbuAaaNyrSOJ_36.663469_-79.537927@1294252573"
    },
    "wof:country":"US",
    "wof:created":1461896675,
    "wof:geomhash":"657d9cafb61ee06abbd0ad26da3089bb",
    "wof:hierarchy":[],
    "wof:id":723179527,
    "wof:lastmodified":1461896675,
    "wof:name":"Pams House of Gifts",
    "wof:parent_id":420547051,
    "wof:placetype":"venue",
    "wof:superseded_by":[],
    "wof:supersedes":[],
    "wof:tags":[]
},
  "bbox": [
    -79.537927,
    36.663469,
    -79.537927,
    36.663469
],
  "geometry": {"coordinates":[-79.537927,36.663469],"type":"Point"}
}