{
  "id": 723300773,
  "type": "Feature",
  "properties": {
    "edtf:cessation":"uuuu",
    "edtf:inception":"uuuu",
    "geom:area":0.0,
    "geom:bbox":"-77.360829,39.029578,-77.360829,39.029578",
    "geom:latitude":39.029578,
    "geom:longitude":-77.360829,
    "iso:country":"US",
    "sg:address":"21220 Millwood Sq",
    "sg:city":"Sterling",
    "sg:classifiers":[
        {
            "category":"Professional",
            "subcategory":"Computer Services",
            "type":"Services"
        }
    ],
    "sg:owner":"simplegeo",
    "sg:phone":"+1 703 447 9748",
    "sg:postcode":"20165",
    "sg:province":"VA",
    "sg:tags":[
        "management",
        "solution"
    ],
    "src:geom":"simplegeo",
    "wof:belongsto":[],
    "wof:breaches":[],
    "wof:concordances":{
        "sg:id":"SG_0rr8h2GXLigw1c45WDSEhA_39.029578_-77.360829@1294252573"
    },
    "wof:country":"US",
    "wof:created":1461899075,
    "wof:geomhash":"52b10fc5735115d566141fbc71f3c62c",
    "wof:hierarchy":[],
    "wof:id":723300773,
    "wof:lastmodified":1461899075,
    "wof:name":"Bay Breeze Consultants LLC",
    "wof:parent_id":-1,
    "wof:placetype":"venue",
    "wof:superseded_by":[],
    "wof:supersedes":[],
    "wof:tags":[
        "management",
        "solution"
    ]
},
  "bbox": [
    -77.360829,
    39.029578,
    -77.360829,
    39.029578
],
  "geometry": {"coordinates":[-77.360829,39.029578],"type":"Point"}
}