{
  "id": 723335227,
  "type": "Feature",
  "properties": {
    "edtf:cessation":"uuuu",
    "edtf:inception":"uuuu",
    "geom:area":0.0,
    "geom:bbox":"-77.638736,37.61987,-77.638736,37.61987",
    "geom:latitude":37.61987,
    "geom:longitude":-77.638736,
    "iso:country":"US",
    "sg:address":"12387 Gayton Rd",
    "sg:city":"Richmond",
    "sg:classifiers":[
        {
            "category":"Professional",
            "subcategory":"Art Services",
            "type":"Services"
        }
    ],
    "sg:owner":"simplegeo",
    "sg:phone":"+1 804 750 2766",
    "sg:postcode":"23238",
    "sg:province":"VA",
    "sg:tags":[
        "graphic",
        "designer"
    ],
    "src:geom":"simplegeo",
    "wof:belongsto":[],
    "wof:breaches":[],
    "wof:concordances":{
        "sg:id":"SG_1Xx41EZuW99pBH5GfaErky_37.619870_-77.638736@1294252573"
    },
    "wof:country":"US",
    "wof:created":1461899719,
    "wof:geomhash":"3119f1d3f8546841ff54234dddd6b513",
    "wof:hierarchy":[],
    "wof:id":723335227,
    "wof:lastmodified":1461899719,
    "wof:name":"Image Solutions",
    "wof:parent_id":-1,
    "wof:placetype":"venue",
    "wof:superseded_by":[],
    "wof:supersedes":[],
    "wof:tags":[
        "graphic",
        "designer"
    ]
},
  "bbox": [
    -77.638736,
    37.61987,
    -77.638736,
    37.61987
],
  "geometry": {"coordinates":[-77.63873599999999,37.61987],"type":"Point"}
}