{
  "id": 722607581,
  "type": "Feature",
  "properties": {
    "edtf:cessation":"uuuu",
    "edtf:inception":"uuuu",
    "geom:area":0.0,
    "geom:bbox":"-77.504332,37.625267,-77.504332,37.625267",
    "geom:latitude":37.625267,
    "geom:longitude":-77.504332,
    "iso:country":"US",
    "sg:address":"8300 Staples Mill Rd",
    "sg:city":"Richmond",
    "sg:classifiers":[
        {
            "category":"Recreation",
            "subcategory":"",
            "type":"Entertainment"
        }
    ],
    "sg:owner":"simplegeo",
    "sg:phone":"+1 804 266 7700",
    "sg:postcode":"23228",
    "sg:province":"VA",
    "sg:tags":[
        "instruction",
        "gymnastic"
    ],
    "sg:website":"www.tlgglenallenva.com",
    "src:geom":"simplegeo",
    "wof:belongsto":[],
    "wof:breaches":[],
    "wof:concordances":{
        "sg:id":"SG_3Q5YooSs9pnUHmf08pLAKQ_37.625267_-77.504332@1294252573"
    },
    "wof:country":"US",
    "wof:created":1461885127,
    "wof:geomhash":"faa23f299f2061aead04be9199437f83",
    "wof:hierarchy":[],
    "wof:id":722607581,
    "wof:lastmodified":1461885127,
    "wof:name":"Little Gym Of Glen Allen",
    "wof:parent_id":-1,
    "wof:placetype":"venue",
    "wof:superseded_by":[],
    "wof:supersedes":[],
    "wof:tags":[
        "instruction",
        "gymnastic"
    ]
},
  "bbox": [
    -77.504332,
    37.625267,
    -77.504332,
    37.625267
],
  "geometry": {"coordinates":[-77.50433200000001,37.625267],"type":"Point"}
}