{
  "id": 722718365,
  "type": "Feature",
  "properties": {
    "edtf:cessation":"uuuu",
    "edtf:inception":"uuuu",
    "geom:area":0.0,
    "geom:bbox":"-76.678129,37.234278,-76.678129,37.234278",
    "geom:latitude":37.234278,
    "geom:longitude":-76.678129,
    "iso:country":"US",
    "sg:address":"108 John Paine",
    "sg:city":"Williamsburg",
    "sg:classifiers":[
        {
            "category":"Communications",
            "subcategory":"",
            "type":"Services"
        }
    ],
    "sg:owner":"simplegeo",
    "sg:phone":"+1 757 675 2105",
    "sg:postcode":"23185",
    "sg:province":"VA",
    "sg:tags":[
        "communication"
    ],
    "src:geom":"simplegeo",
    "wof:belongsto":[],
    "wof:breaches":[],
    "wof:concordances":{
        "sg:id":"SG_1n4D6dljVmvwwHUA3yHFPk_37.234278_-76.678129@1294252573"
    },
    "wof:country":"US",
    "wof:created":1461887311,
    "wof:geomhash":"f532cc62fd3d066be451ff34a2693b79",
    "wof:hierarchy":[],
    "wof:id":722718365,
    "wof:lastmodified":1461887311,
    "wof:name":"Circle C Communications LLC",
    "wof:parent_id":-1,
    "wof:placetype":"venue",
    "wof:superseded_by":[],
    "wof:supersedes":[],
    "wof:tags":[
        "communication"
    ]
},
  "bbox": [
    -76.678129,
    37.234278,
    -76.678129,
    37.234278
],
  "geometry": {"coordinates":[-76.678129,37.234278],"type":"Point"}
}