{
  "id": 739509505,
  "type": "Feature",
  "properties": {
    "edtf:cessation":"uuuu",
    "edtf:inception":"uuuu",
    "geom:area":0.0,
    "geom:bbox":"-77.512652,37.597518,-77.512652,37.597518",
    "geom:latitude":37.597518,
    "geom:longitude":-77.512652,
    "iso:country":"US",
    "sg:address":"6316 W Broad St",
    "sg:city":"Richmond",
    "sg:classifiers":[
        {
            "category":"Retail",
            "subcategory":"Auto Repair",
            "type":"Services"
        }
    ],
    "sg:owner":"simplegeo",
    "sg:phone":"+1 804 673 9171",
    "sg:postcode":"23230",
    "sg:province":"VA",
    "sg:tags":[
        "shop",
        "automotive"
    ],
    "src:geom":"simplegeo",
    "wof:belongsto":[],
    "wof:breaches":[],
    "wof:concordances":{
        "sg:id":"SG_5whXp9Ux71Cdw5Ct1eLGcp_37.597518_-77.512652@1294252573"
    },
    "wof:country":"US",
    "wof:created":1461908602,
    "wof:geomhash":"34b5f93799fd632fdd539b6d6c5d7c9f",
    "wof:hierarchy":[],
    "wof:id":739509505,
    "wof:lastmodified":1461908602,
    "wof:name":"Import Autohaus LTD",
    "wof:parent_id":-1,
    "wof:placetype":"venue",
    "wof:superseded_by":[],
    "wof:supersedes":[],
    "wof:tags":[
        "shop",
        "automotive"
    ]
},
  "bbox": [
    -77.512652,
    37.597518,
    -77.512652,
    37.597518
],
  "geometry": {"coordinates":[-77.512652,37.597518],"type":"Point"}
}