{
  "id": 723044935,
  "type": "Feature",
  "properties": {
    "edtf:cessation":"uuuu",
    "edtf:inception":"uuuu",
    "geom:area":0.0,
    "geom:bbox":"-79.971299,37.477843,-79.971299,37.477843",
    "geom:latitude":37.477843,
    "geom:longitude":-79.971299,
    "iso:country":"US",
    "sg:address":"621 Lee Ln",
    "sg:city":"Fincastle",
    "sg:classifiers":[
        {
            "category":"Farming",
            "subcategory":"Livestock Farm",
            "type":"Manufacturing & Wholesale Goods"
        }
    ],
    "sg:owner":"simplegeo",
    "sg:phone":"+1 540 992 4646",
    "sg:postcode":"24090",
    "sg:province":"VA",
    "sg:tags":[
        "equine",
        "animal"
    ],
    "src:geom":"simplegeo",
    "wof:belongsto":[],
    "wof:breaches":[],
    "wof:concordances":{
        "sg:id":"SG_6lrE6ual4dKl9eloqZA7xE_37.477843_-79.971299@1294252573"
    },
    "wof:country":"US",
    "wof:created":1461893913,
    "wof:geomhash":"2e54d00960b27a2109d8206c1c1694f6",
    "wof:hierarchy":[],
    "wof:id":723044935,
    "wof:lastmodified":1461893913,
    "wof:name":"Deerhaven Farm Inc",
    "wof:parent_id":-1,
    "wof:placetype":"venue",
    "wof:superseded_by":[],
    "wof:supersedes":[],
    "wof:tags":[
        "equine",
        "animal"
    ]
},
  "bbox": [
    -79.971299,
    37.477843,
    -79.971299,
    37.477843
],
  "geometry": {"coordinates":[-79.971299,37.477843],"type":"Point"}
}