{
  "id": 739689299,
  "type": "Feature",
  "properties": {
    "edtf:cessation":"uuuu",
    "edtf:inception":"uuuu",
    "geom:area":0.0,
    "geom:bbox":"-77.047593,38.807621,-77.047593,38.807621",
    "geom:latitude":38.807621,
    "geom:longitude":-77.047593,
    "iso:country":"US",
    "sg:address":"312 N Columbus St",
    "sg:city":"Alexandria",
    "sg:classifiers":[
        {
            "category":"Communications",
            "subcategory":"Film & Video Production",
            "type":"Services"
        },
        {
            "category":"Communications",
            "subcategory":"Television Station",
            "type":"Services"
        }
    ],
    "sg:owner":"simplegeo",
    "sg:phone":"+1 703 836 1202",
    "sg:postcode":"22314",
    "sg:province":"VA",
    "sg:tags":[
        "companies-film",
        "producer",
        "tv",
        "program",
        "radio",
        "distributor"
    ],
    "src:geom":"simplegeo",
    "wof:belongsto":[
        85688747,
        102191575,
        85633793,
        101728581,
        102080641,
        85875839
    ],
    "wof:breaches":[],
    "wof:concordances":{
        "sg:id":"SG_0CJEDuFBqtvOl6zUzukeVC_38.807621_-77.047593@1303262546"
    },
    "wof:country":"US",
    "wof:created":1461912328,
    "wof:geomhash":"3b0d756355ec5c7469ce883e51741411",
    "wof:hierarchy":[
        {
            "continent_id":102191575,
            "country_id":85633793,
            "county_id":102080641,
            "locality_id":101728581,
            "neighbourhood_id":85875839,
            "region_id":85688747,
            "venue_id":739689299
        }
    ],
    "wof:id":739689299,
    "wof:lastmodified":1461912328,
    "wof:name":"Sandra L Northrop",
    "wof:parent_id":85875839,
    "wof:placetype":"venue",
    "wof:superseded_by":[],
    "wof:supersedes":[],
    "wof:tags":[
        "companies-film",
        "producer",
        "tv",
        "program",
        "radio",
        "distributor"
    ]
},
  "bbox": [
    -77.047593,
    38.807621,
    -77.047593,
    38.807621
],
  "geometry": {"coordinates":[-77.04759300000001,38.807621],"type":"Point"}
}