{
  "id": 722861965,
  "type": "Feature",
  "properties": {
    "edtf:cessation":"uuuu",
    "edtf:inception":"uuuu",
    "geom:area":0.0,
    "geom:bbox":"-77.41211,38.861906,-77.41211,38.861906",
    "geom:latitude":38.861906,
    "geom:longitude":-77.41211,
    "iso:country":"US",
    "sg:address":"13453 Marble Rock Dr",
    "sg:city":"Chantilly",
    "sg:classifiers":[
        {
            "category":"Professional",
            "subcategory":"Computer Services",
            "type":"Services"
        }
    ],
    "sg:owner":"simplegeo",
    "sg:phone":"+1 703 266 0867",
    "sg:postcode":"20151",
    "sg:province":"VA",
    "sg:tags":[
        "design",
        "system",
        "related"
    ],
    "src:geom":"simplegeo",
    "wof:belongsto":[],
    "wof:breaches":[],
    "wof:concordances":{
        "sg:id":"SG_7cPpKw6JyTtbHyTftknJjP_38.861906_-77.412110@1294252573"
    },
    "wof:country":"US",
    "wof:created":1461890051,
    "wof:geomhash":"7e21469dc85543f6594ff47992844b27",
    "wof:hierarchy":[],
    "wof:id":722861965,
    "wof:lastmodified":1461890051,
    "wof:name":"G&N Corp",
    "wof:parent_id":-1,
    "wof:placetype":"venue",
    "wof:superseded_by":[],
    "wof:supersedes":[],
    "wof:tags":[
        "design",
        "system",
        "related"
    ]
},
  "bbox": [
    -77.41211,
    38.861906,
    -77.41211,
    38.861906
],
  "geometry": {"coordinates":[-77.41211,38.861906],"type":"Point"}
}