{
  "id": 723134383,
  "type": "Feature",
  "properties": {
    "edtf:cessation":"uuuu",
    "edtf:inception":"uuuu",
    "geom:area":0.0,
    "geom:bbox":"-77.330816,38.00479,-77.330816,38.00479",
    "geom:latitude":38.00479,
    "geom:longitude":-77.330816,
    "iso:country":"US",
    "sg:address":"18204 Sparta Rd",
    "sg:city":"Milford",
    "sg:classifiers":[
        {
            "category":"Health Services",
            "subcategory":"Doctor",
            "type":"Services"
        }
    ],
    "sg:owner":"simplegeo",
    "sg:phone":"+1 804 633 2171",
    "sg:postcode":"22514",
    "sg:province":"VA",
    "sg:tags":[
        "dentist"
    ],
    "src:geom":"simplegeo",
    "wof:belongsto":[],
    "wof:breaches":[],
    "wof:concordances":{
        "sg:id":"SG_4iwa2FYeFpElhaOEpQ5lEE_38.004790_-77.330816@1294252573"
    },
    "wof:country":"US",
    "wof:created":1461895782,
    "wof:geomhash":"65e958d2da13eeebc79724a1be393981",
    "wof:hierarchy":[],
    "wof:id":723134383,
    "wof:lastmodified":1461895782,
    "wof:name":"Michael N Trahos LTD",
    "wof:parent_id":-1,
    "wof:placetype":"venue",
    "wof:superseded_by":[],
    "wof:supersedes":[],
    "wof:tags":[
        "dentist"
    ]
},
  "bbox": [
    -77.330816,
    38.00479,
    -77.330816,
    38.00479
],
  "geometry": {"coordinates":[-77.330816,38.00479],"type":"Point"}
}