{
  "id": 739269651,
  "type": "Feature",
  "properties": {
    "edtf:cessation":"uuuu",
    "edtf:inception":"uuuu",
    "geom:area":0.0,
    "geom:bbox":"-79.685864,36.657004,-79.685864,36.657004",
    "geom:latitude":36.657004,
    "geom:longitude":-79.685864,
    "iso:country":"US",
    "sg:address":"620 Gallery Rd",
    "sg:city":"Axton",
    "sg:classifiers":[
        {
            "category":"Building & Trades",
            "subcategory":"Construction",
            "type":"Services"
        }
    ],
    "sg:owner":"simplegeo",
    "sg:phone":"+1 276 650 3993",
    "sg:postcode":"24054",
    "sg:province":"VA",
    "sg:tags":[
        "concrete",
        "contractor"
    ],
    "src:geom":"simplegeo",
    "wof:belongsto":[],
    "wof:breaches":[],
    "wof:concordances":{
        "sg:id":"SG_0nto08EGzZrlWNgKv6nxsG_36.657004_-79.685864@1294252573"
    },
    "wof:country":"US",
    "wof:created":1461903904,
    "wof:geomhash":"e72c1aeaa3fcd8ee129da2cf615603e4",
    "wof:hierarchy":[],
    "wof:id":739269651,
    "wof:lastmodified":1461903904,
    "wof:name":"Commonwealth Concrete",
    "wof:parent_id":420547051,
    "wof:placetype":"venue",
    "wof:superseded_by":[],
    "wof:supersedes":[],
    "wof:tags":[
        "concrete",
        "contractor"
    ]
},
  "bbox": [
    -79.685864,
    36.657004,
    -79.685864,
    36.657004
],
  "geometry": {"coordinates":[-79.685864,36.657004],"type":"Point"}
}