{
  "id": 722973725,
  "type": "Feature",
  "properties": {
    "edtf:cessation":"uuuu",
    "edtf:inception":"uuuu",
    "geom:area":0.0,
    "geom:bbox":"-77.49482,38.252926,-77.49482,38.252926",
    "geom:latitude":38.252926,
    "geom:longitude":-77.49482,
    "iso:country":"US",
    "sg:address":"4718 Carr Dr",
    "sg:city":"Fredericksburg",
    "sg:classifiers":[
        {
            "category":"Health Services",
            "subcategory":"Doctor",
            "type":"Services"
        }
    ],
    "sg:owner":"simplegeo",
    "sg:phone":"+1 540 891 8935",
    "sg:postcode":"22408",
    "sg:province":"VA",
    "sg:tags":[
        "physician",
        "surgeon"
    ],
    "src:geom":"simplegeo",
    "wof:belongsto":[],
    "wof:breaches":[],
    "wof:concordances":{
        "sg:id":"SG_4cKnF509ZIvtfTw3QwVf8i_38.252926_-77.494820@1294252573"
    },
    "wof:country":"US",
    "wof:created":1461892323,
    "wof:geomhash":"280dc9f2eb9f774e8bebc26535fa9d94",
    "wof:hierarchy":[],
    "wof:id":722973725,
    "wof:lastmodified":1461892323,
    "wof:name":"Medical Collection Svc",
    "wof:parent_id":-1,
    "wof:placetype":"venue",
    "wof:superseded_by":[],
    "wof:supersedes":[],
    "wof:tags":[
        "physician",
        "surgeon"
    ]
},
  "bbox": [
    -77.49482,
    38.252926,
    -77.49482,
    38.252926
],
  "geometry": {"coordinates":[-77.49482,38.252926],"type":"Point"}
}