{
  "id": 723390103,
  "type": "Feature",
  "properties": {
    "edtf:cessation":"uuuu",
    "edtf:inception":"uuuu",
    "geom:area":0.0,
    "geom:bbox":"-80.324261,36.919387,-80.324261,36.919387",
    "geom:latitude":36.919387,
    "geom:longitude":-80.324261,
    "iso:country":"US",
    "sg:address":"260 Webbs Mill Rd N",
    "sg:city":"Floyd",
    "sg:classifiers":[
        {
            "category":"Health Services",
            "subcategory":"Doctor",
            "type":"Services"
        }
    ],
    "sg:owner":"simplegeo",
    "sg:phone":"+1 540 745 2266",
    "sg:postcode":"24091",
    "sg:province":"VA",
    "sg:tags":[
        "clinic"
    ],
    "src:geom":"simplegeo",
    "wof:belongsto":[],
    "wof:breaches":[],
    "wof:concordances":{
        "sg:id":"SG_38NGw0ZdCKaHeffZ5JIYVf_36.919387_-80.324261@1294252573"
    },
    "wof:country":"US",
    "wof:created":1461900770,
    "wof:geomhash":"107820ca590e21e5246a34aab1614717",
    "wof:hierarchy":[],
    "wof:id":723390103,
    "wof:lastmodified":1461900770,
    "wof:name":"Floyd County Clinic",
    "wof:parent_id":-1,
    "wof:placetype":"venue",
    "wof:superseded_by":[],
    "wof:supersedes":[],
    "wof:tags":[
        "clinic"
    ]
},
  "bbox": [
    -80.324261,
    36.919387,
    -80.324261,
    36.919387
],
  "geometry": {"coordinates":[-80.32426100000001,36.919387],"type":"Point"}
}