{
  "id": 739385975,
  "type": "Feature",
  "properties": {
    "edtf:cessation":"uuuu",
    "edtf:inception":"uuuu",
    "geom:area":0.0,
    "geom:bbox":"-77.330817,37.613518,-77.330817,37.613518",
    "geom:latitude":37.613518,
    "geom:longitude":-77.330817,
    "iso:country":"US",
    "sg:address":"6493 Mechanicsville Tpke",
    "sg:city":"Mechanicsville",
    "sg:classifiers":[
        {
            "category":"Restaurant",
            "subcategory":"",
            "type":"Food & Drink"
        }
    ],
    "sg:owner":"simplegeo",
    "sg:phone":"+1 804 730 6777",
    "sg:postcode":"23111",
    "sg:province":"VA",
    "src:geom":"simplegeo",
    "wof:belongsto":[],
    "wof:breaches":[],
    "wof:concordances":{
        "sg:id":"SG_6hCvJ3FpM7JDrG9dquMr8G_37.613518_-77.330817@1294252573"
    },
    "wof:country":"US",
    "wof:created":1461906307,
    "wof:geomhash":"3f2511f1155284a446e0914840f213ad",
    "wof:hierarchy":[],
    "wof:id":739385975,
    "wof:lastmodified":1461906307,
    "wof:name":"Five Guys Hamburgers & Fries",
    "wof:parent_id":-1,
    "wof:placetype":"venue",
    "wof:superseded_by":[],
    "wof:supersedes":[],
    "wof:tags":[]
},
  "bbox": [
    -77.330817,
    37.613518,
    -77.330817,
    37.613518
],
  "geometry": {"coordinates":[-77.330817,37.613518],"type":"Point"}
}