{
  "id": 723422059,
  "type": "Feature",
  "properties": {
    "edtf:cessation":"uuuu",
    "edtf:inception":"uuuu",
    "geom:area":0.0,
    "geom:bbox":"-78.668423,38.651007,-78.668423,38.651007",
    "geom:latitude":38.651007,
    "geom:longitude":-78.668423,
    "iso:country":"US",
    "sg:address":"9184 John Sevier Rd",
    "sg:city":"New Market",
    "sg:classifiers":[
        {
            "category":"Real Estate",
            "subcategory":"Surveying",
            "type":"Services"
        }
    ],
    "sg:owner":"simplegeo",
    "sg:phone":"+1 540 740 2928",
    "sg:postcode":"22844",
    "sg:province":"VA",
    "src:geom":"simplegeo",
    "wof:belongsto":[],
    "wof:breaches":[],
    "wof:concordances":{
        "sg:id":"SG_3SHnkR03q808NNVVSz53kr_38.651007_-78.668423@1294252573"
    },
    "wof:country":"US",
    "wof:created":1461901396,
    "wof:geomhash":"ea93d9526df728be3051fd02aad6f80c",
    "wof:hierarchy":[],
    "wof:id":723422059,
    "wof:lastmodified":1461901396,
    "wof:name":"George E Foard Ls",
    "wof:parent_id":-1,
    "wof:placetype":"venue",
    "wof:superseded_by":[],
    "wof:supersedes":[],
    "wof:tags":[]
},
  "bbox": [
    -78.668423,
    38.651007,
    -78.668423,
    38.651007
],
  "geometry": {"coordinates":[-78.668423,38.651007],"type":"Point"}
}