{
  "id": 739577795,
  "type": "Feature",
  "properties": {
    "edtf:cessation":"uuuu",
    "edtf:inception":"uuuu",
    "geom:area":0.0,
    "geom:bbox":"-77.469746,39.061806,-77.469746,39.061806",
    "geom:latitude":39.061806,
    "geom:longitude":-77.469746,
    "iso:country":"US",
    "sg:address":"20035 Ashbrook Commons Plz",
    "sg:city":"Ashburn",
    "sg:classifiers":[
        {
            "category":"Coffee & Tea",
            "subcategory":"",
            "type":"Food & Drink"
        }
    ],
    "sg:menulink":"http://www.allmenus.com/va/broad-run/111945-starbucks-coffee/menu/",
    "sg:owner":"simplegeo",
    "sg:phone":"+1 703 723 3065",
    "sg:postcode":"20147",
    "sg:province":"VA",
    "sg:tags":[
        "american"
    ],
    "src:geom":"simplegeo",
    "wof:belongsto":[],
    "wof:breaches":[],
    "wof:concordances":{
        "sg:id":"SG_5FaPLrumNhxTISHRgrX57L_39.061806_-77.469746@1299784598"
    },
    "wof:country":"US",
    "wof:created":1461909958,
    "wof:geomhash":"b74c46ca57c2a58a2e20f7bdf41805a9",
    "wof:hierarchy":[],
    "wof:id":739577795,
    "wof:lastmodified":1461909958,
    "wof:name":"Starbucks Coffee",
    "wof:parent_id":-1,
    "wof:placetype":"venue",
    "wof:superseded_by":[],
    "wof:supersedes":[],
    "wof:tags":[
        "american"
    ]
},
  "bbox": [
    -77.469746,
    39.061806,
    -77.469746,
    39.061806
],
  "geometry": {"coordinates":[-77.469746,39.061806],"type":"Point"}
}