{
  "id": 739346605,
  "type": "Feature",
  "properties": {
    "edtf:cessation":"uuuu",
    "edtf:inception":"uuuu",
    "geom:area":0.0,
    "geom:bbox":"-77.508945,37.594008,-77.508945,37.594008",
    "geom:latitude":37.594008,
    "geom:longitude":-77.508945,
    "iso:country":"US",
    "sg:address":"6013 W Broad St",
    "sg:city":"Richmond",
    "sg:classifiers":[
        {
            "category":"Manufacturing",
            "subcategory":"Furniture",
            "type":"Manufacturing & Wholesale Goods"
        }
    ],
    "sg:owner":"simplegeo",
    "sg:phone":"+1 804 288 2819",
    "sg:postcode":"23230",
    "sg:province":"VA",
    "sg:tags":[
        "blind",
        "shades",
        "mfg"
    ],
    "src:geom":"simplegeo",
    "wof:belongsto":[],
    "wof:breaches":[],
    "wof:concordances":{
        "sg:id":"SG_14D9DWCAF1fdkjTXAnz5nZ_37.594008_-77.508945@1294252573"
    },
    "wof:country":"US",
    "wof:created":1461905535,
    "wof:geomhash":"63cec757c5939bf7812ffc820602bd84",
    "wof:hierarchy":[],
    "wof:id":739346605,
    "wof:lastmodified":1461905535,
    "wof:name":"Mann-Kdwell Intr Win Tratments",
    "wof:parent_id":-1,
    "wof:placetype":"venue",
    "wof:superseded_by":[],
    "wof:supersedes":[],
    "wof:tags":[
        "blind",
        "shades",
        "mfg"
    ]
},
  "bbox": [
    -77.508945,
    37.594008,
    -77.508945,
    37.594008
],
  "geometry": {"coordinates":[-77.508945,37.594008],"type":"Point"}
}