{
  "id": 723048693,
  "type": "Feature",
  "properties": {
    "edtf:cessation":"uuuu",
    "edtf:inception":"uuuu",
    "geom:area":0.0,
    "geom:bbox":"-77.287962,37.247562,-77.287962,37.247562",
    "geom:latitude":37.247562,
    "geom:longitude":-77.287962,
    "iso:country":"US",
    "sg:address":"4957 Warwick Ct",
    "sg:city":"Prince George",
    "sg:classifiers":[
        {
            "category":"Building & Trades",
            "subcategory":"Plumbing",
            "type":"Services"
        }
    ],
    "sg:owner":"simplegeo",
    "sg:phone":"+1 804 458 6711",
    "sg:postcode":"23875",
    "sg:province":"VA",
    "sg:tags":[
        "contractor"
    ],
    "src:geom":"simplegeo",
    "wof:belongsto":[],
    "wof:breaches":[],
    "wof:concordances":{
        "sg:id":"SG_0Dk6m9wzXggzd9QsyHaOXT_37.247562_-77.287962@1294252573"
    },
    "wof:country":"US",
    "wof:created":1461893982,
    "wof:geomhash":"c2dcb43ebc72073cf948e04719c680aa",
    "wof:hierarchy":[],
    "wof:id":723048693,
    "wof:lastmodified":1461893982,
    "wof:name":"JC Plumbing Sewer Servic",
    "wof:parent_id":-1,
    "wof:placetype":"venue",
    "wof:superseded_by":[],
    "wof:supersedes":[],
    "wof:tags":[
        "contractor"
    ]
},
  "bbox": [
    -77.287962,
    37.247562,
    -77.287962,
    37.247562
],
  "geometry": {"coordinates":[-77.28796199999999,37.247562],"type":"Point"}
}