{
  "id": 739367463,
  "type": "Feature",
  "properties": {
    "edtf:cessation":"uuuu",
    "edtf:inception":"uuuu",
    "geom:area":0.0,
    "geom:bbox":"-77.284523,37.305174,-77.284523,37.305174",
    "geom:latitude":37.305174,
    "geom:longitude":-77.284523,
    "iso:country":"US",
    "sg:address":"205 E Broadway Ave",
    "sg:city":"Hopewell",
    "sg:classifiers":[
        {
            "category":"Building & Trades",
            "subcategory":"Construction",
            "type":"Services"
        }
    ],
    "sg:owner":"simplegeo",
    "sg:phone":"+1 804 452 3066",
    "sg:postcode":"23860",
    "sg:province":"VA",
    "sg:tags":[
        "repair",
        "contractor"
    ],
    "src:geom":"simplegeo",
    "wof:belongsto":[],
    "wof:breaches":[],
    "wof:concordances":{
        "sg:id":"SG_3FRDmwjjbNDVnsYSY201rG_37.305174_-77.284523@1294252573"
    },
    "wof:country":"US",
    "wof:created":1461905953,
    "wof:geomhash":"b72f2b9c8a6c669b0c8be96e870f23a9",
    "wof:hierarchy":[],
    "wof:id":739367463,
    "wof:lastmodified":1461905953,
    "wof:name":"A1 Tubmaster",
    "wof:parent_id":-1,
    "wof:placetype":"venue",
    "wof:superseded_by":[],
    "wof:supersedes":[],
    "wof:tags":[
        "repair",
        "contractor"
    ]
},
  "bbox": [
    -77.284523,
    37.305174,
    -77.284523,
    37.305174
],
  "geometry": {"coordinates":[-77.28452299999999,37.305174],"type":"Point"}
}