{
  "id": 722996525,
  "type": "Feature",
  "properties": {
    "edtf:cessation":"uuuu",
    "edtf:inception":"uuuu",
    "geom:area":0.0,
    "geom:bbox":"-77.538125,38.285361,-77.538125,38.285361",
    "geom:latitude":38.285361,
    "geom:longitude":-77.538125,
    "iso:country":"US",
    "sg:address":"11900 Madison Ct",
    "sg:city":"Fredericksburg",
    "sg:classifiers":[
        {
            "category":"Building & Trades",
            "subcategory":"Construction",
            "type":"Services"
        }
    ],
    "sg:owner":"simplegeo",
    "sg:phone":"+1 540 785 0411",
    "sg:postcode":"22407",
    "sg:province":"VA",
    "sg:tags":[
        "contractor"
    ],
    "src:geom":"simplegeo",
    "wof:belongsto":[],
    "wof:breaches":[],
    "wof:concordances":{
        "sg:id":"SG_6lk9PFBVeGrW8RUxNlbeaa_38.285361_-77.538125@1294252573"
    },
    "wof:country":"US",
    "wof:created":1461892822,
    "wof:geomhash":"d0ac3760582cc1e0b48b2c7303ad5bcb",
    "wof:hierarchy":[],
    "wof:id":722996525,
    "wof:lastmodified":1461892822,
    "wof:name":"Zuna Construction",
    "wof:parent_id":-1,
    "wof:placetype":"venue",
    "wof:superseded_by":[],
    "wof:supersedes":[],
    "wof:tags":[
        "contractor"
    ]
},
  "bbox": [
    -77.538125,
    38.285361,
    -77.538125,
    38.285361
],
  "geometry": {"coordinates":[-77.53812499999999,38.285361],"type":"Point"}
}