{
  "id": 723309563,
  "type": "Feature",
  "properties": {
    "edtf:cessation":"uuuu",
    "edtf:inception":"uuuu",
    "geom:area":0.0,
    "geom:bbox":"-77.422521,37.398567,-77.422521,37.398567",
    "geom:latitude":37.398567,
    "geom:longitude":-77.422521,
    "iso:country":"US",
    "sg:address":"9410 Burge Ave",
    "sg:city":"Richmond",
    "sg:classifiers":[
        {
            "category":"Building & Trades",
            "subcategory":"Construction",
            "type":"Services"
        }
    ],
    "sg:owner":"simplegeo",
    "sg:phone":"+1 804 275 6100",
    "sg:postcode":"23237",
    "sg:province":"VA",
    "sg:tags":[
        "equipment",
        "millwright",
        "installation",
        "machinery"
    ],
    "src:geom":"simplegeo",
    "wof:belongsto":[],
    "wof:breaches":[],
    "wof:concordances":{
        "sg:id":"SG_3j0Oy0QAKEzE4C0sSV6o3O_37.398567_-77.422521@1294252573"
    },
    "wof:country":"US",
    "wof:created":1461899255,
    "wof:geomhash":"f84f9b5528e6d9a7c483174f9eaea63b",
    "wof:hierarchy":[],
    "wof:id":723309563,
    "wof:lastmodified":1461899255,
    "wof:name":"M & R Constructors Inc",
    "wof:parent_id":-1,
    "wof:placetype":"venue",
    "wof:superseded_by":[],
    "wof:supersedes":[],
    "wof:tags":[
        "equipment",
        "millwright",
        "installation",
        "machinery"
    ]
},
  "bbox": [
    -77.422521,
    37.398567,
    -77.422521,
    37.398567
],
  "geometry": {"coordinates":[-77.422521,37.398567],"type":"Point"}
}