{
  "id": 722665385,
  "type": "Feature",
  "properties": {
    "edtf:cessation":"uuuu",
    "edtf:inception":"uuuu",
    "geom:area":0.0,
    "geom:bbox":"-78.514712,38.26843,-78.514712,38.26843",
    "geom:latitude":38.26843,
    "geom:longitude":-78.514712,
    "iso:country":"US",
    "sg:address":"174 Emanuel Ln",
    "sg:city":"Stanardsville",
    "sg:classifiers":[
        {
            "category":"Professional",
            "subcategory":"",
            "type":"Services"
        }
    ],
    "sg:owner":"simplegeo",
    "sg:phone":"+1 434 985 3694",
    "sg:postcode":"22973",
    "sg:province":"VA",
    "sg:tags":[
        "establishment"
    ],
    "src:geom":"simplegeo",
    "wof:belongsto":[],
    "wof:breaches":[],
    "wof:concordances":{
        "sg:id":"SG_1qc02KRI21oLh4EijZRT25_38.268430_-78.514712@1294252573"
    },
    "wof:country":"US",
    "wof:created":1461886309,
    "wof:geomhash":"60fec540a7d0719279207622a2e6cf5d",
    "wof:hierarchy":[],
    "wof:id":722665385,
    "wof:lastmodified":1461886309,
    "wof:name":"Local Monthly Shopper",
    "wof:parent_id":-1,
    "wof:placetype":"venue",
    "wof:superseded_by":[],
    "wof:supersedes":[],
    "wof:tags":[
        "establishment"
    ]
},
  "bbox": [
    -78.514712,
    38.26843,
    -78.514712,
    38.26843
],
  "geometry": {"coordinates":[-78.514712,38.26843],"type":"Point"}
}