{
  "id": 723319945,
  "type": "Feature",
  "properties": {
    "edtf:cessation":"uuuu",
    "edtf:inception":"uuuu",
    "geom:area":0.0,
    "geom:bbox":"-77.589551,39.190377,-77.589551,39.190377",
    "geom:latitude":39.190377,
    "geom:longitude":-77.589551,
    "iso:country":"US",
    "sg:address":"40817 Browns Ln",
    "sg:city":"Waterford",
    "sg:classifiers":[
        {
            "category":"Farming",
            "subcategory":"Livestock Farm",
            "type":"Manufacturing & Wholesale Goods"
        }
    ],
    "sg:owner":"simplegeo",
    "sg:phone":"+1 540 882 3871",
    "sg:postcode":"20197",
    "sg:province":"VA",
    "sg:tags":[
        "beef",
        "feedlot",
        "cattle"
    ],
    "src:geom":"simplegeo",
    "wof:belongsto":[],
    "wof:breaches":[],
    "wof:concordances":{
        "sg:id":"SG_0XGyRMntGchQu4Y4GJwr9s_39.190377_-77.589551@1294252573"
    },
    "wof:country":"US",
    "wof:created":1461899448,
    "wof:geomhash":"a443a2d8fd4ed90c84f517d202631aa0",
    "wof:hierarchy":[],
    "wof:id":723319945,
    "wof:lastmodified":1461899448,
    "wof:name":"Webster Heath",
    "wof:parent_id":-1,
    "wof:placetype":"venue",
    "wof:superseded_by":[],
    "wof:supersedes":[],
    "wof:tags":[
        "beef",
        "feedlot",
        "cattle"
    ]
},
  "bbox": [
    -77.589551,
    39.190377,
    -77.589551,
    39.190377
],
  "geometry": {"coordinates":[-77.589551,39.190377],"type":"Point"}
}