{
  "id": 723221839,
  "type": "Feature",
  "properties": {
    "edtf:cessation":"uuuu",
    "edtf:inception":"uuuu",
    "geom:area":0.0,
    "geom:bbox":"-77.495742,37.635466,-77.495742,37.635466",
    "geom:latitude":37.635466,
    "geom:longitude":-77.495742,
    "iso:country":"US",
    "sg:address":"3912 Trickling Brook Dr",
    "sg:city":"Richmond",
    "sg:classifiers":[
        {
            "category":"Freight",
            "subcategory":"",
            "type":"Transportation"
        }
    ],
    "sg:owner":"simplegeo",
    "sg:phone":"+1 804 264 2602",
    "sg:postcode":"23228",
    "sg:province":"VA",
    "src:geom":"simplegeo",
    "wof:belongsto":[],
    "wof:breaches":[],
    "wof:concordances":{
        "sg:id":"SG_5taZfinpLxe1Dy6hPMlt5i_37.635466_-77.495742@1294252573"
    },
    "wof:country":"US",
    "wof:created":1461897537,
    "wof:geomhash":"b4b740b8ecf96e67b4130b7ffa3468e3",
    "wof:hierarchy":[],
    "wof:id":723221839,
    "wof:lastmodified":1461897537,
    "wof:name":"Action Freight",
    "wof:parent_id":-1,
    "wof:placetype":"venue",
    "wof:superseded_by":[],
    "wof:supersedes":[],
    "wof:tags":[]
},
  "bbox": [
    -77.495742,
    37.635466,
    -77.495742,
    37.635466
],
  "geometry": {"coordinates":[-77.49574200000001,37.635466],"type":"Point"}
}