{
  "id": 723325501,
  "type": "Feature",
  "properties": {
    "edtf:cessation":"uuuu",
    "edtf:inception":"uuuu",
    "geom:area":0.0,
    "geom:bbox":"-77.630784,38.735419,-77.630784,38.735419",
    "geom:latitude":38.735419,
    "geom:longitude":-77.630784,
    "iso:country":"US",
    "sg:address":"10074 Greenwich Wood Dr",
    "sg:city":"Nokesville",
    "sg:classifiers":[
        {
            "category":"Organizations",
            "subcategory":"Community Association",
            "type":"Services"
        }
    ],
    "sg:owner":"simplegeo",
    "sg:phone":"+1 703 754 8020",
    "sg:postcode":"20181",
    "sg:province":"VA",
    "src:geom":"simplegeo",
    "wof:belongsto":[],
    "wof:breaches":[],
    "wof:concordances":{
        "sg:id":"SG_1ulUpyw7dOvCyE8nq14r5w_38.735419_-77.630784@1294252573"
    },
    "wof:country":"US",
    "wof:created":1461899549,
    "wof:geomhash":"2dd20366b02f2ccf07da0150c45ffd48",
    "wof:hierarchy":[],
    "wof:id":723325501,
    "wof:lastmodified":1461899549,
    "wof:name":"Greenwich Wood Property Assoc",
    "wof:parent_id":-1,
    "wof:placetype":"venue",
    "wof:superseded_by":[],
    "wof:supersedes":[],
    "wof:tags":[]
},
  "bbox": [
    -77.630784,
    38.735419,
    -77.630784,
    38.735419
],
  "geometry": {"coordinates":[-77.63078400000001,38.735419],"type":"Point"}
}