{
  "id": 722618791,
  "type": "Feature",
  "properties": {
    "edtf:cessation":"uuuu",
    "edtf:inception":"uuuu",
    "geom:area":0.0,
    "geom:bbox":"-77.554017,38.254445,-77.554017,38.254445",
    "geom:latitude":38.254445,
    "geom:longitude":-77.554017,
    "iso:country":"US",
    "sg:address":"10919 Holleybrooke Dr",
    "sg:city":"Spotsylvania",
    "sg:classifiers":[
        {
            "category":"Government",
            "subcategory":"Fire Station",
            "type":"Public Place"
        }
    ],
    "sg:owner":"simplegeo",
    "sg:phone":"+1 540 548 3197",
    "sg:postcode":"22553",
    "sg:province":"VA",
    "sg:tags":[
        "instructor"
    ],
    "src:geom":"simplegeo",
    "wof:belongsto":[],
    "wof:breaches":[],
    "wof:concordances":{
        "sg:id":"SG_23gpCxA31YAXxlLTe4621g_38.254445_-77.554017@1294252573"
    },
    "wof:country":"US",
    "wof:created":1461885340,
    "wof:geomhash":"5d7e53a099a961bfd9a4ae09f93edf51",
    "wof:hierarchy":[],
    "wof:id":722618791,
    "wof:lastmodified":1461885340,
    "wof:name":"Steven Weissman",
    "wof:parent_id":-1,
    "wof:placetype":"venue",
    "wof:superseded_by":[],
    "wof:supersedes":[],
    "wof:tags":[
        "instructor"
    ]
},
  "bbox": [
    -77.554017,
    38.254445,
    -77.554017,
    38.254445
],
  "geometry": {"coordinates":[-77.554017,38.254445],"type":"Point"}
}