{
  "id": 722728499,
  "type": "Feature",
  "properties": {
    "edtf:cessation":"uuuu",
    "edtf:inception":"uuuu",
    "geom:area":0.0,
    "geom:bbox":"-77.640969,37.628751,-77.640969,37.628751",
    "geom:latitude":37.628751,
    "geom:longitude":-77.640969,
    "iso:country":"US",
    "sg:address":"12307 Frisco Dr",
    "sg:city":"Richmond",
    "sg:classifiers":[
        {
            "category":"Communications",
            "subcategory":"Film & Video Production",
            "type":"Services"
        }
    ],
    "sg:owner":"simplegeo",
    "sg:phone":"+1 804 364 0992",
    "sg:postcode":"23233",
    "sg:province":"VA",
    "sg:tags":[
        "taping"
    ],
    "src:geom":"simplegeo",
    "wof:belongsto":[],
    "wof:breaches":[],
    "wof:concordances":{
        "sg:id":"SG_05i4h6Y3r2865JGq2PDE1V_37.628751_-77.640969@1294252573"
    },
    "wof:country":"US",
    "wof:created":1461887498,
    "wof:geomhash":"585a70772c02a82d19f49e5fe45af705",
    "wof:hierarchy":[],
    "wof:id":722728499,
    "wof:lastmodified":1461887498,
    "wof:name":"Video Department",
    "wof:parent_id":-1,
    "wof:placetype":"venue",
    "wof:superseded_by":[],
    "wof:supersedes":[],
    "wof:tags":[
        "taping"
    ]
},
  "bbox": [
    -77.640969,
    37.628751,
    -77.640969,
    37.628751
],
  "geometry": {"coordinates":[-77.640969,37.628751],"type":"Point"}
}