{
  "id": 739688911,
  "type": "Feature",
  "properties": {
    "edtf:cessation":"uuuu",
    "edtf:inception":"uuuu",
    "geom:area":0.0,
    "geom:bbox":"-77.040298,38.8148,-77.040298,38.8148",
    "geom:latitude":38.8148,
    "geom:longitude":-77.040298,
    "iso:country":"US",
    "sg:address":"1010 N Fairfax St",
    "sg:city":"Alexandria",
    "sg:classifiers":[
        {
            "category":"Professional",
            "subcategory":"Accounting & Tax Preparation",
            "type":"Services"
        }
    ],
    "sg:owner":"simplegeo",
    "sg:phone":"+1 703 549 2228",
    "sg:postcode":"22314",
    "sg:province":"VA",
    "sg:tags":[
        "accountant"
    ],
    "src:geom":"simplegeo",
    "wof:belongsto":[],
    "wof:breaches":[],
    "wof:concordances":{
        "sg:id":"SG_6PLA3qNIFfzjNY9rGpwFQa_38.814800_-77.040298@1303262546"
    },
    "wof:country":"US",
    "wof:created":1461912322,
    "wof:geomhash":"64ac024ea95a64c2014e5984580f98e8",
    "wof:hierarchy":[],
    "wof:id":739688911,
    "wof:lastmodified":1461912322,
    "wof:name":"Accreditation Council For Accountancy & Taxation",
    "wof:parent_id":-1,
    "wof:placetype":"venue",
    "wof:superseded_by":[],
    "wof:supersedes":[],
    "wof:tags":[
        "accountant"
    ]
},
  "bbox": [
    -77.040298,
    38.8148,
    -77.040298,
    38.8148
],
  "geometry": {"coordinates":[-77.04029800000001,38.8148],"type":"Point"}
}