{
  "id": 723092693,
  "type": "Feature",
  "properties": {
    "edtf:cessation":"uuuu",
    "edtf:inception":"uuuu",
    "geom:area":0.0,
    "geom:bbox":"-77.487325,39.079642,-77.487325,39.079642",
    "geom:latitude":39.079642,
    "geom:longitude":-77.487325,
    "iso:country":"US",
    "sg:address":"19416 Mill Dam Pl",
    "sg:city":"Leesburg",
    "sg:classifiers":[
        {
            "category":"Professional",
            "subcategory":"Computer Services",
            "type":"Services"
        }
    ],
    "sg:owner":"simplegeo",
    "sg:phone":"+1 281 989 2064",
    "sg:postcode":"20176",
    "sg:province":"VA",
    "sg:tags":[
        "consulting"
    ],
    "src:geom":"simplegeo",
    "wof:belongsto":[],
    "wof:breaches":[],
    "wof:concordances":{
        "sg:id":"SG_7T1kXyLkL9MopabxBjIuOo_39.079642_-77.487325@1294252573"
    },
    "wof:country":"US",
    "wof:created":1461894971,
    "wof:geomhash":"88e4027b301d301835947ca7df4344ea",
    "wof:hierarchy":[],
    "wof:id":723092693,
    "wof:lastmodified":1461894971,
    "wof:name":"Secure Consulting",
    "wof:parent_id":-1,
    "wof:placetype":"venue",
    "wof:superseded_by":[],
    "wof:supersedes":[],
    "wof:tags":[
        "consulting"
    ]
},
  "bbox": [
    -77.487325,
    39.079642,
    -77.487325,
    39.079642
],
  "geometry": {"coordinates":[-77.487325,39.079642],"type":"Point"}
}