{
  "id": 739710825,
  "type": "Feature",
  "properties": {
    "edtf:cessation":"uuuu",
    "edtf:inception":"uuuu",
    "geom:area":0.0,
    "geom:bbox":"-77.659058,37.465698,-77.659058,37.465698",
    "geom:latitude":37.465698,
    "geom:longitude":-77.659058,
    "iso:country":"US",
    "sg:address":"13700 St Francis Blvd Ste 601",
    "sg:city":"Midlothian",
    "sg:classifiers":[
        {
            "category":"Community Center",
            "subcategory":"",
            "type":"Public Place"
        }
    ],
    "sg:owner":"simplegeo",
    "sg:phone":"+1 804 423 8462",
    "sg:postcode":"23114",
    "sg:province":"VA",
    "sg:tags":[
        "medical"
    ],
    "src:geom":"simplegeo",
    "wof:belongsto":[],
    "wof:breaches":[],
    "wof:concordances":{
        "sg:id":"SG_1C7FkR8cJ0KoM8AOU6J8kI_37.465698_-77.659058@1303262549"
    },
    "wof:country":"US",
    "wof:created":1461912799,
    "wof:geomhash":"e6789e694f49281786e7b0ddf22b6a10",
    "wof:hierarchy":[],
    "wof:id":739710825,
    "wof:lastmodified":1461912799,
    "wof:name":"St Francis Family Medicine Center-The Woman's Center",
    "wof:parent_id":-1,
    "wof:placetype":"venue",
    "wof:superseded_by":[],
    "wof:supersedes":[],
    "wof:tags":[
        "medical"
    ]
},
  "bbox": [
    -77.659058,
    37.465698,
    -77.659058,
    37.465698
],
  "geometry": {"coordinates":[-77.659058,37.465698],"type":"Point"}
}