{
  "id": 722898523,
  "type": "Feature",
  "properties": {
    "edtf:cessation":"uuuu",
    "edtf:inception":"uuuu",
    "geom:area":0.0,
    "geom:bbox":"-77.398427,38.831685,-77.398427,38.831685",
    "geom:latitude":38.831685,
    "geom:longitude":-77.398427,
    "iso:country":"US",
    "sg:address":"5591 Rockpointe Dr",
    "sg:city":"Clifton",
    "sg:classifiers":[
        {
            "category":"Food & Beverages",
            "subcategory":"Groceries & Convenience Stores",
            "type":"Retail Goods"
        }
    ],
    "sg:owner":"simplegeo",
    "sg:phone":"+1 703 330 7562",
    "sg:postcode":"20124",
    "sg:province":"VA",
    "src:geom":"simplegeo",
    "wof:belongsto":[],
    "wof:breaches":[],
    "wof:concordances":{
        "sg:id":"SG_5FCzOJArAxkItTUGSlhOQL_38.831685_-77.398427@1294252573"
    },
    "wof:country":"US",
    "wof:created":1461890764,
    "wof:geomhash":"e9588643e05e9c69e79e1785fe8dc4da",
    "wof:hierarchy":[],
    "wof:id":722898523,
    "wof:lastmodified":1461890764,
    "wof:name":"Apex",
    "wof:parent_id":-1,
    "wof:placetype":"venue",
    "wof:superseded_by":[],
    "wof:supersedes":[],
    "wof:tags":[]
},
  "bbox": [
    -77.398427,
    38.831685,
    -77.398427,
    38.831685
],
  "geometry": {"coordinates":[-77.398427,38.831685],"type":"Point"}
}