{
  "id": 722979335,
  "type": "Feature",
  "properties": {
    "edtf:cessation":"uuuu",
    "edtf:inception":"uuuu",
    "geom:area":0.0,
    "geom:bbox":"-77.387672,39.050301,-77.387672,39.050301",
    "geom:latitude":39.050301,
    "geom:longitude":-77.387672,
    "iso:country":"US",
    "sg:address":"46596 Drysdale Ter",
    "sg:city":"Sterling",
    "sg:classifiers":[
        {
            "category":"Building & Trades",
            "subcategory":"Cleaning & Sanitation",
            "type":"Services"
        }
    ],
    "sg:owner":"simplegeo",
    "sg:phone":"+1 703 404 1744",
    "sg:postcode":"20165",
    "sg:province":"VA",
    "sg:tags":[
        "janitorial"
    ],
    "src:geom":"simplegeo",
    "wof:belongsto":[],
    "wof:breaches":[],
    "wof:concordances":{
        "sg:id":"SG_5qHdRPYJnrNFUhvwwbphao_39.050301_-77.387672@1294252573"
    },
    "wof:country":"US",
    "wof:created":1461892442,
    "wof:geomhash":"745d554f491f0a17e34edb42d3079369",
    "wof:hierarchy":[],
    "wof:id":722979335,
    "wof:lastmodified":1461892442,
    "wof:name":"Annabelle Company LLC",
    "wof:parent_id":-1,
    "wof:placetype":"venue",
    "wof:superseded_by":[],
    "wof:supersedes":[],
    "wof:tags":[
        "janitorial"
    ]
},
  "bbox": [
    -77.387672,
    39.050301,
    -77.387672,
    39.050301
],
  "geometry": {"coordinates":[-77.38767199999999,39.050301],"type":"Point"}
}