{
  "id": 739691025,
  "type": "Feature",
  "properties": {
    "edtf:cessation":"uuuu",
    "edtf:inception":"uuuu",
    "geom:area":0.0,
    "geom:bbox":"-77.059769,38.803108,-77.059769,38.803108",
    "geom:latitude":38.803108,
    "geom:longitude":-77.059769,
    "iso:country":"US",
    "sg:address":"401 Holland Ln Apt 407",
    "sg:city":"Alexandria",
    "sg:classifiers":[
        {
            "category":"Professional",
            "subcategory":"Lawyer & Legal Services",
            "type":"Services"
        }
    ],
    "sg:owner":"simplegeo",
    "sg:phone":"+1 703 838 8013",
    "sg:postcode":"22314",
    "sg:province":"VA",
    "sg:tags":[
        "attorney",
        "copyright",
        "patent",
        "trademark",
        "plan",
        "law"
    ],
    "src:geom":"simplegeo",
    "wof:belongsto":[],
    "wof:breaches":[],
    "wof:concordances":{
        "sg:id":"SG_3YERWATQEXlYObUo8bCiw5_38.803108_-77.059769@1303262546"
    },
    "wof:country":"US",
    "wof:created":1461912363,
    "wof:geomhash":"b4885e436d003e9fd25ee8b3d88f98c8",
    "wof:hierarchy":[],
    "wof:id":739691025,
    "wof:lastmodified":1461912363,
    "wof:name":"Taiyo Corporation",
    "wof:parent_id":-1,
    "wof:placetype":"venue",
    "wof:superseded_by":[],
    "wof:supersedes":[],
    "wof:tags":[
        "attorney",
        "copyright",
        "patent",
        "trademark",
        "plan",
        "law"
    ]
},
  "bbox": [
    -77.059769,
    38.803108,
    -77.059769,
    38.803108
],
  "geometry": {"coordinates":[-77.059769,38.803108],"type":"Point"}
}