{
  "id": 723339715,
  "type": "Feature",
  "properties": {
    "edtf:cessation":"uuuu",
    "edtf:inception":"uuuu",
    "geom:area":0.0,
    "geom:bbox":"-77.41584,38.832006,-77.41584,38.832006",
    "geom:latitude":38.832006,
    "geom:longitude":-77.41584,
    "iso:country":"US",
    "sg:address":"13503 Orchard Dr",
    "sg:city":"Clifton",
    "sg:classifiers":[
        {
            "category":"Health Services",
            "subcategory":"Medical Lab",
            "type":"Services"
        }
    ],
    "sg:owner":"simplegeo",
    "sg:phone":"+1 703 802 4882",
    "sg:postcode":"20124",
    "sg:province":"VA",
    "sg:tags":[
        "laboratory"
    ],
    "src:geom":"simplegeo",
    "wof:belongsto":[],
    "wof:breaches":[],
    "wof:concordances":{
        "sg:id":"SG_0SFlhKe885JfIwdi68mdWT_38.832006_-77.415840@1294252573"
    },
    "wof:country":"US",
    "wof:created":1461899804,
    "wof:geomhash":"0a64a669bcba34de057493d02392ba04",
    "wof:hierarchy":[],
    "wof:id":723339715,
    "wof:lastmodified":1461899804,
    "wof:name":"Ortho Art",
    "wof:parent_id":-1,
    "wof:placetype":"venue",
    "wof:superseded_by":[],
    "wof:supersedes":[],
    "wof:tags":[
        "laboratory"
    ]
},
  "bbox": [
    -77.41584,
    38.832006,
    -77.41584,
    38.832006
],
  "geometry": {"coordinates":[-77.41584,38.832006],"type":"Point"}
}