{
  "id": 722956661,
  "type": "Feature",
  "properties": {
    "edtf:cessation":"uuuu",
    "edtf:inception":"uuuu",
    "geom:area":0.0,
    "geom:bbox":"-76.725464,36.835707,-76.725464,36.835707",
    "geom:latitude":36.835707,
    "geom:longitude":-76.725464,
    "iso:country":"US",
    "sg:address":"11480 Blue Ridge Trl",
    "sg:city":"Windsor",
    "sg:classifiers":[
        {
            "category":"Home & Garden",
            "subcategory":"Building Materials",
            "type":"Retail Goods"
        },
        {
            "category":"Building & Trades",
            "subcategory":"Construction",
            "type":"Services"
        }
    ],
    "sg:owner":"simplegeo",
    "sg:phone":"+1 757 242 6575",
    "sg:postcode":"23487",
    "sg:province":"VA",
    "sg:tags":[
        "fence",
        "contractor"
    ],
    "src:geom":"simplegeo",
    "wof:belongsto":[],
    "wof:breaches":[],
    "wof:concordances":{
        "sg:id":"SG_2SwwIW3egZnocwR6M2nW1A_36.835707_-76.725464@1294252573"
    },
    "wof:country":"US",
    "wof:created":1461891958,
    "wof:geomhash":"e780ac4ec9d147b5b0f1e5a2205e3a7c",
    "wof:hierarchy":[],
    "wof:id":722956661,
    "wof:lastmodified":1461891958,
    "wof:name":"Nansemond Isle Of Whight Fence",
    "wof:parent_id":-1,
    "wof:placetype":"venue",
    "wof:superseded_by":[],
    "wof:supersedes":[],
    "wof:tags":[
        "fence",
        "contractor"
    ]
},
  "bbox": [
    -76.725464,
    36.835707,
    -76.725464,
    36.835707
],
  "geometry": {"coordinates":[-76.725464,36.835707],"type":"Point"}
}