{
  "id": 739429679,
  "type": "Feature",
  "properties": {
    "edtf:cessation":"uuuu",
    "edtf:inception":"uuuu",
    "geom:area":0.0,
    "geom:bbox":"-77.578148,37.482671,-77.578148,37.482671",
    "geom:latitude":37.482671,
    "geom:longitude":-77.578148,
    "iso:country":"US",
    "sg:address":"9631 Kendrick Rd",
    "sg:city":"Richmond",
    "sg:classifiers":[
        {
            "category":"Food & Beverages",
            "subcategory":"Specialty",
            "type":"Retail Goods"
        }
    ],
    "sg:owner":"simplegeo",
    "sg:phone":"+1 804 745 2747",
    "sg:postcode":"23236",
    "sg:province":"VA",
    "sg:tags":[
        "business"
    ],
    "src:geom":"simplegeo",
    "wof:belongsto":[],
    "wof:breaches":[],
    "wof:concordances":{
        "sg:id":"SG_4T2ppgoHdTvr85oVPZmPpS_37.482671_-77.578148@1294252573"
    },
    "wof:country":"US",
    "wof:created":1461907154,
    "wof:geomhash":"02ab5405540fd1b18c4f71ca5ec55f47",
    "wof:hierarchy":[],
    "wof:id":739429679,
    "wof:lastmodified":1461907154,
    "wof:name":"Coffee Break",
    "wof:parent_id":-1,
    "wof:placetype":"venue",
    "wof:superseded_by":[],
    "wof:supersedes":[],
    "wof:tags":[
        "business"
    ]
},
  "bbox": [
    -77.578148,
    37.482671,
    -77.578148,
    37.482671
],
  "geometry": {"coordinates":[-77.578148,37.482671],"type":"Point"}
}