{
  "id": 722677297,
  "type": "Feature",
  "properties": {
    "edtf:cessation":"uuuu",
    "edtf:inception":"uuuu",
    "geom:area":0.0,
    "geom:bbox":"-77.502358,38.730499,-77.502358,38.730499",
    "geom:latitude":38.730499,
    "geom:longitude":-77.502358,
    "iso:country":"US",
    "sg:address":"10300 Winged Elm Cir",
    "sg:city":"Manassas",
    "sg:classifiers":[
        {
            "category":"Building & Trades",
            "subcategory":"Cleaning & Sanitation",
            "type":"Services"
        }
    ],
    "sg:owner":"simplegeo",
    "sg:phone":"+1 703 392 3995",
    "sg:postcode":"20110",
    "sg:province":"VA",
    "sg:tags":[
        "janitor"
    ],
    "src:geom":"simplegeo",
    "wof:belongsto":[],
    "wof:breaches":[],
    "wof:concordances":{
        "sg:id":"SG_0L0RpBxwEGZlFdEiAdUBeN_38.730499_-77.502358@1294252573"
    },
    "wof:country":"US",
    "wof:created":1461886534,
    "wof:geomhash":"8999d5146f4900327b7f665c964a0ba6",
    "wof:hierarchy":[],
    "wof:id":722677297,
    "wof:lastmodified":1461886534,
    "wof:name":"New Era Svc",
    "wof:parent_id":-1,
    "wof:placetype":"venue",
    "wof:superseded_by":[],
    "wof:supersedes":[],
    "wof:tags":[
        "janitor"
    ]
},
  "bbox": [
    -77.502358,
    38.730499,
    -77.502358,
    38.730499
],
  "geometry": {"coordinates":[-77.502358,38.730499],"type":"Point"}
}