{
  "id": 739678139,
  "type": "Feature",
  "properties": {
    "edtf:cessation":"uuuu",
    "edtf:inception":"uuuu",
    "geom:area":0.0,
    "geom:bbox":"-77.113496,38.844529,-77.113496,38.844529",
    "geom:latitude":38.844529,
    "geom:longitude":-77.113496,
    "iso:country":"US",
    "sg:address":"4900 Leesburg Pike # 313",
    "sg:city":"Alexandria",
    "sg:classifiers":[
        {
            "category":"Banks & Credit Unions",
            "subcategory":"Bureau De Change",
            "type":"Services"
        }
    ],
    "sg:owner":"simplegeo",
    "sg:phone":"+1 703 575 8864",
    "sg:postcode":"22302",
    "sg:province":"VA",
    "sg:tags":[
        "currency",
        "exchange",
        "broker",
        "foreign"
    ],
    "src:geom":"simplegeo",
    "wof:belongsto":[],
    "wof:breaches":[],
    "wof:concordances":{
        "sg:id":"SG_4bOHbjqmkVMbuFcI31O4F8_38.844529_-77.113496@1303262544"
    },
    "wof:country":"US",
    "wof:created":1461912110,
    "wof:geomhash":"869751d6c65100fa42165263c46cf3d7",
    "wof:hierarchy":[],
    "wof:id":739678139,
    "wof:lastmodified":1461912110,
    "wof:name":"First African Remittance Inc",
    "wof:parent_id":-1,
    "wof:placetype":"venue",
    "wof:superseded_by":[],
    "wof:supersedes":[],
    "wof:tags":[
        "currency",
        "exchange",
        "broker",
        "foreign"
    ]
},
  "bbox": [
    -77.113496,
    38.844529,
    -77.113496,
    38.844529
],
  "geometry": {"coordinates":[-77.113496,38.844529],"type":"Point"}
}