{
  "id": 723491405,
  "type": "Feature",
  "properties": {
    "edtf:cessation":"uuuu",
    "edtf:inception":"uuuu",
    "geom:area":0.0,
    "geom:bbox":"-76.134395,36.902721,-76.134395,36.902721",
    "geom:latitude":36.902721,
    "geom:longitude":-76.134395,
    "iso:country":"US",
    "sg:address":"4744 Price Cir",
    "sg:city":"Virginia Beach",
    "sg:classifiers":[
        {
            "category":"Professional",
            "subcategory":"Business Services",
            "type":"Services"
        }
    ],
    "sg:owner":"simplegeo",
    "sg:phone":"+1 757 460 9182",
    "sg:postcode":"23455",
    "sg:province":"VA",
    "src:geom":"simplegeo",
    "wof:belongsto":[
        85688747,
        102191575,
        85633793,
        101728745,
        102081929,
        85804919
    ],
    "wof:breaches":[],
    "wof:concordances":{
        "sg:id":"SG_5P2CMHPCvLkZchkSk5I2o2_36.902721_-76.134395@1294252573"
    },
    "wof:country":"US",
    "wof:created":1461902769,
    "wof:geomhash":"5f21545b8ff0de62aa25a58d5ba21f38",
    "wof:hierarchy":[
        {
            "continent_id":102191575,
            "country_id":85633793,
            "county_id":102081929,
            "locality_id":101728745,
            "neighbourhood_id":85804919,
            "region_id":85688747,
            "venue_id":723491405
        }
    ],
    "wof:id":723491405,
    "wof:lastmodified":1461902769,
    "wof:name":"Atlantic Decorating",
    "wof:parent_id":85804919,
    "wof:placetype":"venue",
    "wof:superseded_by":[],
    "wof:supersedes":[],
    "wof:tags":[]
},
  "bbox": [
    -76.134395,
    36.902721,
    -76.134395,
    36.902721
],
  "geometry": {"coordinates":[-76.134395,36.902721],"type":"Point"}
}