{
  "id": 739523343,
  "type": "Feature",
  "properties": {
    "edtf:cessation":"uuuu",
    "edtf:inception":"uuuu",
    "geom:area":0.0,
    "geom:bbox":"-77.341196,39.053889,-77.341196,39.053889",
    "geom:latitude":39.053889,
    "geom:longitude":-77.341196,
    "iso:country":"US",
    "sg:address":"20245 Watermark Pl",
    "sg:city":"Sterling",
    "sg:classifiers":[
        {
            "category":"Professional",
            "subcategory":"Business Services",
            "type":"Services"
        }
    ],
    "sg:owner":"simplegeo",
    "sg:phone":"+1 703 421 4232",
    "sg:postcode":"20165",
    "sg:province":"VA",
    "src:geom":"simplegeo",
    "wof:belongsto":[],
    "wof:breaches":[],
    "wof:concordances":{
        "sg:id":"SG_04UfKwHR2ucjeB3maUtUPs_39.053889_-77.341196@1294252573"
    },
    "wof:country":"US",
    "wof:created":1461908857,
    "wof:geomhash":"72586e0fba8efdd91a69de874ff0d471",
    "wof:hierarchy":[],
    "wof:id":739523343,
    "wof:lastmodified":1461908857,
    "wof:name":"Financially Yours",
    "wof:parent_id":-1,
    "wof:placetype":"venue",
    "wof:superseded_by":[],
    "wof:supersedes":[],
    "wof:tags":[]
},
  "bbox": [
    -77.341196,
    39.053889,
    -77.341196,
    39.053889
],
  "geometry": {"coordinates":[-77.341196,39.053889],"type":"Point"}
}