{
  "id": 722544711,
  "type": "Feature",
  "properties": {
    "edtf:cessation":"uuuu",
    "edtf:inception":"uuuu",
    "geom:area":0.0,
    "geom:bbox":"-77.396557,37.371513,-77.396557,37.371513",
    "geom:latitude":37.371513,
    "geom:longitude":-77.396557,
    "iso:country":"US",
    "sg:address":"11930 Old Stage Rd",
    "sg:city":"Chester",
    "sg:classifiers":[
        {
            "category":"Organizations",
            "subcategory":"Religious Organization",
            "type":"Services"
        }
    ],
    "sg:owner":"simplegeo",
    "sg:phone":"+1 804 748 2224",
    "sg:postcode":"23836",
    "sg:province":"VA",
    "sg:tags":[
        "church"
    ],
    "src:geom":"simplegeo",
    "wof:belongsto":[],
    "wof:breaches":[],
    "wof:concordances":{
        "sg:id":"SG_1mmk4XEqtbXUzEOX4NnMrg_37.371513_-77.396557@1294252573"
    },
    "wof:country":"US",
    "wof:created":1461883897,
    "wof:geomhash":"b8f7de1507fe52bf48d53b2f0e4e85ee",
    "wof:hierarchy":[],
    "wof:id":722544711,
    "wof:lastmodified":1461883897,
    "wof:name":"Christian Life Worship Ctr",
    "wof:parent_id":-1,
    "wof:placetype":"venue",
    "wof:superseded_by":[],
    "wof:supersedes":[],
    "wof:tags":[
        "church"
    ]
},
  "bbox": [
    -77.396557,
    37.371513,
    -77.396557,
    37.371513
],
  "geometry": {"coordinates":[-77.396557,37.371513],"type":"Point"}
}