{
  "id": 723342707,
  "type": "Feature",
  "properties": {
    "edtf:cessation":"uuuu",
    "edtf:inception":"uuuu",
    "geom:area":0.0,
    "geom:bbox":"-77.540353,39.113733,-77.540353,39.113733",
    "geom:latitude":39.113733,
    "geom:longitude":-77.540353,
    "iso:country":"US",
    "sg:address":"932 Edwards Ferry Rd NE",
    "sg:city":"Leesburg",
    "sg:classifiers":[
        {
            "category":"Professional",
            "subcategory":"",
            "type":"Services"
        }
    ],
    "sg:owner":"simplegeo",
    "sg:phone":"+1 703 443 9894",
    "sg:postcode":"20176",
    "sg:province":"VA",
    "sg:tags":[
        "establishment"
    ],
    "src:geom":"simplegeo",
    "wof:belongsto":[],
    "wof:breaches":[],
    "wof:concordances":{
        "sg:id":"SG_1S8Yu5XyJEZOdxhlY3sJPs_39.113733_-77.540353@1294252573"
    },
    "wof:country":"US",
    "wof:created":1461899856,
    "wof:geomhash":"8b5e918aced74208acc3c1bbb628fc6a",
    "wof:hierarchy":[],
    "wof:id":723342707,
    "wof:lastmodified":1461899856,
    "wof:name":"Cox Fary W",
    "wof:parent_id":-1,
    "wof:placetype":"venue",
    "wof:superseded_by":[],
    "wof:supersedes":[],
    "wof:tags":[
        "establishment"
    ]
},
  "bbox": [
    -77.540353,
    39.113733,
    -77.540353,
    39.113733
],
  "geometry": {"coordinates":[-77.540353,39.113733],"type":"Point"}
}