{
  "id": 723310825,
  "type": "Feature",
  "properties": {
    "edtf:cessation":"uuuu",
    "edtf:inception":"uuuu",
    "geom:area":0.0,
    "geom:bbox":"-77.342501,37.550943,-77.342501,37.550943",
    "geom:latitude":37.550943,
    "geom:longitude":-77.342501,
    "iso:country":"US",
    "sg:address":"5929 Nine Mile Rd",
    "sg:city":"Richmond",
    "sg:classifiers":[
        {
            "category":"Organizations",
            "subcategory":"Religious Organization",
            "type":"Services"
        }
    ],
    "sg:owner":"simplegeo",
    "sg:phone":"+1 804 737 2100",
    "sg:postcode":"23223",
    "sg:province":"VA",
    "sg:tags":[
        "church"
    ],
    "src:geom":"simplegeo",
    "wof:belongsto":[],
    "wof:breaches":[],
    "wof:concordances":{
        "sg:id":"SG_2IdLNDY77BrqF53LJZ3SSn_37.550943_-77.342501@1294252573"
    },
    "wof:country":"US",
    "wof:created":1461899282,
    "wof:geomhash":"eeff7e5ed41a9b8f4fc624416a84459a",
    "wof:hierarchy":[],
    "wof:id":723310825,
    "wof:lastmodified":1461899282,
    "wof:name":"Imani Christian Ministries",
    "wof:parent_id":-1,
    "wof:placetype":"venue",
    "wof:superseded_by":[],
    "wof:supersedes":[],
    "wof:tags":[
        "church"
    ]
},
  "bbox": [
    -77.342501,
    37.550943,
    -77.342501,
    37.550943
],
  "geometry": {"coordinates":[-77.342501,37.550943],"type":"Point"}
}