{
  "id": 722905235,
  "type": "Feature",
  "properties": {
    "edtf:cessation":"uuuu",
    "edtf:inception":"uuuu",
    "geom:area":0.0,
    "geom:bbox":"-77.872896,36.745382,-77.872896,36.745382",
    "geom:latitude":36.745382,
    "geom:longitude":-77.872896,
    "iso:country":"US",
    "sg:address":"9764 Governor Harrison Pkwy",
    "sg:city":"Lawrenceville",
    "sg:classifiers":[
        {
            "category":"Insurance",
            "subcategory":"Insurance Agent",
            "type":"Services"
        }
    ],
    "sg:owner":"simplegeo",
    "sg:phone":"+1 434 848 4535",
    "sg:postcode":"23868",
    "sg:province":"VA",
    "src:geom":"simplegeo",
    "wof:belongsto":[],
    "wof:breaches":[],
    "wof:concordances":{
        "sg:id":"SG_2fQf5qRmlWh9Td1rEww3oX_36.745382_-77.872896@1294252573"
    },
    "wof:country":"US",
    "wof:created":1461890895,
    "wof:geomhash":"b9d6e483978f8dabf78f4948d7e70c44",
    "wof:hierarchy":[],
    "wof:id":722905235,
    "wof:lastmodified":1461890895,
    "wof:name":"Powell Agency",
    "wof:parent_id":-1,
    "wof:placetype":"venue",
    "wof:superseded_by":[],
    "wof:supersedes":[],
    "wof:tags":[]
},
  "bbox": [
    -77.872896,
    36.745382,
    -77.872896,
    36.745382
],
  "geometry": {"coordinates":[-77.872896,36.745382],"type":"Point"}
}