{
  "id": 723148007,
  "type": "Feature",
  "properties": {
    "edtf:cessation":"uuuu",
    "edtf:inception":"uuuu",
    "geom:area":0.0,
    "geom:bbox":"-77.52267,38.80463,-77.52267,38.80463",
    "geom:latitude":38.80463,
    "geom:longitude":-77.52267,
    "iso:country":"US",
    "sg:address":"10980 Bulloch Dr",
    "sg:city":"Manassas",
    "sg:classifiers":[
        {
            "category":"Professional",
            "subcategory":"Business Services",
            "type":"Services"
        }
    ],
    "sg:owner":"simplegeo",
    "sg:phone":"+1 703 361 6772",
    "sg:postcode":"20109",
    "sg:province":"VA",
    "src:geom":"simplegeo",
    "wof:belongsto":[],
    "wof:breaches":[],
    "wof:concordances":{
        "sg:id":"SG_566lipOutwYMoUa69XFveA_38.804630_-77.522670@1294252573"
    },
    "wof:country":"US",
    "wof:created":1461896062,
    "wof:geomhash":"d1a4a7842c90aae6ae3f018fc2e412a9",
    "wof:hierarchy":[],
    "wof:id":723148007,
    "wof:lastmodified":1461896062,
    "wof:name":"AT&T",
    "wof:parent_id":-1,
    "wof:placetype":"venue",
    "wof:superseded_by":[],
    "wof:supersedes":[],
    "wof:tags":[]
},
  "bbox": [
    -77.52267,
    38.80463,
    -77.52267,
    38.80463
],
  "geometry": {"coordinates":[-77.52267000000001,38.80463],"type":"Point"}
}