{
  "id": 722663355,
  "type": "Feature",
  "properties": {
    "edtf:cessation":"uuuu",
    "edtf:inception":"uuuu",
    "geom:area":0.0,
    "geom:bbox":"-78.718817,38.764267,-78.718817,38.764267",
    "geom:latitude":38.764267,
    "geom:longitude":-78.718817,
    "iso:country":"US",
    "sg:address":"8131 Orkney Grade",
    "sg:city":"Mount Jackson",
    "sg:classifiers":[
        {
            "category":"Professional",
            "subcategory":"",
            "type":"Services"
        }
    ],
    "sg:owner":"simplegeo",
    "sg:phone":"+1 540 477 2119",
    "sg:postcode":"22842",
    "sg:province":"VA",
    "src:geom":"simplegeo",
    "wof:belongsto":[],
    "wof:breaches":[],
    "wof:concordances":{
        "sg:id":"SG_3j6CVoFMOg1AJOwStQzs7m_38.764267_-78.718817@1294252573"
    },
    "wof:country":"US",
    "wof:created":1461886273,
    "wof:geomhash":"dc260b13bc7383c20d598887f3856508",
    "wof:hierarchy":[],
    "wof:id":722663355,
    "wof:lastmodified":1461886273,
    "wof:name":"Rosemary M Allison",
    "wof:parent_id":-1,
    "wof:placetype":"venue",
    "wof:superseded_by":[],
    "wof:supersedes":[],
    "wof:tags":[]
},
  "bbox": [
    -78.718817,
    38.764267,
    -78.718817,
    38.764267
],
  "geometry": {"coordinates":[-78.718817,38.764267],"type":"Point"}
}