{
  "id": 723115241,
  "type": "Feature",
  "properties": {
    "edtf:cessation":"uuuu",
    "edtf:inception":"uuuu",
    "geom:area":0.0,
    "geom:bbox":"-77.433181,38.762728,-77.433181,38.762728",
    "geom:latitude":38.762728,
    "geom:longitude":-77.433181,
    "iso:country":"US",
    "sg:address":"9450 Black Hawk Ct",
    "sg:city":"Manassas Park",
    "sg:classifiers":[
        {
            "category":"Education",
            "subcategory":"Special Training",
            "type":"Public Place"
        }
    ],
    "sg:owner":"simplegeo",
    "sg:phone":"+1 703 393 0206",
    "sg:postcode":"20111",
    "sg:province":"VA",
    "sg:tags":[
        "reading",
        "instruction",
        "improvement"
    ],
    "src:geom":"simplegeo",
    "wof:belongsto":[],
    "wof:breaches":[],
    "wof:concordances":{
        "sg:id":"SG_4ICUUbecrtpAXIbgHtlJpT_38.762728_-77.433181@1294252573"
    },
    "wof:country":"US",
    "wof:created":1461895422,
    "wof:geomhash":"52ac47e25618ff299a1e8fb4e03c884e",
    "wof:hierarchy":[],
    "wof:id":723115241,
    "wof:lastmodified":1461895422,
    "wof:name":"National Right To Read",
    "wof:parent_id":-1,
    "wof:placetype":"venue",
    "wof:superseded_by":[],
    "wof:supersedes":[],
    "wof:tags":[
        "reading",
        "instruction",
        "improvement"
    ]
},
  "bbox": [
    -77.433181,
    38.762728,
    -77.433181,
    38.762728
],
  "geometry": {"coordinates":[-77.433181,38.762728],"type":"Point"}
}