{
  "id": 722662139,
  "type": "Feature",
  "properties": {
    "edtf:cessation":"uuuu",
    "edtf:inception":"uuuu",
    "geom:area":0.0,
    "geom:bbox":"-77.57985,37.123617,-77.57985,37.123617",
    "geom:latitude":37.123617,
    "geom:longitude":-77.57985,
    "iso:country":"US",
    "sg:address":"10409 Boisseau Rd",
    "sg:city":"Sutherland",
    "sg:classifiers":[
        {
            "category":"Professional",
            "subcategory":"Business Services",
            "type":"Services"
        }
    ],
    "sg:owner":"simplegeo",
    "sg:phone":"+1 804 469 9137",
    "sg:postcode":"23885",
    "sg:province":"VA",
    "src:geom":"simplegeo",
    "wof:belongsto":[],
    "wof:breaches":[],
    "wof:concordances":{
        "sg:id":"SG_7BKlEPUR9Uangtt6xOPdeH_37.123617_-77.579850@1294252573"
    },
    "wof:country":"US",
    "wof:created":1461886249,
    "wof:geomhash":"a7b4258eea90a0b40152c85b30fa6375",
    "wof:hierarchy":[],
    "wof:id":722662139,
    "wof:lastmodified":1461886249,
    "wof:name":"Reeses Auto Svc",
    "wof:parent_id":-1,
    "wof:placetype":"venue",
    "wof:superseded_by":[],
    "wof:supersedes":[],
    "wof:tags":[]
},
  "bbox": [
    -77.57985,
    37.123617,
    -77.57985,
    37.123617
],
  "geometry": {"coordinates":[-77.57984999999999,37.123617],"type":"Point"}
}