{
  "id": 722902147,
  "type": "Feature",
  "properties": {
    "edtf:cessation":"uuuu",
    "edtf:inception":"uuuu",
    "geom:area":0.0,
    "geom:bbox":"-77.52416,37.587609,-77.52416,37.587609",
    "geom:latitude":37.587609,
    "geom:longitude":-77.52416,
    "iso:country":"US",
    "sg:address":"6510 Dustin Dr",
    "sg:city":"Richmond",
    "sg:classifiers":[
        {
            "category":"Professional",
            "subcategory":"",
            "type":"Services"
        }
    ],
    "sg:owner":"simplegeo",
    "sg:phone":"+1 804 673 2254",
    "sg:postcode":"23226",
    "sg:province":"VA",
    "src:geom":"simplegeo",
    "wof:belongsto":[],
    "wof:breaches":[],
    "wof:concordances":{
        "sg:id":"SG_3tonTdNageo4383YC7XWgE_37.587609_-77.524160@1294252573"
    },
    "wof:country":"US",
    "wof:created":1461890831,
    "wof:geomhash":"025c5dda6c2565e1dc047fd87c6bb313",
    "wof:hierarchy":[],
    "wof:id":722902147,
    "wof:lastmodified":1461890831,
    "wof:name":"Grant Richmond Inc",
    "wof:parent_id":-1,
    "wof:placetype":"venue",
    "wof:superseded_by":[],
    "wof:supersedes":[],
    "wof:tags":[]
},
  "bbox": [
    -77.52416,
    37.587609,
    -77.52416,
    37.587609
],
  "geometry": {"coordinates":[-77.52415999999999,37.587609],"type":"Point"}
}