{
  "id": 739399389,
  "type": "Feature",
  "properties": {
    "edtf:cessation":"uuuu",
    "edtf:inception":"uuuu",
    "geom:area":0.0,
    "geom:bbox":"-77.441031,37.697102,-77.441031,37.697102",
    "geom:latitude":37.697102,
    "geom:longitude":-77.441031,
    "iso:country":"US",
    "sg:address":"10975 Richardson Rd",
    "sg:city":"Ashland",
    "sg:classifiers":[
        {
            "category":"Manufacturing",
            "subcategory":"Tools & Machinery",
            "type":"Manufacturing & Wholesale Goods"
        }
    ],
    "sg:owner":"simplegeo",
    "sg:phone":"+1 804 550 5780",
    "sg:postcode":"23005",
    "sg:province":"VA",
    "sg:tags":[
        "controller",
        "elevator",
        "mfg"
    ],
    "src:geom":"simplegeo",
    "wof:belongsto":[],
    "wof:breaches":[],
    "wof:concordances":{
        "sg:id":"SG_5Ckr8uZxLBdraqVVpucR2A_37.697102_-77.441031@1294252573"
    },
    "wof:country":"US",
    "wof:created":1461906572,
    "wof:geomhash":"78ae6b7103bb1c4447b7689e2fc1c1e6",
    "wof:hierarchy":[],
    "wof:id":739399389,
    "wof:lastmodified":1461906572,
    "wof:name":"MTI",
    "wof:parent_id":-1,
    "wof:placetype":"venue",
    "wof:superseded_by":[],
    "wof:supersedes":[],
    "wof:tags":[
        "controller",
        "elevator",
        "mfg"
    ]
},
  "bbox": [
    -77.441031,
    37.697102,
    -77.441031,
    37.697102
],
  "geometry": {"coordinates":[-77.441031,37.697102],"type":"Point"}
}