{
  "id": 723322651,
  "type": "Feature",
  "properties": {
    "edtf:cessation":"uuuu",
    "edtf:inception":"uuuu",
    "geom:area":0.0,
    "geom:bbox":"-80.662005,36.584531,-80.662005,36.584531",
    "geom:latitude":36.584531,
    "geom:longitude":-80.662005,
    "iso:country":"US",
    "sg:address":"14207 Fancy Gap Hwy",
    "sg:city":"Cana",
    "sg:classifiers":[
        {
            "category":"Government",
            "subcategory":"Post Office",
            "type":"Public Place"
        }
    ],
    "sg:owner":"simplegeo",
    "sg:phone":"+1 276 755 4221",
    "sg:postcode":"24317",
    "sg:province":"VA",
    "src:geom":"simplegeo",
    "wof:belongsto":[],
    "wof:breaches":[],
    "wof:concordances":{
        "sg:id":"SG_4x9ZjKuugCdizjYu0BrHPm_36.584531_-80.662005@1294252573"
    },
    "wof:country":"US",
    "wof:created":1461899496,
    "wof:geomhash":"db6dd15c37756cac64018130532023a4",
    "wof:hierarchy":[],
    "wof:id":723322651,
    "wof:lastmodified":1461899496,
    "wof:name":"US Post Office",
    "wof:parent_id":-1,
    "wof:placetype":"venue",
    "wof:superseded_by":[],
    "wof:supersedes":[],
    "wof:tags":[]
},
  "bbox": [
    -80.662005,
    36.584531,
    -80.662005,
    36.584531
],
  "geometry": {"coordinates":[-80.66200499999999,36.584531],"type":"Point"}
}