{
  "id": 739688051,
  "type": "Feature",
  "properties": {
    "edtf:cessation":"uuuu",
    "edtf:inception":"uuuu",
    "geom:area":0.0,
    "geom:bbox":"-77.039694,38.81696,-77.039694,38.81696",
    "geom:latitude":38.81696,
    "geom:longitude":-77.039694,
    "iso:country":"US",
    "sg:address":"1199 N Fairfax St Ste 410",
    "sg:city":"Alexandria",
    "sg:classifiers":[
        {
            "category":"Professional",
            "subcategory":"Computer Services",
            "type":"Services"
        }
    ],
    "sg:owner":"simplegeo",
    "sg:phone":"+1 703 548 4800",
    "sg:postcode":"22314",
    "sg:province":"VA",
    "sg:tags":[
        "repair"
    ],
    "src:geom":"simplegeo",
    "wof:belongsto":[],
    "wof:breaches":[],
    "wof:concordances":{
        "sg:id":"SG_4cipqOM4dl3i4rb1boMi6W_38.816960_-77.039694@1303262546"
    },
    "wof:country":"US",
    "wof:created":1461912300,
    "wof:geomhash":"a9bda035128452c88c3b0d8c572876df",
    "wof:hierarchy":[],
    "wof:id":739688051,
    "wof:lastmodified":1461912300,
    "wof:name":"Pillar Systems Corporation",
    "wof:parent_id":-1,
    "wof:placetype":"venue",
    "wof:superseded_by":[],
    "wof:supersedes":[],
    "wof:tags":[
        "repair"
    ]
},
  "bbox": [
    -77.039694,
    38.81696,
    -77.039694,
    38.81696
],
  "geometry": {"coordinates":[-77.039694,38.81696],"type":"Point"}
}