{
  "id": 739421629,
  "type": "Feature",
  "properties": {
    "edtf:cessation":"uuuu",
    "edtf:inception":"uuuu",
    "geom:area":0.0,
    "geom:bbox":"-77.444029,37.56568,-77.444029,37.56568",
    "geom:latitude":37.56568,
    "geom:longitude":-77.444029,
    "iso:country":"US",
    "sg:address":"2405 Chamberlayne Ave",
    "sg:city":"Richmond",
    "sg:classifiers":[
        {
            "category":"Food & Beverages",
            "subcategory":"Groceries & Convenience Stores",
            "type":"Retail Goods"
        }
    ],
    "sg:owner":"simplegeo",
    "sg:phone":"+1 804 321 6167",
    "sg:postcode":"23222",
    "sg:province":"VA",
    "src:geom":"simplegeo",
    "wof:belongsto":[
        85688747,
        102191575,
        85633793,
        101728675,
        102085959,
        85880317
    ],
    "wof:breaches":[],
    "wof:concordances":{
        "sg:id":"SG_6W2dUwUJwBGyXgDmzNFBVO_37.565680_-77.444029@1294252573"
    },
    "wof:country":"US",
    "wof:created":1461906996,
    "wof:geomhash":"a0f8e490213571d65be2944e7070ab0a",
    "wof:hierarchy":[
        {
            "continent_id":102191575,
            "country_id":85633793,
            "county_id":102085959,
            "locality_id":101728675,
            "neighbourhood_id":85880317,
            "region_id":85688747,
            "venue_id":739421629
        }
    ],
    "wof:id":739421629,
    "wof:lastmodified":1461906996,
    "wof:name":"Community Pride",
    "wof:parent_id":85880317,
    "wof:placetype":"venue",
    "wof:superseded_by":[],
    "wof:supersedes":[],
    "wof:tags":[]
},
  "bbox": [
    -77.444029,
    37.56568,
    -77.444029,
    37.56568
],
  "geometry": {"coordinates":[-77.444029,37.56568],"type":"Point"}
}