{
  "id": 739347567,
  "type": "Feature",
  "properties": {
    "edtf:cessation":"uuuu",
    "edtf:inception":"uuuu",
    "geom:area":0.0,
    "geom:bbox":"-77.259971,38.856127,-77.259971,38.856127",
    "geom:latitude":38.856127,
    "geom:longitude":-77.259971,
    "iso:country":"US",
    "sg:address":"9116 Santayana Dr",
    "sg:city":"Fairfax",
    "sg:classifiers":[
        {
            "category":"Real Estate",
            "subcategory":"Real Estate Agent",
            "type":"Services"
        }
    ],
    "sg:owner":"simplegeo",
    "sg:phone":"+1 703 354 6511",
    "sg:postcode":"22031",
    "sg:province":"VA",
    "src:geom":"simplegeo",
    "wof:belongsto":[],
    "wof:breaches":[],
    "wof:concordances":{
        "sg:id":"SG_6yNzsltw34KdSG5lqJ9vkf_38.856127_-77.259971@1294252573"
    },
    "wof:country":"US",
    "wof:created":1461905559,
    "wof:geomhash":"76426eb7953dd0f86c0cc3603d872b49",
    "wof:hierarchy":[],
    "wof:id":739347567,
    "wof:lastmodified":1461905559,
    "wof:name":"Dolly Madison Realty",
    "wof:parent_id":-1,
    "wof:placetype":"venue",
    "wof:superseded_by":[],
    "wof:supersedes":[],
    "wof:tags":[]
},
  "bbox": [
    -77.259971,
    38.856127,
    -77.259971,
    38.856127
],
  "geometry": {"coordinates":[-77.25997099999999,38.856127],"type":"Point"}
}