{
  "id": 723292019,
  "type": "Feature",
  "properties": {
    "edtf:cessation":"uuuu",
    "edtf:inception":"uuuu",
    "geom:area":0.0,
    "geom:bbox":"-77.347292,37.522908,-77.347292,37.522908",
    "geom:latitude":37.522908,
    "geom:longitude":-77.347292,
    "iso:country":"US",
    "sg:address":"4705 Suecla Ct",
    "sg:city":"Richmond",
    "sg:classifiers":[
        {
            "category":"Personal",
            "subcategory":"",
            "type":"Services"
        }
    ],
    "sg:owner":"simplegeo",
    "sg:phone":"+1 804 226 4468",
    "sg:postcode":"23231",
    "sg:province":"VA",
    "src:geom":"simplegeo",
    "wof:belongsto":[],
    "wof:breaches":[],
    "wof:concordances":{
        "sg:id":"SG_4F0XxdmIbOWs0fXzIFsKrK_37.522908_-77.347292@1294252573"
    },
    "wof:country":"US",
    "wof:created":1461898913,
    "wof:geomhash":"c765660c3557af838c93f5af0f822f68",
    "wof:hierarchy":[],
    "wof:id":723292019,
    "wof:lastmodified":1461898913,
    "wof:name":"Triple Crown Concierge",
    "wof:parent_id":-1,
    "wof:placetype":"venue",
    "wof:superseded_by":[],
    "wof:supersedes":[],
    "wof:tags":[]
},
  "bbox": [
    -77.347292,
    37.522908,
    -77.347292,
    37.522908
],
  "geometry": {"coordinates":[-77.347292,37.522908],"type":"Point"}
}