{
  "id": 739489697,
  "type": "Feature",
  "properties": {
    "edtf:cessation":"uuuu",
    "edtf:inception":"uuuu",
    "geom:area":0.0,
    "geom:bbox":"-77.484217,38.782505,-77.484217,38.782505",
    "geom:latitude":38.782505,
    "geom:longitude":-77.484217,
    "iso:country":"US",
    "sg:address":"9510 Lomond Dr",
    "sg:city":"Manassas",
    "sg:classifiers":[
        {
            "category":"Building & Trades",
            "subcategory":"Plumbing",
            "type":"Services"
        }
    ],
    "sg:owner":"simplegeo",
    "sg:phone":"+1 703 392 9447",
    "sg:postcode":"20109",
    "sg:province":"VA",
    "sg:tags":[
        "contractor"
    ],
    "src:geom":"simplegeo",
    "wof:belongsto":[],
    "wof:breaches":[],
    "wof:concordances":{
        "sg:id":"SG_51ZFCcrrFNAtq5yQZwHuCo_38.782505_-77.484217@1294252573"
    },
    "wof:country":"US",
    "wof:created":1461908249,
    "wof:geomhash":"a81683533feceb1a26a0f27148ce9071",
    "wof:hierarchy":[],
    "wof:id":739489697,
    "wof:lastmodified":1461908249,
    "wof:name":"Dew-Man Home Improvements Inc",
    "wof:parent_id":-1,
    "wof:placetype":"venue",
    "wof:superseded_by":[],
    "wof:supersedes":[],
    "wof:tags":[
        "contractor"
    ]
},
  "bbox": [
    -77.484217,
    38.782505,
    -77.484217,
    38.782505
],
  "geometry": {"coordinates":[-77.484217,38.782505],"type":"Point"}
}