{
  "id": 722698089,
  "type": "Feature",
  "properties": {
    "edtf:cessation":"uuuu",
    "edtf:inception":"uuuu",
    "geom:area":0.0,
    "geom:bbox":"-77.642333,39.264027,-77.642333,39.264027",
    "geom:latitude":39.264027,
    "geom:longitude":-77.642333,
    "iso:country":"US",
    "sg:address":"44 S Loudoun St",
    "sg:city":"Lovettsville",
    "sg:classifiers":[
        {
            "category":"Professional",
            "subcategory":"",
            "type":"Services"
        }
    ],
    "sg:owner":"simplegeo",
    "sg:phone":"+1 540 822 5510",
    "sg:postcode":"20180",
    "sg:province":"VA",
    "sg:tags":[
        "establishment"
    ],
    "src:geom":"simplegeo",
    "wof:belongsto":[],
    "wof:breaches":[],
    "wof:concordances":{
        "sg:id":"SG_01vCdKLvaBH47eeuZbWqLO_39.264027_-77.642333@1294252573"
    },
    "wof:country":"US",
    "wof:created":1461886935,
    "wof:geomhash":"417dcd69fd0533ce3ac9f8c6e960b221",
    "wof:hierarchy":[],
    "wof:id":722698089,
    "wof:lastmodified":1461886935,
    "wof:name":"Hummer Corp",
    "wof:parent_id":-1,
    "wof:placetype":"venue",
    "wof:superseded_by":[],
    "wof:supersedes":[],
    "wof:tags":[
        "establishment"
    ]
},
  "bbox": [
    -77.642333,
    39.264027,
    -77.642333,
    39.264027
],
  "geometry": {"coordinates":[-77.64233299999999,39.264027],"type":"Point"}
}