{
  "id": 722683613,
  "type": "Feature",
  "properties": {
    "edtf:cessation":"uuuu",
    "edtf:inception":"uuuu",
    "geom:area":0.0,
    "geom:bbox":"-78.105835,39.15872,-78.105835,39.15872",
    "geom:latitude":39.15872,
    "geom:longitude":-78.105835,
    "iso:country":"US",
    "sg:address":"105 Umpire Ln",
    "sg:city":"Winchester",
    "sg:classifiers":[
        {
            "category":"Retail",
            "subcategory":"Repair Shop",
            "type":"Services"
        }
    ],
    "sg:owner":"simplegeo",
    "sg:phone":"+1 540 667 0171",
    "sg:postcode":"22602",
    "sg:province":"VA",
    "src:geom":"simplegeo",
    "wof:belongsto":[],
    "wof:breaches":[],
    "wof:concordances":{
        "sg:id":"SG_6isAUMNjnJH8rnvzDcd6tY_39.158720_-78.105835@1294252573"
    },
    "wof:country":"US",
    "wof:created":1461886653,
    "wof:geomhash":"0501179eb82a72850b4014cb2af55adf",
    "wof:hierarchy":[],
    "wof:id":722683613,
    "wof:lastmodified":1461886653,
    "wof:name":"Classic Cleaning",
    "wof:parent_id":-1,
    "wof:placetype":"venue",
    "wof:superseded_by":[],
    "wof:supersedes":[],
    "wof:tags":[]
},
  "bbox": [
    -78.105835,
    39.15872,
    -78.105835,
    39.15872
],
  "geometry": {"coordinates":[-78.105835,39.15872],"type":"Point"}
}