{
  "id": 723136661,
  "type": "Feature",
  "properties": {
    "edtf:cessation":"uuuu",
    "edtf:inception":"uuuu",
    "geom:area":0.0,
    "geom:bbox":"-80.65585,36.570188,-80.65585,36.570188",
    "geom:latitude":36.570188,
    "geom:longitude":-80.65585,
    "iso:country":"US",
    "sg:address":"16125 Fancy Gap Hwy",
    "sg:city":"Cana",
    "sg:classifiers":[
        {
            "category":"Food & Beverages",
            "subcategory":"Fruits & Vegetables",
            "type":"Retail Goods"
        }
    ],
    "sg:owner":"simplegeo",
    "sg:phone":"+1 276 755 4751",
    "sg:postcode":"24317",
    "sg:province":"VA",
    "sg:tags":[
        "produce"
    ],
    "src:geom":"simplegeo",
    "wof:belongsto":[],
    "wof:breaches":[],
    "wof:concordances":{
        "sg:id":"SG_1mSQdxVi30ver9ufLjPn5e_36.570188_-80.655850@1294252573"
    },
    "wof:country":"US",
    "wof:created":1461895823,
    "wof:geomhash":"2e6c9eb5f153a41cdb4016bbba82c4cd",
    "wof:hierarchy":[],
    "wof:id":723136661,
    "wof:lastmodified":1461895823,
    "wof:name":"Virginia Carolina Enterprises",
    "wof:parent_id":-1,
    "wof:placetype":"venue",
    "wof:superseded_by":[],
    "wof:supersedes":[],
    "wof:tags":[
        "produce"
    ]
},
  "bbox": [
    -80.65585,
    36.570188,
    -80.65585,
    36.570188
],
  "geometry": {"coordinates":[-80.65585,36.570188],"type":"Point"}
}