{
  "id": 722597795,
  "type": "Feature",
  "properties": {
    "edtf:cessation":"uuuu",
    "edtf:inception":"uuuu",
    "geom:area":0.0,
    "geom:bbox":"-80.79472,37.33977,-80.79472,37.33977",
    "geom:latitude":37.33977,
    "geom:longitude":-80.79472,
    "iso:country":"US",
    "sg:address":"2841 Virginia Ave",
    "sg:city":"Narrows",
    "sg:classifiers":[
        {
            "category":"Food & Beverages",
            "subcategory":"Groceries & Convenience Stores",
            "type":"Retail Goods"
        }
    ],
    "sg:owner":"simplegeo",
    "sg:phone":"+1 540 726 3376",
    "sg:postcode":"24124",
    "sg:province":"VA",
    "sg:tags":[
        "independent"
    ],
    "src:geom":"simplegeo",
    "wof:belongsto":[],
    "wof:breaches":[],
    "wof:concordances":{
        "sg:id":"SG_73aCoAogX5z2QcS2sSSFeT_37.339770_-80.794720@1294252573"
    },
    "wof:country":"US",
    "wof:created":1461884931,
    "wof:geomhash":"e794fd5963927e957d66fe1650ec0222",
    "wof:hierarchy":[],
    "wof:id":722597795,
    "wof:lastmodified":1461884931,
    "wof:name":"Lights",
    "wof:parent_id":-1,
    "wof:placetype":"venue",
    "wof:superseded_by":[],
    "wof:supersedes":[],
    "wof:tags":[
        "independent"
    ]
},
  "bbox": [
    -80.79472,
    37.33977,
    -80.79472,
    37.33977
],
  "geometry": {"coordinates":[-80.79472,37.33977],"type":"Point"}
}