{
  "id": 723067471,
  "type": "Feature",
  "properties": {
    "edtf:cessation":"uuuu",
    "edtf:inception":"uuuu",
    "geom:area":0.0,
    "geom:bbox":"-82.075436,36.659594,-82.075436,36.659594",
    "geom:latitude":36.659594,
    "geom:longitude":-82.075436,
    "iso:country":"US",
    "sg:address":"16198 Lee Hwy",
    "sg:city":"Bristol",
    "sg:classifiers":[
        {
            "category":"Travel",
            "subcategory":"Hotels & Motels",
            "type":"Entertainment"
        }
    ],
    "sg:owner":"simplegeo",
    "sg:phone":"+1 276 466 0809",
    "sg:postcode":"24202",
    "sg:province":"VA",
    "sg:tags":[
        "operation"
    ],
    "src:geom":"simplegeo",
    "wof:belongsto":[],
    "wof:breaches":[],
    "wof:concordances":{
        "sg:id":"SG_7PnxaILrcfkSHr8VOg46KS_36.659594_-82.075436@1294252573"
    },
    "wof:country":"US",
    "wof:created":1461894387,
    "wof:geomhash":"e143a7c5c21ba15f3f7f0bcacdb161ca",
    "wof:hierarchy":[],
    "wof:id":723067471,
    "wof:lastmodified":1461894387,
    "wof:name":"Midway Motel",
    "wof:parent_id":-1,
    "wof:placetype":"venue",
    "wof:superseded_by":[],
    "wof:supersedes":[],
    "wof:tags":[
        "operation"
    ]
},
  "bbox": [
    -82.075436,
    36.659594,
    -82.075436,
    36.659594
],
  "geometry": {"coordinates":[-82.075436,36.659594],"type":"Point"}
}