{
  "id": 723137653,
  "type": "Feature",
  "properties": {
    "edtf:cessation":"uuuu",
    "edtf:inception":"uuuu",
    "geom:area":0.0,
    "geom:bbox":"-77.570435,37.660182,-77.570435,37.660182",
    "geom:latitude":37.660182,
    "geom:longitude":-77.570435,
    "iso:country":"US",
    "sg:address":"10813 Squaw Valley Pl",
    "sg:city":"Glen Allen",
    "sg:classifiers":[
        {
            "category":"Wholesale",
            "subcategory":"Medical Equipment & Supplies",
            "type":"Manufacturing & Wholesale Goods"
        }
    ],
    "sg:owner":"simplegeo",
    "sg:phone":"+1 804 539 3082",
    "sg:postcode":"23060",
    "sg:province":"VA",
    "src:geom":"simplegeo",
    "wof:belongsto":[],
    "wof:breaches":[],
    "wof:concordances":{
        "sg:id":"SG_6wWXmK9LNGx4OKNMSdK7BR_37.660182_-77.570435@1294252573"
    },
    "wof:country":"US",
    "wof:created":1461895854,
    "wof:geomhash":"86af4ed3360c05720c88c5a591d0ddf5",
    "wof:hierarchy":[],
    "wof:id":723137653,
    "wof:lastmodified":1461895854,
    "wof:name":"M & M Medical Supply Inc",
    "wof:parent_id":-1,
    "wof:placetype":"venue",
    "wof:superseded_by":[],
    "wof:supersedes":[],
    "wof:tags":[]
},
  "bbox": [
    -77.570435,
    37.660182,
    -77.570435,
    37.660182
],
  "geometry": {"coordinates":[-77.570435,37.660182],"type":"Point"}
}