{
  "id": 722674145,
  "type": "Feature",
  "properties": {
    "edtf:cessation":"uuuu",
    "edtf:inception":"uuuu",
    "geom:area":0.0,
    "geom:bbox":"-77.477439,37.6531,-77.477439,37.6531",
    "geom:latitude":37.6531,
    "geom:longitude":-77.477439,
    "iso:country":"US",
    "sg:address":"8006 Nicewood Rd",
    "sg:city":"Glen Allen",
    "sg:classifiers":[
        {
            "category":"Professional",
            "subcategory":"",
            "type":"Services"
        }
    ],
    "sg:owner":"simplegeo",
    "sg:phone":"+1 804 262 3749",
    "sg:postcode":"23060",
    "sg:province":"VA",
    "src:geom":"simplegeo",
    "wof:belongsto":[],
    "wof:breaches":[],
    "wof:concordances":{
        "sg:id":"SG_4gNdEYPVlZ0N6fO1hojdqP_37.653100_-77.477439@1294252573"
    },
    "wof:country":"US",
    "wof:created":1461886470,
    "wof:geomhash":"bf73cfbf4f9554867e0f10789a0e83e7",
    "wof:hierarchy":[],
    "wof:id":722674145,
    "wof:lastmodified":1461886470,
    "wof:name":"John H Mathis",
    "wof:parent_id":-1,
    "wof:placetype":"venue",
    "wof:superseded_by":[],
    "wof:supersedes":[],
    "wof:tags":[]
},
  "bbox": [
    -77.477439,
    37.6531,
    -77.477439,
    37.6531
],
  "geometry": {"coordinates":[-77.477439,37.6531],"type":"Point"}
}