{
  "id": 739254669,
  "type": "Feature",
  "properties": {
    "edtf:cessation":"uuuu",
    "edtf:inception":"uuuu",
    "geom:area":0.0,
    "geom:bbox":"-77.484762,38.43286,-77.484762,38.43286",
    "geom:latitude":38.43286,
    "geom:longitude":-77.484762,
    "iso:country":"US",
    "sg:address":"1507 Mountain View Rd",
    "sg:city":"Stafford",
    "sg:classifiers":[
        {
            "category":"Building & Trades",
            "subcategory":"Construction",
            "type":"Services"
        }
    ],
    "sg:owner":"simplegeo",
    "sg:phone":"+1 540 657 4795",
    "sg:postcode":"22554",
    "sg:province":"VA",
    "sg:tags":[
        "home",
        "improvement"
    ],
    "src:geom":"simplegeo",
    "wof:belongsto":[],
    "wof:breaches":[],
    "wof:concordances":{
        "sg:id":"SG_52eZC4ed4T8wWllbj4ydPb_38.432860_-77.484762@1294252573"
    },
    "wof:country":"US",
    "wof:created":1461903593,
    "wof:geomhash":"7e2eca5927ea287996850e122949fda9",
    "wof:hierarchy":[],
    "wof:id":739254669,
    "wof:lastmodified":1461903593,
    "wof:name":"J & R Repair Co",
    "wof:parent_id":420547115,
    "wof:placetype":"venue",
    "wof:superseded_by":[],
    "wof:supersedes":[],
    "wof:tags":[
        "home",
        "improvement"
    ]
},
  "bbox": [
    -77.484762,
    38.43286,
    -77.484762,
    38.43286
],
  "geometry": {"coordinates":[-77.484762,38.43286],"type":"Point"}
}