{
  "id": 739476641,
  "type": "Feature",
  "properties": {
    "edtf:cessation":"uuuu",
    "edtf:inception":"uuuu",
    "geom:area":0.0,
    "geom:bbox":"-78.853669,38.428532,-78.853669,38.428532",
    "geom:latitude":38.428532,
    "geom:longitude":-78.853669,
    "iso:country":"US",
    "sg:address":"1920 Medical Ave",
    "sg:city":"Harrisonburg",
    "sg:classifiers":[
        {
            "category":"Wholesale",
            "subcategory":"Office Equipment",
            "type":"Manufacturing & Wholesale Goods"
        }
    ],
    "sg:owner":"simplegeo",
    "sg:phone":"+1 540 434 4142",
    "sg:postcode":"22801",
    "sg:province":"VA",
    "sg:tags":[
        "machine",
        "fax",
        "copier",
        "sales"
    ],
    "src:geom":"simplegeo",
    "wof:belongsto":[],
    "wof:breaches":[],
    "wof:concordances":{
        "sg:id":"SG_3GWl5xGULKF6Keq5Tyonkx_38.428532_-78.853669@1294252573"
    },
    "wof:country":"US",
    "wof:created":1461908007,
    "wof:geomhash":"ea933be5a750f29ca7b9dcd41944489a",
    "wof:hierarchy":[],
    "wof:id":739476641,
    "wof:lastmodified":1461908007,
    "wof:name":"IKON Office Solutions",
    "wof:parent_id":-1,
    "wof:placetype":"venue",
    "wof:superseded_by":[],
    "wof:supersedes":[],
    "wof:tags":[
        "machine",
        "fax",
        "copier",
        "sales"
    ]
},
  "bbox": [
    -78.853669,
    38.428532,
    -78.853669,
    38.428532
],
  "geometry": {"coordinates":[-78.853669,38.428532],"type":"Point"}
}