{
  "id": 723515263,
  "type": "Feature",
  "properties": {
    "edtf:cessation":"uuuu",
    "edtf:inception":"uuuu",
    "geom:area":0.0,
    "geom:bbox":"-77.498677,37.646387,-77.498677,37.646387",
    "geom:latitude":37.646387,
    "geom:longitude":-77.498677,
    "iso:country":"US",
    "sg:address":"9723 Paragon Dr",
    "sg:city":"Richmond",
    "sg:classifiers":[
        {
            "category":"Farming",
            "subcategory":"Nursery",
            "type":"Manufacturing & Wholesale Goods"
        }
    ],
    "sg:owner":"simplegeo",
    "sg:phone":"+1 804 515 7150",
    "sg:postcode":"23228",
    "sg:province":"VA",
    "sg:tags":[
        "ornamental"
    ],
    "src:geom":"simplegeo",
    "wof:belongsto":[],
    "wof:breaches":[],
    "wof:concordances":{
        "sg:id":"SG_2x885x4kQpVOkA92MW9utp_37.646387_-77.498677@1294252573"
    },
    "wof:country":"US",
    "wof:created":1461903334,
    "wof:geomhash":"7fd8d34b14ef9833e89051cc79a29a9a",
    "wof:hierarchy":[],
    "wof:id":723515263,
    "wof:lastmodified":1461903334,
    "wof:name":"H&M Tree Service",
    "wof:parent_id":-1,
    "wof:placetype":"venue",
    "wof:superseded_by":[],
    "wof:supersedes":[],
    "wof:tags":[
        "ornamental"
    ]
},
  "bbox": [
    -77.498677,
    37.646387,
    -77.498677,
    37.646387
],
  "geometry": {"coordinates":[-77.498677,37.646387],"type":"Point"}
}