{
  "id": 722904943,
  "type": "Feature",
  "properties": {
    "edtf:cessation":"uuuu",
    "edtf:inception":"uuuu",
    "geom:area":0.0,
    "geom:bbox":"-78.337231,39.197674,-78.337231,39.197674",
    "geom:latitude":39.197674,
    "geom:longitude":-78.337231,
    "iso:country":"US",
    "sg:address":"602 Maple Trl",
    "sg:city":"Winchester",
    "sg:classifiers":[
        {
            "category":"Professional",
            "subcategory":"",
            "type":"Services"
        }
    ],
    "sg:owner":"simplegeo",
    "sg:phone":"+1 540 877 9719",
    "sg:postcode":"22602",
    "sg:province":"VA",
    "src:geom":"simplegeo",
    "wof:belongsto":[],
    "wof:breaches":[],
    "wof:concordances":{
        "sg:id":"SG_3TnEoXERRv0gIy0fshmnvL_39.197674_-78.337231@1294252573"
    },
    "wof:country":"US",
    "wof:created":1461890889,
    "wof:geomhash":"a65e2dcc6cbc29e1fe66a1fa00a766d0",
    "wof:hierarchy":[],
    "wof:id":722904943,
    "wof:lastmodified":1461890889,
    "wof:name":"Richard Hill",
    "wof:parent_id":-1,
    "wof:placetype":"venue",
    "wof:superseded_by":[],
    "wof:supersedes":[],
    "wof:tags":[]
},
  "bbox": [
    -78.337231,
    39.197674,
    -78.337231,
    39.197674
],
  "geometry": {"coordinates":[-78.337231,39.197674],"type":"Point"}
}