{
  "id": 739627669,
  "type": "Feature",
  "properties": {
    "edtf:cessation":"uuuu",
    "edtf:inception":"uuuu",
    "geom:area":0.0,
    "geom:bbox":"-77.134201,38.853199,-77.134201,38.853199",
    "geom:latitude":38.853199,
    "geom:longitude":-77.134201,
    "iso:country":"US",
    "sg:address":"5878 Leesburg Pike",
    "sg:city":"Falls Church",
    "sg:classifiers":[
        {
            "category":"Restaurant",
            "subcategory":"",
            "type":"Food & Drink"
        }
    ],
    "sg:owner":"simplegeo",
    "sg:phone":"+1 703 820 5775",
    "sg:postcode":"22041",
    "sg:province":"VA",
    "sg:tags":[
        "thai"
    ],
    "sg:website":"www.duangrats.com",
    "src:geom":"simplegeo",
    "wof:belongsto":[],
    "wof:breaches":[],
    "wof:concordances":{
        "sg:id":"SG_23i55zqGLZmaZmMPpQKTLw_38.853199_-77.134201@1303262538"
    },
    "wof:country":"US",
    "wof:created":1461910984,
    "wof:geomhash":"5b2eb161d9a2f5e0c1b187a597e573c6",
    "wof:hierarchy":[],
    "wof:id":739627669,
    "wof:lastmodified":1461910984,
    "wof:name":"Duangrat's Thai Restaurant",
    "wof:parent_id":-1,
    "wof:placetype":"venue",
    "wof:superseded_by":[],
    "wof:supersedes":[],
    "wof:tags":[
        "thai"
    ]
},
  "bbox": [
    -77.134201,
    38.853199,
    -77.134201,
    38.853199
],
  "geometry": {"coordinates":[-77.134201,38.853199],"type":"Point"}
}