{
  "id": 723093733,
  "type": "Feature",
  "properties": {
    "edtf:cessation":"uuuu",
    "edtf:inception":"uuuu",
    "geom:area":0.0,
    "geom:bbox":"-77.497674,39.10431,-77.497674,39.10431",
    "geom:latitude":39.10431,
    "geom:longitude":-77.497674,
    "iso:country":"US",
    "sg:address":"43438 Firestone Pl",
    "sg:city":"Leesburg",
    "sg:classifiers":[
        {
            "category":"Professional",
            "subcategory":"",
            "type":"Services"
        }
    ],
    "sg:owner":"simplegeo",
    "sg:phone":"+1 703 779 0629",
    "sg:postcode":"20176",
    "sg:province":"VA",
    "src:geom":"simplegeo",
    "wof:belongsto":[],
    "wof:breaches":[],
    "wof:concordances":{
        "sg:id":"SG_6HpH1cnR49oxQm1Xt44qwV_39.104310_-77.497674@1294252573"
    },
    "wof:country":"US",
    "wof:created":1461894990,
    "wof:geomhash":"e64f063905bba1155f151d908ba920ce",
    "wof:hierarchy":[],
    "wof:id":723093733,
    "wof:lastmodified":1461894990,
    "wof:name":"Stratasec Inc",
    "wof:parent_id":-1,
    "wof:placetype":"venue",
    "wof:superseded_by":[],
    "wof:supersedes":[],
    "wof:tags":[]
},
  "bbox": [
    -77.497674,
    39.10431,
    -77.497674,
    39.10431
],
  "geometry": {"coordinates":[-77.497674,39.10431],"type":"Point"}
}