{
  "id": 723299113,
  "type": "Feature",
  "properties": {
    "edtf:cessation":"uuuu",
    "edtf:inception":"uuuu",
    "geom:area":0.0,
    "geom:bbox":"-78.320903,37.920728,-78.320903,37.920728",
    "geom:latitude":37.920728,
    "geom:longitude":-78.320903,
    "iso:country":"US",
    "sg:address":"46 Bolling Cir",
    "sg:city":"Palmyra",
    "sg:classifiers":[
        {
            "category":"Building & Trades",
            "subcategory":"Construction",
            "type":"Services"
        }
    ],
    "sg:owner":"simplegeo",
    "sg:phone":"+1 434 589 2584",
    "sg:postcode":"22963",
    "sg:province":"VA",
    "src:geom":"simplegeo",
    "wof:belongsto":[],
    "wof:breaches":[],
    "wof:concordances":{
        "sg:id":"SG_1HMyuxX3Tbkr1vCoEqScTB_37.920728_-78.320903@1294252573"
    },
    "wof:country":"US",
    "wof:created":1461899046,
    "wof:geomhash":"961f3813cc61a1376541e7cbf7ddde7b",
    "wof:hierarchy":[],
    "wof:id":723299113,
    "wof:lastmodified":1461899046,
    "wof:name":"James B Garrison",
    "wof:parent_id":-1,
    "wof:placetype":"venue",
    "wof:superseded_by":[],
    "wof:supersedes":[],
    "wof:tags":[]
},
  "bbox": [
    -78.320903,
    37.920728,
    -78.320903,
    37.920728
],
  "geometry": {"coordinates":[-78.320903,37.920728],"type":"Point"}
}