{
  "id": 723343405,
  "type": "Feature",
  "properties": {
    "edtf:cessation":"uuuu",
    "edtf:inception":"uuuu",
    "geom:area":0.0,
    "geom:bbox":"-77.689743,37.165593,-77.689743,37.165593",
    "geom:latitude":37.165593,
    "geom:longitude":-77.689743,
    "iso:country":"US",
    "sg:address":"7521 Trinity Church Rd",
    "sg:city":"Church Road",
    "sg:classifiers":[
        {
            "category":"Organizations",
            "subcategory":"Religious Organization",
            "type":"Services"
        }
    ],
    "sg:owner":"simplegeo",
    "sg:phone":"+1 804 265 8540",
    "sg:postcode":"23833",
    "sg:province":"VA",
    "src:geom":"simplegeo",
    "wof:belongsto":[],
    "wof:breaches":[],
    "wof:concordances":{
        "sg:id":"SG_3cnkh80K1n08NJZpULgKQi_37.165593_-77.689743@1294252573"
    },
    "wof:country":"US",
    "wof:created":1461899871,
    "wof:geomhash":"f56ec6178f10aebfff7bcef705804c05",
    "wof:hierarchy":[],
    "wof:id":723343405,
    "wof:lastmodified":1461899871,
    "wof:name":"Christian Poole Church Inc",
    "wof:parent_id":-1,
    "wof:placetype":"venue",
    "wof:superseded_by":[],
    "wof:supersedes":[],
    "wof:tags":[]
},
  "bbox": [
    -77.689743,
    37.165593,
    -77.689743,
    37.165593
],
  "geometry": {"coordinates":[-77.68974300000001,37.165593],"type":"Point"}
}