{
  "id": 739408237,
  "type": "Feature",
  "properties": {
    "edtf:cessation":"uuuu",
    "edtf:inception":"uuuu",
    "geom:area":0.0,
    "geom:bbox":"-77.461851,37.682028,-77.461851,37.682028",
    "geom:latitude":37.682028,
    "geom:longitude":-77.461851,
    "iso:country":"US",
    "sg:address":"10181 Washington Hwy",
    "sg:city":"Glen Allen",
    "sg:classifiers":[
        {
            "category":"Autos & Motor Vehicles",
            "subcategory":"Automobile Sales",
            "type":"Retail Goods"
        }
    ],
    "sg:owner":"simplegeo",
    "sg:phone":"+1 804 550 3832",
    "sg:postcode":"23059",
    "sg:province":"VA",
    "sg:tags":[
        "car",
        "used",
        "dealer"
    ],
    "src:geom":"simplegeo",
    "wof:belongsto":[],
    "wof:breaches":[],
    "wof:concordances":{
        "sg:id":"SG_4lnhs0cPnK6mliKEtiIloZ_37.682028_-77.461851@1294252573"
    },
    "wof:country":"US",
    "wof:created":1461906737,
    "wof:geomhash":"2fd882ce946b680677c8daa4d23cfac6",
    "wof:hierarchy":[],
    "wof:id":739408237,
    "wof:lastmodified":1461906737,
    "wof:name":"Route One Auto Exchange Inc",
    "wof:parent_id":-1,
    "wof:placetype":"venue",
    "wof:superseded_by":[],
    "wof:supersedes":[],
    "wof:tags":[
        "car",
        "used",
        "dealer"
    ]
},
  "bbox": [
    -77.461851,
    37.682028,
    -77.461851,
    37.682028
],
  "geometry": {"coordinates":[-77.461851,37.682028],"type":"Point"}
}