{
  "id": 722935509,
  "type": "Feature",
  "properties": {
    "edtf:cessation":"uuuu",
    "edtf:inception":"uuuu",
    "geom:area":0.0,
    "geom:bbox":"-77.523788,37.6246,-77.523788,37.6246",
    "geom:latitude":37.6246,
    "geom:longitude":-77.523788,
    "iso:country":"US",
    "sg:address":"3009 Hungary Spring Rd",
    "sg:city":"Richmond",
    "sg:classifiers":[
        {
            "category":"Utilities",
            "subcategory":"Telephone",
            "type":"Services"
        }
    ],
    "sg:owner":"simplegeo",
    "sg:phone":"+1 804 954 6222",
    "sg:postcode":"23228",
    "sg:province":"VA",
    "sg:tags":[
        "telecommunication"
    ],
    "src:geom":"simplegeo",
    "wof:belongsto":[],
    "wof:breaches":[],
    "wof:concordances":{
        "sg:id":"SG_0HnJXiT9uefjERIWBNwQJc_37.624600_-77.523788@1294252573"
    },
    "wof:country":"US",
    "wof:created":1461891527,
    "wof:geomhash":"a773e6322cafedb956ec306f8758e2a7",
    "wof:hierarchy":[],
    "wof:id":722935509,
    "wof:lastmodified":1461891527,
    "wof:name":"Verizon Communications",
    "wof:parent_id":-1,
    "wof:placetype":"venue",
    "wof:superseded_by":[],
    "wof:supersedes":[],
    "wof:tags":[
        "telecommunication"
    ]
},
  "bbox": [
    -77.523788,
    37.6246,
    -77.523788,
    37.6246
],
  "geometry": {"coordinates":[-77.523788,37.6246],"type":"Point"}
}