{
  "id": 722922841,
  "type": "Feature",
  "properties": {
    "edtf:cessation":"uuuu",
    "edtf:inception":"uuuu",
    "geom:area":0.0,
    "geom:bbox":"-77.411163,38.732138,-77.411163,38.732138",
    "geom:latitude":38.732138,
    "geom:longitude":-77.411163,
    "iso:country":"US",
    "sg:address":"10275 Chinkapin Dr",
    "sg:city":"Manassas",
    "sg:classifiers":[
        {
            "category":"Building & Trades",
            "subcategory":"Plumbing",
            "type":"Services"
        }
    ],
    "sg:owner":"simplegeo",
    "sg:phone":"+1 703 330 7091",
    "sg:postcode":"20111",
    "sg:province":"VA",
    "sg:tags":[
        "plumbing",
        "contractor"
    ],
    "src:geom":"simplegeo",
    "wof:belongsto":[],
    "wof:breaches":[],
    "wof:concordances":{
        "sg:id":"SG_0tayBUzQssbaLbkF7g4jTn_38.732138_-77.411163@1294252573"
    },
    "wof:country":"US",
    "wof:created":1461891265,
    "wof:geomhash":"a9c582aa6d41a44a1e7e2a816ad478b6",
    "wof:hierarchy":[],
    "wof:id":722922841,
    "wof:lastmodified":1461891265,
    "wof:name":"Saylor Plumbing Inc",
    "wof:parent_id":-1,
    "wof:placetype":"venue",
    "wof:superseded_by":[],
    "wof:supersedes":[],
    "wof:tags":[
        "plumbing",
        "contractor"
    ]
},
  "bbox": [
    -77.411163,
    38.732138,
    -77.411163,
    38.732138
],
  "geometry": {"coordinates":[-77.411163,38.732138],"type":"Point"}
}