{
  "id": 739435387,
  "type": "Feature",
  "properties": {
    "edtf:cessation":"uuuu",
    "edtf:inception":"uuuu",
    "geom:area":0.0,
    "geom:bbox":"-78.171638,39.183222,-78.171638,39.183222",
    "geom:latitude":39.183222,
    "geom:longitude":-78.171638,
    "iso:country":"US",
    "sg:address":"333 W Cork St",
    "sg:city":"Winchester",
    "sg:classifiers":[
        {
            "category":"Health Services",
            "subcategory":"Health Practitioner",
            "type":"Services"
        }
    ],
    "sg:owner":"simplegeo",
    "sg:phone":"+1 540 536 5114",
    "sg:postcode":"22601",
    "sg:province":"VA",
    "sg:tags":[
        "therapist",
        "physical"
    ],
    "src:geom":"simplegeo",
    "wof:belongsto":[],
    "wof:breaches":[],
    "wof:concordances":{
        "sg:id":"SG_4V1Az4mByNxTY8wYMeUif5_39.183222_-78.171638@1294252573"
    },
    "wof:country":"US",
    "wof:created":1461907269,
    "wof:geomhash":"e0ea7f3f82277313cbeaaeabfc9fd334",
    "wof:hierarchy":[],
    "wof:id":739435387,
    "wof:lastmodified":1461907269,
    "wof:name":"Winchester Rehabilitation Ctr",
    "wof:parent_id":-1,
    "wof:placetype":"venue",
    "wof:superseded_by":[],
    "wof:supersedes":[],
    "wof:tags":[
        "therapist",
        "physical"
    ]
},
  "bbox": [
    -78.171638,
    39.183222,
    -78.171638,
    39.183222
],
  "geometry": {"coordinates":[-78.171638,39.183222],"type":"Point"}
}