{
  "id": 739538933,
  "type": "Feature",
  "properties": {
    "edtf:cessation":"uuuu",
    "edtf:inception":"uuuu",
    "geom:area":0.0,
    "geom:bbox":"-77.498786,37.617219,-77.498786,37.617219",
    "geom:latitude":37.617219,
    "geom:longitude":-77.498786,
    "iso:country":"US",
    "sg:address":"7590 Staples Mill Rd",
    "sg:city":"Richmond",
    "sg:classifiers":[
        {
            "category":"Shopping",
            "subcategory":"Pharmacy",
            "type":"Retail Goods"
        }
    ],
    "sg:owner":"simplegeo",
    "sg:phone":"+1 804 515 1691",
    "sg:postcode":"23228",
    "sg:province":"VA",
    "src:geom":"simplegeo",
    "wof:belongsto":[],
    "wof:breaches":[],
    "wof:concordances":{
        "sg:id":"SG_4eSQ81VNkRRnhSELBGQfqh_37.617219_-77.498786@1294252573"
    },
    "wof:country":"US",
    "wof:created":1461909136,
    "wof:geomhash":"7b26fc7317a526c88fe5b8128032eb71",
    "wof:hierarchy":[],
    "wof:id":739538933,
    "wof:lastmodified":1461909136,
    "wof:name":"CVS",
    "wof:parent_id":-1,
    "wof:placetype":"venue",
    "wof:superseded_by":[],
    "wof:supersedes":[],
    "wof:tags":[]
},
  "bbox": [
    -77.498786,
    37.617219,
    -77.498786,
    37.617219
],
  "geometry": {"coordinates":[-77.498786,37.617219],"type":"Point"}
}