{
  "id": 722674973,
  "type": "Feature",
  "properties": {
    "edtf:cessation":"uuuu",
    "edtf:inception":"uuuu",
    "geom:area":0.0,
    "geom:bbox":"-78.013656,38.166856,-78.013656,38.166856",
    "geom:latitude":38.166856,
    "geom:longitude":-78.013656,
    "iso:country":"US",
    "sg:address":"20655 Monrovia Rd",
    "sg:city":"Orange",
    "sg:classifiers":[
        {
            "category":"Organizations",
            "subcategory":"Religious Organization",
            "type":"Services"
        }
    ],
    "sg:owner":"simplegeo",
    "sg:phone":"+1 540 854 4647",
    "sg:postcode":"22960",
    "sg:province":"VA",
    "sg:tags":[
        "church"
    ],
    "src:geom":"simplegeo",
    "wof:belongsto":[],
    "wof:breaches":[],
    "wof:concordances":{
        "sg:id":"SG_0W1SzoIE5Fc19DbgO9B5tj_38.166856_-78.013656@1294252573"
    },
    "wof:country":"US",
    "wof:created":1461886488,
    "wof:geomhash":"f270e51c08a14b6b5d43279442780357",
    "wof:hierarchy":[],
    "wof:id":722674973,
    "wof:lastmodified":1461886488,
    "wof:name":"Shady Grove Baptist Church",
    "wof:parent_id":-1,
    "wof:placetype":"venue",
    "wof:superseded_by":[],
    "wof:supersedes":[],
    "wof:tags":[
        "church"
    ]
},
  "bbox": [
    -78.013656,
    38.166856,
    -78.013656,
    38.166856
],
  "geometry": {"coordinates":[-78.013656,38.166856],"type":"Point"}
}