{
  "id": 722674391,
  "type": "Feature",
  "properties": {
    "edtf:cessation":"uuuu",
    "edtf:inception":"uuuu",
    "geom:area":0.0,
    "geom:bbox":"-79.439973,37.783914,-79.439973,37.783914",
    "geom:latitude":37.783914,
    "geom:longitude":-79.439973,
    "iso:country":"US",
    "sg:address":"204 E Washington St",
    "sg:city":"Lexington",
    "sg:classifiers":[
        {
            "category":"Social Services",
            "subcategory":"",
            "type":"Services"
        }
    ],
    "sg:owner":"simplegeo",
    "sg:phone":"+1 540 464 6949",
    "sg:postcode":"24450",
    "sg:province":"VA",
    "src:geom":"simplegeo",
    "wof:belongsto":[],
    "wof:breaches":[],
    "wof:concordances":{
        "sg:id":"SG_1mqthU52pDeNEboo2duNzg_37.783914_-79.439973@1294252573"
    },
    "wof:country":"US",
    "wof:created":1461886474,
    "wof:geomhash":"ba30287f3943049a832755ac98ec6f5d",
    "wof:hierarchy":[],
    "wof:id":722674391,
    "wof:lastmodified":1461886474,
    "wof:name":"Carolyn Wielgus LPC",
    "wof:parent_id":-1,
    "wof:placetype":"venue",
    "wof:superseded_by":[],
    "wof:supersedes":[],
    "wof:tags":[]
},
  "bbox": [
    -79.439973,
    37.783914,
    -79.439973,
    37.783914
],
  "geometry": {"coordinates":[-79.43997299999999,37.783914],"type":"Point"}
}