{
  "id": 722840573,
  "type": "Feature",
  "properties": {
    "edtf:cessation":"uuuu",
    "edtf:inception":"uuuu",
    "geom:area":0.0,
    "geom:bbox":"-77.617692,37.652385,-77.617692,37.652385",
    "geom:latitude":37.652385,
    "geom:longitude":-77.617692,
    "iso:country":"US",
    "sg:address":"11629 W Broad St",
    "sg:city":"Richmond",
    "sg:classifiers":[
        {
            "category":"Manufacturing",
            "subcategory":"Food",
            "type":"Manufacturing & Wholesale Goods"
        }
    ],
    "sg:owner":"simplegeo",
    "sg:phone":"+1 804 364 8474",
    "sg:postcode":"23233",
    "sg:province":"VA",
    "sg:tags":[
        "corn",
        "chips",
        "potato"
    ],
    "src:geom":"simplegeo",
    "wof:belongsto":[],
    "wof:breaches":[],
    "wof:concordances":{
        "sg:id":"SG_6mHy26FcQ24Dq00Yno70N0_37.652385_-77.617692@1294252573"
    },
    "wof:country":"US",
    "wof:created":1461889639,
    "wof:geomhash":"356309eb794f18eed696ff7b15aa25a3",
    "wof:hierarchy":[],
    "wof:id":722840573,
    "wof:lastmodified":1461889639,
    "wof:name":"Sammy Snacks",
    "wof:parent_id":-1,
    "wof:placetype":"venue",
    "wof:superseded_by":[],
    "wof:supersedes":[],
    "wof:tags":[
        "corn",
        "chips",
        "potato"
    ]
},
  "bbox": [
    -77.617692,
    37.652385,
    -77.617692,
    37.652385
],
  "geometry": {"coordinates":[-77.61769200000001,37.652385],"type":"Point"}
}