{
  "id": 722658619,
  "type": "Feature",
  "properties": {
    "edtf:cessation":"uuuu",
    "edtf:inception":"uuuu",
    "geom:area":0.0,
    "geom:bbox":"-77.694956,38.293572,-77.694956,38.293572",
    "geom:latitude":38.293572,
    "geom:longitude":-77.694956,
    "iso:country":"US",
    "sg:address":"10411 Cooktown Rd",
    "sg:city":"Spotsylvania",
    "sg:classifiers":[
        {
            "category":"Organizations",
            "subcategory":"Religious Organization",
            "type":"Services"
        }
    ],
    "sg:owner":"simplegeo",
    "sg:phone":"+1 540 972 2778",
    "sg:postcode":"22553",
    "sg:province":"VA",
    "src:geom":"simplegeo",
    "wof:belongsto":[],
    "wof:breaches":[],
    "wof:concordances":{
        "sg:id":"SG_30qZtIw6N5Khjj0roFo3yl_38.293572_-77.694956@1294252573"
    },
    "wof:country":"US",
    "wof:created":1461886179,
    "wof:geomhash":"74eaebd94968469a80d83d064f162d67",
    "wof:hierarchy":[],
    "wof:id":722658619,
    "wof:lastmodified":1461886179,
    "wof:name":"Zion Hill Baptist Church",
    "wof:parent_id":-1,
    "wof:placetype":"venue",
    "wof:superseded_by":[],
    "wof:supersedes":[],
    "wof:tags":[]
},
  "bbox": [
    -77.694956,
    38.293572,
    -77.694956,
    38.293572
],
  "geometry": {"coordinates":[-77.694956,38.293572],"type":"Point"}
}