{
  "id": 722570399,
  "type": "Feature",
  "properties": {
    "edtf:cessation":"uuuu",
    "edtf:inception":"uuuu",
    "geom:area":0.0,
    "geom:bbox":"-81.680706,36.799566,-81.680706,36.799566",
    "geom:latitude":36.799566,
    "geom:longitude":-81.680706,
    "iso:country":"US",
    "sg:address":"316 E Lee Hwy",
    "sg:city":"Chilhowie",
    "sg:classifiers":[
        {
            "category":"Personal",
            "subcategory":"Beauty Salon",
            "type":"Services"
        }
    ],
    "sg:owner":"simplegeo",
    "sg:phone":"+1 276 646 5561",
    "sg:postcode":"24319",
    "sg:province":"VA",
    "src:geom":"simplegeo",
    "wof:belongsto":[],
    "wof:breaches":[],
    "wof:concordances":{
        "sg:id":"SG_1anmFbFy7D4dIGtlMrdcTE_36.799566_-81.680706@1294252573"
    },
    "wof:country":"US",
    "wof:created":1461884417,
    "wof:geomhash":"08ee2528117013a4b3a7e4e7544ed37c",
    "wof:hierarchy":[],
    "wof:id":722570399,
    "wof:lastmodified":1461884417,
    "wof:name":"Creative Designs Hair Salon",
    "wof:parent_id":-1,
    "wof:placetype":"venue",
    "wof:superseded_by":[],
    "wof:supersedes":[],
    "wof:tags":[]
},
  "bbox": [
    -81.680706,
    36.799566,
    -81.680706,
    36.799566
],
  "geometry": {"coordinates":[-81.680706,36.799566],"type":"Point"}
}