{
  "id": 722973641,
  "type": "Feature",
  "properties": {
    "edtf:cessation":"uuuu",
    "edtf:inception":"uuuu",
    "geom:area":0.0,
    "geom:bbox":"-77.264815,38.86632,-77.264815,38.86632",
    "geom:latitude":38.86632,
    "geom:longitude":-77.264815,
    "iso:country":"US",
    "sg:address":"3187 Lindenwood Ln",
    "sg:city":"Fairfax",
    "sg:classifiers":[
        {
            "category":"Education",
            "subcategory":"Special Training",
            "type":"Public Place"
        }
    ],
    "sg:owner":"simplegeo",
    "sg:phone":"+1 703 267 5766",
    "sg:postcode":"22031",
    "sg:province":"VA",
    "sg:tags":[
        "instruction",
        "music"
    ],
    "src:geom":"simplegeo",
    "wof:belongsto":[],
    "wof:breaches":[],
    "wof:concordances":{
        "sg:id":"SG_5n65RN4jzLASYKpLMPqvOW_38.866320_-77.264815@1294252573"
    },
    "wof:country":"US",
    "wof:created":1461892322,
    "wof:geomhash":"2688d1aa6343b330a87e9f2ca8d9a826",
    "wof:hierarchy":[],
    "wof:id":722973641,
    "wof:lastmodified":1461892322,
    "wof:name":"Olga Alferova Roberts Piano",
    "wof:parent_id":-1,
    "wof:placetype":"venue",
    "wof:superseded_by":[],
    "wof:supersedes":[],
    "wof:tags":[
        "instruction",
        "music"
    ]
},
  "bbox": [
    -77.264815,
    38.86632,
    -77.264815,
    38.86632
],
  "geometry": {"coordinates":[-77.264815,38.86632],"type":"Point"}
}