{
  "id": 739719893,
  "type": "Feature",
  "properties": {
    "edtf:cessation":"uuuu",
    "edtf:inception":"uuuu",
    "geom:area":0.0,
    "geom:bbox":"-77.491737,37.617001,-77.491737,37.617001",
    "geom:latitude":37.617001,
    "geom:longitude":-77.491737,
    "iso:country":"US",
    "sg:address":"3000 Impala Pl",
    "sg:city":"Henrico",
    "sg:classifiers":[
        {
            "category":"Health Services",
            "subcategory":"Hospital",
            "type":"Services"
        }
    ],
    "sg:owner":"simplegeo",
    "sg:phone":"+1 804 266 2030",
    "sg:postcode":"23228",
    "sg:province":"VA",
    "sg:tags":[
        "ambulance"
    ],
    "src:geom":"simplegeo",
    "wof:belongsto":[],
    "wof:breaches":[],
    "wof:concordances":{
        "sg:id":"SG_1RMOpEBkXXOJUojn2dp1ho_37.617001_-77.491737@1303262550"
    },
    "wof:country":"US",
    "wof:created":1461912991,
    "wof:geomhash":"0bdc18f1866cf6809fbe08df68ca9c94",
    "wof:hierarchy":[],
    "wof:id":739719893,
    "wof:lastmodified":1461912991,
    "wof:name":"Mar-Mac Transportation Services Inc",
    "wof:parent_id":-1,
    "wof:placetype":"venue",
    "wof:superseded_by":[],
    "wof:supersedes":[],
    "wof:tags":[
        "ambulance"
    ]
},
  "bbox": [
    -77.491737,
    37.617001,
    -77.491737,
    37.617001
],
  "geometry": {"coordinates":[-77.491737,37.617001],"type":"Point"}
}