{
  "id": 723299673,
  "type": "Feature",
  "properties": {
    "edtf:cessation":"uuuu",
    "edtf:inception":"uuuu",
    "geom:area":0.0,
    "geom:bbox":"-78.078348,37.159924,-78.078348,37.159924",
    "geom:latitude":37.159924,
    "geom:longitude":-78.078348,
    "iso:country":"US",
    "sg:address":"1281 Winningham Rd",
    "sg:city":"Crewe",
    "sg:classifiers":[
        {
            "category":"Professional",
            "subcategory":"",
            "type":"Services"
        }
    ],
    "sg:owner":"simplegeo",
    "sg:phone":"+1 434 645 7616",
    "sg:postcode":"23930",
    "sg:province":"VA",
    "src:geom":"simplegeo",
    "wof:belongsto":[],
    "wof:breaches":[],
    "wof:concordances":{
        "sg:id":"SG_0E0fhpWfB756PqyWNMUYAx_37.159924_-78.078348@1294252573"
    },
    "wof:country":"US",
    "wof:created":1461899057,
    "wof:geomhash":"dbd594802501719ea0ec7894b7f4866d",
    "wof:hierarchy":[],
    "wof:id":723299673,
    "wof:lastmodified":1461899057,
    "wof:name":"Jeff Watson",
    "wof:parent_id":-1,
    "wof:placetype":"venue",
    "wof:superseded_by":[],
    "wof:supersedes":[],
    "wof:tags":[]
},
  "bbox": [
    -78.078348,
    37.159924,
    -78.078348,
    37.159924
],
  "geometry": {"coordinates":[-78.07834800000001,37.159924],"type":"Point"}
}