{
  "id": 723357643,
  "type": "Feature",
  "properties": {
    "edtf:cessation":"uuuu",
    "edtf:inception":"uuuu",
    "geom:area":0.0,
    "geom:bbox":"-77.467506,37.468222,-77.467506,37.468222",
    "geom:latitude":37.468222,
    "geom:longitude":-77.467506,
    "iso:country":"US",
    "sg:address":"3827 Walmsley Blvd",
    "sg:city":"Richmond",
    "sg:classifiers":[
        {
            "category":"Organizations",
            "subcategory":"Religious Organization",
            "type":"Services"
        }
    ],
    "sg:owner":"simplegeo",
    "sg:phone":"+1 804 271 5284",
    "sg:postcode":"23234",
    "sg:province":"VA",
    "src:geom":"simplegeo",
    "wof:belongsto":[],
    "wof:breaches":[],
    "wof:concordances":{
        "sg:id":"SG_60ejwC6skrCaLMt76bsvkT_37.468222_-77.467506@1294252573"
    },
    "wof:country":"US",
    "wof:created":1461900136,
    "wof:geomhash":"8af78796ffb72363eb22e05527fdfa36",
    "wof:hierarchy":[],
    "wof:id":723357643,
    "wof:lastmodified":1461900136,
    "wof:name":"Greater Lightouse Church",
    "wof:parent_id":-1,
    "wof:placetype":"venue",
    "wof:superseded_by":[],
    "wof:supersedes":[],
    "wof:tags":[]
},
  "bbox": [
    -77.467506,
    37.468222,
    -77.467506,
    37.468222
],
  "geometry": {"coordinates":[-77.467506,37.468222],"type":"Point"}
}