{
  "id": 722705637,
  "type": "Feature",
  "properties": {
    "edtf:cessation":"uuuu",
    "edtf:inception":"uuuu",
    "geom:area":0.0,
    "geom:bbox":"-77.622301,37.696078,-77.622301,37.696078",
    "geom:latitude":37.696078,
    "geom:longitude":-77.622301,
    "iso:country":"US",
    "sg:address":"5904 Glen Abbey Ct",
    "sg:city":"Glen Allen",
    "sg:classifiers":[
        {
            "category":"Travel",
            "subcategory":"Travel Agent",
            "type":"Entertainment"
        }
    ],
    "sg:owner":"simplegeo",
    "sg:phone":"+1 804 360 9420",
    "sg:postcode":"23059",
    "sg:province":"VA",
    "sg:tags":[
        "agency",
        "bureau"
    ],
    "sg:website":"www.victorytravelinc.com",
    "src:geom":"simplegeo",
    "wof:belongsto":[],
    "wof:breaches":[],
    "wof:concordances":{
        "sg:id":"SG_3RM6jg2nsDWhFFmeuQ0BCp_37.696078_-77.622301@1294252573"
    },
    "wof:country":"US",
    "wof:created":1461887072,
    "wof:geomhash":"aa9c3864ca29b3935125b67bb35af36e",
    "wof:hierarchy":[],
    "wof:id":722705637,
    "wof:lastmodified":1461887072,
    "wof:name":"Victory Travel Inc",
    "wof:parent_id":-1,
    "wof:placetype":"venue",
    "wof:superseded_by":[],
    "wof:supersedes":[],
    "wof:tags":[
        "agency",
        "bureau"
    ]
},
  "bbox": [
    -77.622301,
    37.696078,
    -77.622301,
    37.696078
],
  "geometry": {"coordinates":[-77.62230099999999,37.696078],"type":"Point"}
}