{
  "id": 722918577,
  "type": "Feature",
  "properties": {
    "edtf:cessation":"uuuu",
    "edtf:inception":"uuuu",
    "geom:area":0.0,
    "geom:bbox":"-78.177061,37.66354,-78.177061,37.66354",
    "geom:latitude":37.66354,
    "geom:longitude":-78.177061,
    "iso:country":"US",
    "sg:address":"133 Trices Lake Rd",
    "sg:city":"Columbia",
    "sg:classifiers":[
        {
            "category":"Real Estate",
            "subcategory":"Real Estate Agent",
            "type":"Services"
        }
    ],
    "sg:owner":"simplegeo",
    "sg:phone":"+1 804 375 9100",
    "sg:postcode":"23038",
    "sg:province":"VA",
    "sg:tags":[
        "inspection"
    ],
    "src:geom":"simplegeo",
    "wof:belongsto":[],
    "wof:breaches":[],
    "wof:concordances":{
        "sg:id":"SG_57gzOnwt8sdIdO3pS7Vbqj_37.663540_-78.177061@1294252573"
    },
    "wof:country":"US",
    "wof:created":1461891152,
    "wof:geomhash":"262ec29892a5faf167d78c7efdae01d8",
    "wof:hierarchy":[],
    "wof:id":722918577,
    "wof:lastmodified":1461891152,
    "wof:name":"Sherlock Homes Inspector",
    "wof:parent_id":-1,
    "wof:placetype":"venue",
    "wof:superseded_by":[],
    "wof:supersedes":[],
    "wof:tags":[
        "inspection"
    ]
},
  "bbox": [
    -78.177061,
    37.66354,
    -78.177061,
    37.66354
],
  "geometry": {"coordinates":[-78.17706099999999,37.66354],"type":"Point"}
}