{
  "id": 723303093,
  "type": "Feature",
  "properties": {
    "edtf:cessation":"uuuu",
    "edtf:inception":"uuuu",
    "geom:area":0.0,
    "geom:bbox":"-77.583098,37.646744,-77.583098,37.646744",
    "geom:latitude":37.646744,
    "geom:longitude":-77.583098,
    "iso:country":"US",
    "sg:address":"10951 W Broad St",
    "sg:city":"Richmond",
    "sg:classifiers":[
        {
            "category":"Shopping",
            "subcategory":"Department Store",
            "type":"Retail Goods"
        }
    ],
    "sg:owner":"simplegeo",
    "sg:phone":"+1 804 965 1557",
    "sg:postcode":"23233",
    "sg:province":"VA",
    "sg:tags":[
        "discount"
    ],
    "src:geom":"simplegeo",
    "wof:belongsto":[],
    "wof:breaches":[],
    "wof:concordances":{
        "sg:id":"SG_7BynDluJnCvXMM0Rle2yso_37.646744_-77.583098@1294252573"
    },
    "wof:country":"US",
    "wof:created":1461899120,
    "wof:geomhash":"0871fe651f57df2005da8836cb2ab11c",
    "wof:hierarchy":[],
    "wof:id":723303093,
    "wof:lastmodified":1461899120,
    "wof:name":"Marshalls",
    "wof:parent_id":-1,
    "wof:placetype":"venue",
    "wof:superseded_by":[],
    "wof:supersedes":[],
    "wof:tags":[
        "discount"
    ]
},
  "bbox": [
    -77.583098,
    37.646744,
    -77.583098,
    37.646744
],
  "geometry": {"coordinates":[-77.58309800000001,37.646744],"type":"Point"}
}