{
  "id": 723315833,
  "type": "Feature",
  "properties": {
    "edtf:cessation":"uuuu",
    "edtf:inception":"uuuu",
    "geom:area":0.0,
    "geom:bbox":"-77.437107,38.261272,-77.437107,38.261272",
    "geom:latitude":38.261272,
    "geom:longitude":-77.437107,
    "iso:country":"US",
    "sg:address":"11047 Pierson Dr",
    "sg:city":"Fredericksburg",
    "sg:classifiers":[
        {
            "category":"Social Services",
            "subcategory":"",
            "type":"Services"
        }
    ],
    "sg:owner":"simplegeo",
    "sg:phone":"+1 540 373 5176",
    "sg:postcode":"22408",
    "sg:province":"VA",
    "sg:tags":[
        "disaster",
        "relief"
    ],
    "src:geom":"simplegeo",
    "wof:belongsto":[],
    "wof:breaches":[],
    "wof:concordances":{
        "sg:id":"SG_22ylOHcKz3OOOnRqOgEGYb_38.261272_-77.437107@1294252573"
    },
    "wof:country":"US",
    "wof:created":1461899371,
    "wof:geomhash":"014fdebefb971421740a6afbb0568bb9",
    "wof:hierarchy":[],
    "wof:id":723315833,
    "wof:lastmodified":1461899371,
    "wof:name":"Red Cross",
    "wof:parent_id":-1,
    "wof:placetype":"venue",
    "wof:superseded_by":[],
    "wof:supersedes":[],
    "wof:tags":[
        "disaster",
        "relief"
    ]
},
  "bbox": [
    -77.437107,
    38.261272,
    -77.437107,
    38.261272
],
  "geometry": {"coordinates":[-77.437107,38.261272],"type":"Point"}
}