{
  "id": 739421053,
  "type": "Feature",
  "properties": {
    "edtf:cessation":"uuuu",
    "edtf:inception":"uuuu",
    "geom:area":0.0,
    "geom:bbox":"-77.573672,38.248975,-77.573672,38.248975",
    "geom:latitude":38.248975,
    "geom:longitude":-77.573672,
    "iso:country":"US",
    "sg:address":"7315 Smith Station Rd",
    "sg:city":"Fredericksburg",
    "sg:classifiers":[
        {
            "category":"Education",
            "subcategory":"School",
            "type":"Public Place"
        }
    ],
    "sg:owner":"simplegeo",
    "sg:phone":"+1 540 548 1030",
    "sg:postcode":"22407",
    "sg:province":"VA",
    "src:geom":"simplegeo",
    "wof:belongsto":[],
    "wof:breaches":[],
    "wof:concordances":{
        "sg:id":"SG_1MGLVjeVrKtTNYBLWcgHuZ_38.248975_-77.573672@1294252573"
    },
    "wof:country":"US",
    "wof:created":1461906981,
    "wof:geomhash":"a19f0b98004058dec3a704a2b8e899f9",
    "wof:hierarchy":[],
    "wof:id":739421053,
    "wof:lastmodified":1461906981,
    "wof:name":"Freedom Middle School",
    "wof:parent_id":-1,
    "wof:placetype":"venue",
    "wof:superseded_by":[],
    "wof:supersedes":[],
    "wof:tags":[]
},
  "bbox": [
    -77.573672,
    38.248975,
    -77.573672,
    38.248975
],
  "geometry": {"coordinates":[-77.573672,38.248975],"type":"Point"}
}