{
  "id": 722644035,
  "type": "Feature",
  "properties": {
    "edtf:cessation":"uuuu",
    "edtf:inception":"uuuu",
    "geom:area":0.0,
    "geom:bbox":"-77.59115,38.757425,-77.59115,38.757425",
    "geom:latitude":38.757425,
    "geom:longitude":-77.59115,
    "iso:country":"US",
    "sg:address":"9131 Worthington Dr",
    "sg:city":"Bristow",
    "sg:classifiers":[
        {
            "category":"Building & Trades",
            "subcategory":"Construction",
            "type":"Services"
        }
    ],
    "sg:owner":"simplegeo",
    "sg:phone":"+1 703 753 8507",
    "sg:postcode":"20136",
    "sg:province":"VA",
    "sg:tags":[
        "hanging",
        "contractor"
    ],
    "src:geom":"simplegeo",
    "wof:belongsto":[],
    "wof:breaches":[],
    "wof:concordances":{
        "sg:id":"SG_3Etim0Pq3Plstx07GRiY3a_38.757425_-77.591150@1294252573"
    },
    "wof:country":"US",
    "wof:created":1461885911,
    "wof:geomhash":"ceabc6a2bda79e679c1194792818ba1d",
    "wof:hierarchy":[],
    "wof:id":722644035,
    "wof:lastmodified":1461885911,
    "wof:name":"William Carter Painting",
    "wof:parent_id":-1,
    "wof:placetype":"venue",
    "wof:superseded_by":[],
    "wof:supersedes":[],
    "wof:tags":[
        "hanging",
        "contractor"
    ]
},
  "bbox": [
    -77.59115,
    38.757425,
    -77.59115,
    38.757425
],
  "geometry": {"coordinates":[-77.59115,38.757425],"type":"Point"}
}