{
  "id": 739404043,
  "type": "Feature",
  "properties": {
    "edtf:cessation":"uuuu",
    "edtf:inception":"uuuu",
    "geom:area":0.0,
    "geom:bbox":"-77.344155,37.610894,-77.344155,37.610894",
    "geom:latitude":37.610894,
    "geom:longitude":-77.344155,
    "iso:country":"US",
    "sg:address":"7123 Mechanicsville Tpke",
    "sg:city":"Mechanicsville",
    "sg:classifiers":[
        {
            "category":"Retail",
            "subcategory":"Car Wash",
            "type":"Services"
        }
    ],
    "sg:owner":"simplegeo",
    "sg:phone":"+1 804 559 2093",
    "sg:postcode":"23111",
    "sg:province":"VA",
    "sg:tags":[
        "carwash",
        "automotive"
    ],
    "src:geom":"simplegeo",
    "wof:belongsto":[],
    "wof:breaches":[],
    "wof:concordances":{
        "sg:id":"SG_73K9nAaaZsGquuzYpjgfg7_37.610894_-77.344155@1294252573"
    },
    "wof:country":"US",
    "wof:created":1461906656,
    "wof:geomhash":"274dd5c657bfcddb19744dd141503ad2",
    "wof:hierarchy":[],
    "wof:id":739404043,
    "wof:lastmodified":1461906656,
    "wof:name":"Car Pool Inc",
    "wof:parent_id":-1,
    "wof:placetype":"venue",
    "wof:superseded_by":[],
    "wof:supersedes":[],
    "wof:tags":[
        "carwash",
        "automotive"
    ]
},
  "bbox": [
    -77.344155,
    37.610894,
    -77.344155,
    37.610894
],
  "geometry": {"coordinates":[-77.344155,37.610894],"type":"Point"}
}