{
  "id": 739273101,
  "type": "Feature",
  "properties": {
    "edtf:cessation":"uuuu",
    "edtf:inception":"uuuu",
    "geom:area":0.0,
    "geom:bbox":"-77.436231,37.69271,-77.436231,37.69271",
    "geom:latitude":37.69271,
    "geom:longitude":-77.436231,
    "iso:country":"US",
    "sg:address":"9553 Kings Charter Dr",
    "sg:city":"Ashland",
    "sg:classifiers":[
        {
            "category":"Retail",
            "subcategory":"Veterinary Services",
            "type":"Services"
        }
    ],
    "sg:owner":"simplegeo",
    "sg:phone":"+1 804 550 2458",
    "sg:postcode":"23005",
    "sg:province":"VA",
    "src:geom":"simplegeo",
    "wof:belongsto":[],
    "wof:breaches":[],
    "wof:concordances":{
        "sg:id":"SG_61Y9x97QkGQZj6SWf9spzD_37.692710_-77.436231@1294252573"
    },
    "wof:country":"US",
    "wof:created":1461903994,
    "wof:geomhash":"60511d5411b31f1e11a19ccd039719f2",
    "wof:hierarchy":[],
    "wof:id":739273101,
    "wof:lastmodified":1461903994,
    "wof:name":"Olberding Steven A",
    "wof:parent_id":-1,
    "wof:placetype":"venue",
    "wof:superseded_by":[],
    "wof:supersedes":[],
    "wof:tags":[]
},
  "bbox": [
    -77.436231,
    37.69271,
    -77.436231,
    37.69271
],
  "geometry": {"coordinates":[-77.43623100000001,37.69271],"type":"Point"}
}