{
  "id": 723011565,
  "type": "Feature",
  "properties": {
    "edtf:cessation":"uuuu",
    "edtf:inception":"uuuu",
    "geom:area":0.0,
    "geom:bbox":"-77.602445,38.948623,-77.602445,38.948623",
    "geom:latitude":38.948623,
    "geom:longitude":-77.602445,
    "iso:country":"US",
    "sg:address":"40488 Windcroft Ln",
    "sg:city":"Aldie",
    "sg:classifiers":[
        {
            "category":"Real Estate",
            "subcategory":"Real Estate Agent",
            "type":"Services"
        }
    ],
    "sg:owner":"simplegeo",
    "sg:phone":"+1 703 327 4333",
    "sg:postcode":"20105",
    "sg:province":"VA",
    "sg:tags":[
        "broker"
    ],
    "src:geom":"simplegeo",
    "wof:belongsto":[],
    "wof:breaches":[],
    "wof:concordances":{
        "sg:id":"SG_3AqUDTohhbd5wLERtACPRP_38.948623_-77.602445@1294252573"
    },
    "wof:country":"US",
    "wof:created":1461893172,
    "wof:geomhash":"452da4d5ec15a12e07f06f2ceba5c4cd",
    "wof:hierarchy":[],
    "wof:id":723011565,
    "wof:lastmodified":1461893172,
    "wof:name":"Excalibur Group Realtors Inc",
    "wof:parent_id":-1,
    "wof:placetype":"venue",
    "wof:superseded_by":[],
    "wof:supersedes":[],
    "wof:tags":[
        "broker"
    ]
},
  "bbox": [
    -77.602445,
    38.948623,
    -77.602445,
    38.948623
],
  "geometry": {"coordinates":[-77.602445,38.948623],"type":"Point"}
}