{
  "id": 722893733,
  "type": "Feature",
  "properties": {
    "edtf:cessation":"uuuu",
    "edtf:inception":"uuuu",
    "geom:area":0.0,
    "geom:bbox":"-77.552878,38.286901,-77.552878,38.286901",
    "geom:latitude":38.286901,
    "geom:longitude":-77.552878,
    "iso:country":"US",
    "sg:address":"11940 Cherry Rd",
    "sg:city":"Fredericksburg",
    "sg:classifiers":[
        {
            "category":"Utilities",
            "subcategory":"Telephone",
            "type":"Services"
        }
    ],
    "sg:owner":"simplegeo",
    "sg:phone":"+1 540 786 8349",
    "sg:postcode":"22407",
    "sg:province":"VA",
    "sg:tags":[
        "communications"
    ],
    "src:geom":"simplegeo",
    "wof:belongsto":[],
    "wof:breaches":[],
    "wof:concordances":{
        "sg:id":"SG_5RKkTUMLdGDxCnvK6MbIQC_38.286901_-77.552878@1294252573"
    },
    "wof:country":"US",
    "wof:created":1461890655,
    "wof:geomhash":"8dc964dfa566eef5b66bb80dbc5fdf88",
    "wof:hierarchy":[],
    "wof:id":722893733,
    "wof:lastmodified":1461890655,
    "wof:name":"Verizon",
    "wof:parent_id":-1,
    "wof:placetype":"venue",
    "wof:superseded_by":[],
    "wof:supersedes":[],
    "wof:tags":[
        "communications"
    ]
},
  "bbox": [
    -77.552878,
    38.286901,
    -77.552878,
    38.286901
],
  "geometry": {"coordinates":[-77.55287800000001,38.286901],"type":"Point"}
}