{
  "id": 722723065,
  "type": "Feature",
  "properties": {
    "edtf:cessation":"uuuu",
    "edtf:inception":"uuuu",
    "geom:area":0.0,
    "geom:bbox":"-77.275559,37.161507,-77.275559,37.161507",
    "geom:latitude":37.161507,
    "geom:longitude":-77.275559,
    "iso:country":"US",
    "sg:address":"11033 Prince George Dr",
    "sg:city":"Disputanta",
    "sg:classifiers":[
        {
            "category":"Education",
            "subcategory":"School",
            "type":"Public Place"
        }
    ],
    "sg:owner":"simplegeo",
    "sg:phone":"+1 804 722 9742",
    "sg:postcode":"23842",
    "sg:province":"VA",
    "src:geom":"simplegeo",
    "wof:belongsto":[],
    "wof:breaches":[],
    "wof:concordances":{
        "sg:id":"SG_3WSetnjgIPjLlRrnXHdvqj_37.161507_-77.275559@1294252573"
    },
    "wof:country":"US",
    "wof:created":1461887402,
    "wof:geomhash":"c41e93492cc311c68a192387b7cd8b77",
    "wof:hierarchy":[],
    "wof:id":722723065,
    "wof:lastmodified":1461887402,
    "wof:name":"Crater Crminal Justice Academy",
    "wof:parent_id":-1,
    "wof:placetype":"venue",
    "wof:superseded_by":[],
    "wof:supersedes":[],
    "wof:tags":[]
},
  "bbox": [
    -77.275559,
    37.161507,
    -77.275559,
    37.161507
],
  "geometry": {"coordinates":[-77.275559,37.161507],"type":"Point"}
}