{
  "id": 739498939,
  "type": "Feature",
  "properties": {
    "edtf:cessation":"uuuu",
    "edtf:inception":"uuuu",
    "geom:area":0.0,
    "geom:bbox":"-77.474062,38.843369,-77.474062,38.843369",
    "geom:latitude":38.843369,
    "geom:longitude":-77.474062,
    "iso:country":"US",
    "sg:address":"6317 Hidden Canyon Rd",
    "sg:city":"Centreville",
    "sg:classifiers":[
        {
            "category":"Building & Trades",
            "subcategory":"Plumbing",
            "type":"Services"
        }
    ],
    "sg:owner":"simplegeo",
    "sg:phone":"+1 703 517 3566",
    "sg:postcode":"20120",
    "sg:province":"VA",
    "sg:tags":[
        "conditioning",
        "air",
        "system",
        "contractor"
    ],
    "src:geom":"simplegeo",
    "wof:belongsto":[],
    "wof:breaches":[],
    "wof:concordances":{
        "sg:id":"SG_6EXWjLFnZbBEOYMO09isWw_38.843369_-77.474062@1294252573"
    },
    "wof:country":"US",
    "wof:created":1461908407,
    "wof:geomhash":"965a2838c50497e3cde8a2592a8bdfd4",
    "wof:hierarchy":[],
    "wof:id":739498939,
    "wof:lastmodified":1461908407,
    "wof:name":"D P Professional Svc",
    "wof:parent_id":-1,
    "wof:placetype":"venue",
    "wof:superseded_by":[],
    "wof:supersedes":[],
    "wof:tags":[
        "conditioning",
        "air",
        "system",
        "contractor"
    ]
},
  "bbox": [
    -77.474062,
    38.843369,
    -77.474062,
    38.843369
],
  "geometry": {"coordinates":[-77.474062,38.843369],"type":"Point"}
}