{
  "id": 739483035,
  "type": "Feature",
  "properties": {
    "edtf:cessation":"uuuu",
    "edtf:inception":"uuuu",
    "geom:area":0.0,
    "geom:bbox":"-77.221015,38.688593,-77.221015,38.688593",
    "geom:latitude":38.688593,
    "geom:longitude":-77.221015,
    "iso:country":"US",
    "sg:address":"9917 Richmond Hwy",
    "sg:city":"Lorton",
    "sg:classifiers":[
        {
            "category":"Utilities",
            "subcategory":"Refuse",
            "type":"Services"
        }
    ],
    "sg:owner":"simplegeo",
    "sg:phone":"+1 703 550 9257",
    "sg:postcode":"22079",
    "sg:province":"VA",
    "sg:tags":[
        "landfill"
    ],
    "src:geom":"simplegeo",
    "wof:belongsto":[],
    "wof:breaches":[],
    "wof:concordances":{
        "sg:id":"SG_0Wl5LduKU1azqE6zDzwiO1_38.688593_-77.221015@1294252573"
    },
    "wof:country":"US",
    "wof:created":1461908126,
    "wof:geomhash":"18390eed53db3158258552a14c357ddb",
    "wof:hierarchy":[],
    "wof:id":739483035,
    "wof:lastmodified":1461908126,
    "wof:name":"Rainwater Landfill",
    "wof:parent_id":-1,
    "wof:placetype":"venue",
    "wof:superseded_by":[],
    "wof:supersedes":[],
    "wof:tags":[
        "landfill"
    ]
},
  "bbox": [
    -77.221015,
    38.688593,
    -77.221015,
    38.688593
],
  "geometry": {"coordinates":[-77.22101499999999,38.688593],"type":"Point"}
}