{
  "id": 723035973,
  "type": "Feature",
  "properties": {
    "edtf:cessation":"uuuu",
    "edtf:inception":"uuuu",
    "geom:area":0.0,
    "geom:bbox":"-77.851978,36.757088,-77.851978,36.757088",
    "geom:latitude":36.757088,
    "geom:longitude":-77.851978,
    "iso:country":"US",
    "sg:address":"507 New St",
    "sg:city":"Blackstone",
    "sg:classifiers":[
        {
            "category":"Manufacturing",
            "subcategory":"Lumber",
            "type":"Manufacturing & Wholesale Goods"
        }
    ],
    "sg:owner":"simplegeo",
    "sg:phone":"+1 434 292 7266",
    "sg:postcode":"23868",
    "sg:province":"VA",
    "sg:tags":[
        "hardwood",
        "mill"
    ],
    "src:geom":"simplegeo",
    "wof:belongsto":[],
    "wof:breaches":[],
    "wof:concordances":{
        "sg:id":"SG_59Hwfcr3AeFZoDXp9Gdg7v_36.757088_-77.851978@1294252573"
    },
    "wof:country":"US",
    "wof:created":1461893723,
    "wof:geomhash":"ac3e5673ba7f20ee8fed7aa61230a55b",
    "wof:hierarchy":[],
    "wof:id":723035973,
    "wof:lastmodified":1461893723,
    "wof:name":"Blackstn Dmnsn/Blckstn Dry Kln",
    "wof:parent_id":-1,
    "wof:placetype":"venue",
    "wof:superseded_by":[],
    "wof:supersedes":[],
    "wof:tags":[
        "hardwood",
        "mill"
    ]
},
  "bbox": [
    -77.851978,
    36.757088,
    -77.851978,
    36.757088
],
  "geometry": {"coordinates":[-77.851978,36.757088],"type":"Point"}
}