{
  "id": 739692989,
  "type": "Feature",
  "properties": {
    "edtf:cessation":"uuuu",
    "edtf:inception":"uuuu",
    "geom:area":0.0,
    "geom:bbox":"-77.452173,38.313288,-77.452173,38.313288",
    "geom:latitude":38.313288,
    "geom:longitude":-77.452173,
    "iso:country":"US",
    "sg:address":"421 Chatham Square Office Park Ofc",
    "sg:city":"Fredericksburg",
    "sg:classifiers":[
        {
            "category":"Health Services",
            "subcategory":"Clinic",
            "type":"Services"
        },
        {
            "category":"Health Services",
            "subcategory":"Health Practitioner",
            "type":"Services"
        }
    ],
    "sg:owner":"simplegeo",
    "sg:phone":"+1 540 374 9399",
    "sg:postcode":"22405",
    "sg:province":"VA",
    "sg:tags":[
        "therapist",
        "therapy",
        "physical"
    ],
    "src:geom":"simplegeo",
    "wof:belongsto":[],
    "wof:breaches":[],
    "wof:concordances":{
        "sg:id":"SG_0lDadwBTlrMh51Fu0uOC5m_38.313288_-77.452173@1303262546"
    },
    "wof:country":"US",
    "wof:created":1461912400,
    "wof:geomhash":"35eb698819ee1170d83fd8e83a1d049c",
    "wof:hierarchy":[],
    "wof:id":739692989,
    "wof:lastmodified":1461912400,
    "wof:name":"Body Balance For Performance Inc",
    "wof:parent_id":-1,
    "wof:placetype":"venue",
    "wof:superseded_by":[],
    "wof:supersedes":[],
    "wof:tags":[
        "therapist",
        "therapy",
        "physical"
    ]
},
  "bbox": [
    -77.452173,
    38.313288,
    -77.452173,
    38.313288
],
  "geometry": {"coordinates":[-77.452173,38.313288],"type":"Point"}
}