{
  "id": 722696753,
  "type": "Feature",
  "properties": {
    "edtf:cessation":"uuuu",
    "edtf:inception":"uuuu",
    "geom:area":0.0,
    "geom:bbox":"-77.42692,38.253632,-77.42692,38.253632",
    "geom:latitude":38.253632,
    "geom:longitude":-77.42692,
    "iso:country":"US",
    "sg:address":"10816 Tidewater Trl",
    "sg:city":"Fredericksburg",
    "sg:classifiers":[
        {
            "category":"Retail",
            "subcategory":"Auto Rental",
            "type":"Services"
        }
    ],
    "sg:owner":"simplegeo",
    "sg:phone":"+1 540 373 7907",
    "sg:postcode":"22408",
    "sg:province":"VA",
    "sg:tags":[
        "renting",
        "truck",
        "leasing"
    ],
    "src:geom":"simplegeo",
    "wof:belongsto":[],
    "wof:breaches":[],
    "wof:concordances":{
        "sg:id":"SG_4ZUF51IBm5jvGI60oiCwiY_38.253632_-77.426920@1294252573"
    },
    "wof:country":"US",
    "wof:created":1461886909,
    "wof:geomhash":"1160d0ec6325a26b2fb3fdcdde9674b4",
    "wof:hierarchy":[],
    "wof:id":722696753,
    "wof:lastmodified":1461886909,
    "wof:name":"U-Haul Co",
    "wof:parent_id":-1,
    "wof:placetype":"venue",
    "wof:superseded_by":[],
    "wof:supersedes":[],
    "wof:tags":[
        "renting",
        "truck",
        "leasing"
    ]
},
  "bbox": [
    -77.42692,
    38.253632,
    -77.42692,
    38.253632
],
  "geometry": {"coordinates":[-77.42692,38.253632],"type":"Point"}
}