{
  "id": 722644381,
  "type": "Feature",
  "properties": {
    "edtf:cessation":"uuuu",
    "edtf:inception":"uuuu",
    "geom:area":0.0,
    "geom:bbox":"-78.173999,39.177958,-78.173999,39.177958",
    "geom:latitude":39.177958,
    "geom:longitude":-78.173999,
    "iso:country":"US",
    "sg:address":"425 Handley Blvd",
    "sg:city":"Winchester",
    "sg:classifiers":[
        {
            "category":"Education",
            "subcategory":"School",
            "type":"Public Place"
        }
    ],
    "sg:owner":"simplegeo",
    "sg:phone":"+1 540 662 3471",
    "sg:postcode":"22601",
    "sg:province":"VA",
    "src:geom":"simplegeo",
    "wof:belongsto":[],
    "wof:breaches":[],
    "wof:concordances":{
        "sg:id":"SG_4OBQ7a4YDfjDwdvSYFxG6e_39.177958_-78.173999@1294252573"
    },
    "wof:country":"US",
    "wof:created":1461885917,
    "wof:geomhash":"379100bb745b595ce8322d0250f1a404",
    "wof:hierarchy":[],
    "wof:id":722644381,
    "wof:lastmodified":1461885917,
    "wof:name":"Handley High School",
    "wof:parent_id":-1,
    "wof:placetype":"venue",
    "wof:superseded_by":[],
    "wof:supersedes":[],
    "wof:tags":[]
},
  "bbox": [
    -78.173999,
    39.177958,
    -78.173999,
    39.177958
],
  "geometry": {"coordinates":[-78.17399899999999,39.177958],"type":"Point"}
}