{
  "id": 722952371,
  "type": "Feature",
  "properties": {
    "edtf:cessation":"uuuu",
    "edtf:inception":"uuuu",
    "geom:area":0.0,
    "geom:bbox":"-77.50188,38.788221,-77.50188,38.788221",
    "geom:latitude":38.788221,
    "geom:longitude":-77.50188,
    "iso:country":"US",
    "sg:address":"7638 Bland Dr",
    "sg:city":"Manassas",
    "sg:classifiers":[
        {
            "category":"Retail",
            "subcategory":"Auto Repair",
            "type":"Services"
        }
    ],
    "sg:owner":"simplegeo",
    "sg:phone":"+1 703 392 8772",
    "sg:postcode":"20109",
    "sg:province":"VA",
    "sg:tags":[
        "body"
    ],
    "src:geom":"simplegeo",
    "wof:belongsto":[],
    "wof:breaches":[],
    "wof:concordances":{
        "sg:id":"SG_1nZtdFI7OixqWBeRHSPuD2_38.788221_-77.501880@1294252573"
    },
    "wof:country":"US",
    "wof:created":1461891876,
    "wof:geomhash":"62dd55614a9c1bf57b29476d72ea3005",
    "wof:hierarchy":[],
    "wof:id":722952371,
    "wof:lastmodified":1461891876,
    "wof:name":"Rosebud",
    "wof:parent_id":-1,
    "wof:placetype":"venue",
    "wof:superseded_by":[],
    "wof:supersedes":[],
    "wof:tags":[
        "body"
    ]
},
  "bbox": [
    -77.50188,
    38.788221,
    -77.50188,
    38.788221
],
  "geometry": {"coordinates":[-77.50188,38.788221],"type":"Point"}
}