{
  "id": 723328511,
  "type": "Feature",
  "properties": {
    "edtf:cessation":"uuuu",
    "edtf:inception":"uuuu",
    "geom:area":0.0,
    "geom:bbox":"-77.479794,37.579054,-77.479794,37.579054",
    "geom:latitude":37.579054,
    "geom:longitude":-77.479794,
    "iso:country":"US",
    "sg:address":"2171 Tomlyn St",
    "sg:city":"Richmond",
    "sg:classifiers":[
        {
            "category":"Wholesale",
            "subcategory":"Stationery",
            "type":"Manufacturing & Wholesale Goods"
        }
    ],
    "sg:owner":"simplegeo",
    "sg:phone":"+1 804 354 9795",
    "sg:postcode":"23230",
    "sg:province":"VA",
    "sg:tags":[
        "ind",
        "paper"
    ],
    "src:geom":"simplegeo",
    "wof:belongsto":[],
    "wof:breaches":[],
    "wof:concordances":{
        "sg:id":"SG_53Oqo0eujZ517Hhy07Nam2_37.579054_-77.479794@1294252573"
    },
    "wof:country":"US",
    "wof:created":1461899600,
    "wof:geomhash":"a06c88de5bfbc48db4bd259f62d0427a",
    "wof:hierarchy":[],
    "wof:id":723328511,
    "wof:lastmodified":1461899600,
    "wof:name":"International Paper",
    "wof:parent_id":-1,
    "wof:placetype":"venue",
    "wof:superseded_by":[],
    "wof:supersedes":[],
    "wof:tags":[
        "ind",
        "paper"
    ]
},
  "bbox": [
    -77.479794,
    37.579054,
    -77.479794,
    37.579054
],
  "geometry": {"coordinates":[-77.479794,37.579054],"type":"Point"}
}