{
  "id": 739711021,
  "type": "Feature",
  "properties": {
    "edtf:cessation":"uuuu",
    "edtf:inception":"uuuu",
    "geom:area":0.0,
    "geom:bbox":"-77.397968,37.647747,-77.397968,37.647747",
    "geom:latitude":37.647747,
    "geom:longitude":-77.397968,
    "iso:country":"US",
    "sg:address":"9161 Atlee Rd Ste A",
    "sg:city":"Mechanicsville",
    "sg:classifiers":[
        {
            "category":"Education",
            "subcategory":"Library",
            "type":"Public Place"
        }
    ],
    "sg:owner":"simplegeo",
    "sg:phone":"+1 804 559 0654",
    "sg:postcode":"23116",
    "sg:province":"VA",
    "src:geom":"simplegeo",
    "wof:belongsto":[],
    "wof:breaches":[],
    "wof:concordances":{
        "sg:id":"SG_69388skT4qMIS2mJutyLqM_37.647747_-77.397968@1303262549"
    },
    "wof:country":"US",
    "wof:created":1461912802,
    "wof:geomhash":"5a9c10b41af77d6faddbbf82d3448a28",
    "wof:hierarchy":[],
    "wof:id":739711021,
    "wof:lastmodified":1461912802,
    "wof:name":"Atlee Library",
    "wof:parent_id":-1,
    "wof:placetype":"venue",
    "wof:superseded_by":[],
    "wof:supersedes":[],
    "wof:tags":[]
},
  "bbox": [
    -77.397968,
    37.647747,
    -77.397968,
    37.647747
],
  "geometry": {"coordinates":[-77.39796800000001,37.647747],"type":"Point"}
}