{
  "id": 739586149,
  "type": "Feature",
  "properties": {
    "edtf:cessation":"uuuu",
    "edtf:inception":"uuuu",
    "geom:area":0.0,
    "geom:bbox":"-76.674149,37.264319,-76.674149,37.264319",
    "geom:latitude":37.264319,
    "geom:longitude":-76.674149,
    "iso:country":"US",
    "sg:address":"7123 Merrimac Trl",
    "sg:city":"Williamsburg",
    "sg:classifiers":[
        {
            "category":"Deli",
            "subcategory":"",
            "type":"Food & Drink"
        }
    ],
    "sg:menulink":"http://www.allmenus.com/va/roberts/17909-short-stop-deli/menu/",
    "sg:owner":"simplegeo",
    "sg:phone":"+1 757 229 1388",
    "sg:postcode":"23185",
    "sg:province":"VA",
    "sg:tags":[
        "american",
        "sandwich"
    ],
    "src:geom":"simplegeo",
    "wof:belongsto":[],
    "wof:breaches":[],
    "wof:concordances":{
        "sg:id":"SG_5vBfgAcSfW401Fi4EouAfP_37.264319_-76.674149@1299784598"
    },
    "wof:country":"US",
    "wof:created":1461910125,
    "wof:geomhash":"6f97eafb1423736dbfc304b2af028a29",
    "wof:hierarchy":[],
    "wof:id":739586149,
    "wof:lastmodified":1461910125,
    "wof:name":"Short Stop Deli",
    "wof:parent_id":-1,
    "wof:placetype":"venue",
    "wof:superseded_by":[],
    "wof:supersedes":[],
    "wof:tags":[
        "american",
        "sandwich"
    ]
},
  "bbox": [
    -76.674149,
    37.264319,
    -76.674149,
    37.264319
],
  "geometry": {"coordinates":[-76.674149,37.264319],"type":"Point"}
}