{
  "id": 739525603,
  "type": "Feature",
  "properties": {
    "edtf:cessation":"uuuu",
    "edtf:inception":"uuuu",
    "geom:area":0.0,
    "geom:bbox":"-77.517062,38.805622,-77.517062,38.805622",
    "geom:latitude":38.805622,
    "geom:longitude":-77.517062,
    "iso:country":"US",
    "sg:address":"10500 Battleview Pkwy",
    "sg:city":"Manassas",
    "sg:classifiers":[
        {
            "category":"Professional",
            "subcategory":"",
            "type":"Services"
        }
    ],
    "sg:owner":"simplegeo",
    "sg:phone":"+1 703 330 4624",
    "sg:postcode":"20109",
    "sg:province":"VA",
    "sg:tags":[
        "establishment"
    ],
    "src:geom":"simplegeo",
    "wof:belongsto":[],
    "wof:breaches":[],
    "wof:concordances":{
        "sg:id":"SG_0gdBGyyrBaqTMKw8YYhSPu_38.805622_-77.517062@1294252573"
    },
    "wof:country":"US",
    "wof:created":1461908898,
    "wof:geomhash":"454dc24f1089fdc167513f9b49bf8148",
    "wof:hierarchy":[],
    "wof:id":739525603,
    "wof:lastmodified":1461908898,
    "wof:name":"SAS Corp",
    "wof:parent_id":-1,
    "wof:placetype":"venue",
    "wof:superseded_by":[],
    "wof:supersedes":[],
    "wof:tags":[
        "establishment"
    ]
},
  "bbox": [
    -77.517062,
    38.805622,
    -77.517062,
    38.805622
],
  "geometry": {"coordinates":[-77.517062,38.805622],"type":"Point"}
}