{
  "id": 739394219,
  "type": "Feature",
  "properties": {
    "edtf:cessation":"uuuu",
    "edtf:inception":"uuuu",
    "geom:area":0.0,
    "geom:bbox":"-76.229328,36.768726,-76.229328,36.768726",
    "geom:latitude":36.768726,
    "geom:longitude":-76.229328,
    "iso:country":"US",
    "sg:address":"801 Volvo Pkwy",
    "sg:city":"Chesapeake",
    "sg:classifiers":[
        {
            "category":"Shopping",
            "subcategory":"Pharmacy",
            "type":"Retail Goods"
        }
    ],
    "sg:owner":"simplegeo",
    "sg:phone":"+1 757 547 9936",
    "sg:postcode":"23320",
    "sg:province":"VA",
    "sg:tags":[
        "drug",
        "store"
    ],
    "src:geom":"simplegeo",
    "wof:belongsto":[],
    "wof:breaches":[],
    "wof:concordances":{
        "sg:id":"SG_5aiuZUJyHjK18Eq7SN64i5_36.768726_-76.229328@1294252573"
    },
    "wof:country":"US",
    "wof:created":1461906471,
    "wof:geomhash":"b251a9cf699c260796005f9337cb4db0",
    "wof:hierarchy":[],
    "wof:id":739394219,
    "wof:lastmodified":1461906471,
    "wof:name":"Rite Aid",
    "wof:parent_id":-1,
    "wof:placetype":"venue",
    "wof:superseded_by":[],
    "wof:supersedes":[],
    "wof:tags":[
        "drug",
        "store"
    ]
},
  "bbox": [
    -76.229328,
    36.768726,
    -76.229328,
    36.768726
],
  "geometry": {"coordinates":[-76.229328,36.768726],"type":"Point"}
}