{
  "id": 723266629,
  "type": "Feature",
  "properties": {
    "edtf:cessation":"uuuu",
    "edtf:inception":"uuuu",
    "geom:area":0.0,
    "geom:bbox":"-77.549564,39.220478,-77.549564,39.220478",
    "geom:latitude":39.220478,
    "geom:longitude":-77.549564,
    "iso:country":"US",
    "sg:address":"42073 Bald Hill Rd",
    "sg:city":"Leesburg",
    "sg:classifiers":[
        {
            "category":"Professional",
            "subcategory":"Management & Consulting",
            "type":"Services"
        },
        {
            "category":"Professional",
            "subcategory":"Advertising",
            "type":"Services"
        }
    ],
    "sg:owner":"simplegeo",
    "sg:phone":"+1 703 443 0119",
    "sg:postcode":"20176",
    "sg:province":"VA",
    "sg:tags":[
        "mail",
        "program",
        "direct",
        "marketing"
    ],
    "src:geom":"simplegeo",
    "wof:belongsto":[],
    "wof:breaches":[],
    "wof:concordances":{
        "sg:id":"SG_5NFsihSc0GtTQQrHvaQATt_39.220478_-77.549564@1294252573"
    },
    "wof:country":"US",
    "wof:created":1461898436,
    "wof:geomhash":"314b13e14a6ae9c9256ebf726e991c98",
    "wof:hierarchy":[],
    "wof:id":723266629,
    "wof:lastmodified":1461898436,
    "wof:name":"Production Services Associates",
    "wof:parent_id":-1,
    "wof:placetype":"venue",
    "wof:superseded_by":[],
    "wof:supersedes":[],
    "wof:tags":[
        "mail",
        "program",
        "direct",
        "marketing"
    ]
},
  "bbox": [
    -77.549564,
    39.220478,
    -77.549564,
    39.220478
],
  "geometry": {"coordinates":[-77.549564,39.220478],"type":"Point"}
}