{
  "id": 723198823,
  "type": "Feature",
  "properties": {
    "edtf:cessation":"uuuu",
    "edtf:inception":"uuuu",
    "geom:area":0.0,
    "geom:bbox":"-77.492245,38.263514,-77.492245,38.263514",
    "geom:latitude":38.263514,
    "geom:longitude":-77.492245,
    "iso:country":"US",
    "sg:address":"3996 Lafayette Blvd",
    "sg:city":"Fredericksburg",
    "sg:classifiers":[
        {
            "category":"Home & Garden",
            "subcategory":"Furniture",
            "type":"Retail Goods"
        }
    ],
    "sg:owner":"simplegeo",
    "sg:phone":"+1 540 891 9444",
    "sg:postcode":"22408",
    "sg:province":"VA",
    "sg:tags":[
        "store"
    ],
    "src:geom":"simplegeo",
    "wof:belongsto":[],
    "wof:breaches":[],
    "wof:concordances":{
        "sg:id":"SG_6uEy6eHQuF4GmxjSTrvz9U_38.263514_-77.492245@1294252573"
    },
    "wof:country":"US",
    "wof:created":1461897054,
    "wof:geomhash":"453890fa99b6e118450cfd0259e933ae",
    "wof:hierarchy":[],
    "wof:id":723198823,
    "wof:lastmodified":1461897054,
    "wof:name":"Lafayette Furniture Gallery",
    "wof:parent_id":-1,
    "wof:placetype":"venue",
    "wof:superseded_by":[],
    "wof:supersedes":[],
    "wof:tags":[
        "store"
    ]
},
  "bbox": [
    -77.492245,
    38.263514,
    -77.492245,
    38.263514
],
  "geometry": {"coordinates":[-77.492245,38.263514],"type":"Point"}
}