{
  "id": 723107807,
  "type": "Feature",
  "properties": {
    "edtf:cessation":"uuuu",
    "edtf:inception":"uuuu",
    "geom:area":0.0,
    "geom:bbox":"-79.288325,37.109774,-79.288325,37.109774",
    "geom:latitude":37.109774,
    "geom:longitude":-79.288325,
    "iso:country":"US",
    "sg:address":"600 Main St",
    "sg:city":"Altavista",
    "sg:classifiers":[
        {
            "category":"Manufacturing",
            "subcategory":"Printing",
            "type":"Manufacturing & Wholesale Goods"
        }
    ],
    "sg:owner":"simplegeo",
    "sg:phone":"+1 434 369 6688",
    "sg:postcode":"24517",
    "sg:province":"VA",
    "sg:tags":[
        "newspaper"
    ],
    "src:geom":"simplegeo",
    "wof:belongsto":[],
    "wof:breaches":[],
    "wof:concordances":{
        "sg:id":"SG_6sph6GM5eFDMMroMbuXkvz_37.109774_-79.288325@1294252573"
    },
    "wof:country":"US",
    "wof:created":1461895274,
    "wof:geomhash":"a281b49b76b06663e5820dbd84941689",
    "wof:hierarchy":[],
    "wof:id":723107807,
    "wof:lastmodified":1461895274,
    "wof:name":"Altavista Journal",
    "wof:parent_id":-1,
    "wof:placetype":"venue",
    "wof:superseded_by":[],
    "wof:supersedes":[],
    "wof:tags":[
        "newspaper"
    ]
},
  "bbox": [
    -79.288325,
    37.109774,
    -79.288325,
    37.109774
],
  "geometry": {"coordinates":[-79.288325,37.109774],"type":"Point"}
}