{
  "id": 739435891,
  "type": "Feature",
  "properties": {
    "edtf:cessation":"uuuu",
    "edtf:inception":"uuuu",
    "geom:area":0.0,
    "geom:bbox":"-77.5045,37.6427,-77.5045,37.6427",
    "geom:latitude":37.6427,
    "geom:longitude":-77.5045,
    "iso:country":"US",
    "sg:address":"2700 Hungary Rd",
    "sg:city":"Richmond",
    "sg:classifiers":[
        {
            "category":"Organizations",
            "subcategory":"Religious Organization",
            "type":"Services"
        }
    ],
    "sg:owner":"simplegeo",
    "sg:phone":"+1 804 266 6520",
    "sg:postcode":"23228",
    "sg:province":"VA",
    "sg:tags":[
        "church"
    ],
    "src:geom":"simplegeo",
    "wof:belongsto":[],
    "wof:breaches":[],
    "wof:concordances":{
        "sg:id":"SG_3ZE7VUDmzZsNatM9roxdn1_37.642700_-77.504500@1294252573"
    },
    "wof:country":"US",
    "wof:created":1461907277,
    "wof:geomhash":"734c64e657523e6e60195914182d225c",
    "wof:hierarchy":[],
    "wof:id":739435891,
    "wof:lastmodified":1461907277,
    "wof:name":"Laurel Park United Methodist",
    "wof:parent_id":-1,
    "wof:placetype":"venue",
    "wof:superseded_by":[],
    "wof:supersedes":[],
    "wof:tags":[
        "church"
    ]
},
  "bbox": [
    -77.5045,
    37.6427,
    -77.5045,
    37.6427
],
  "geometry": {"coordinates":[-77.50449999999999,37.6427],"type":"Point"}
}