{
  "id": 722547893,
  "type": "Feature",
  "properties": {
    "edtf:cessation":"uuuu",
    "edtf:inception":"uuuu",
    "geom:area":0.0,
    "geom:bbox":"-77.383802,38.10262,-77.383802,38.10262",
    "geom:latitude":38.10262,
    "geom:longitude":-77.383802,
    "iso:country":"US",
    "sg:address":"11434 Fredericksburg Tpke",
    "sg:city":"Woodford",
    "sg:classifiers":[
        {
            "category":"Organizations",
            "subcategory":"Religious Organization",
            "type":"Services"
        }
    ],
    "sg:owner":"simplegeo",
    "sg:phone":"+1 804 633 9902",
    "sg:postcode":"22580",
    "sg:province":"VA",
    "src:geom":"simplegeo",
    "wof:belongsto":[],
    "wof:breaches":[],
    "wof:concordances":{
        "sg:id":"SG_51CbkvYCh3R3xdXhxShVsr_38.102620_-77.383802@1294252573"
    },
    "wof:country":"US",
    "wof:created":1461883958,
    "wof:geomhash":"2172a704a8e2ca7caac30938b060787b",
    "wof:hierarchy":[],
    "wof:id":722547893,
    "wof:lastmodified":1461883958,
    "wof:name":"Ambassador Baptist Chu Inc",
    "wof:parent_id":-1,
    "wof:placetype":"venue",
    "wof:superseded_by":[],
    "wof:supersedes":[],
    "wof:tags":[]
},
  "bbox": [
    -77.383802,
    38.10262,
    -77.383802,
    38.10262
],
  "geometry": {"coordinates":[-77.383802,38.10262],"type":"Point"}
}