{
  "id": 723514071,
  "type": "Feature",
  "properties": {
    "edtf:cessation":"uuuu",
    "edtf:inception":"uuuu",
    "geom:area":0.0,
    "geom:bbox":"-80.071962,37.290499,-80.071962,37.290499",
    "geom:latitude":37.290499,
    "geom:longitude":-80.071962,
    "iso:country":"US",
    "sg:address":"850 W Main St",
    "sg:city":"Salem",
    "sg:classifiers":[
        {
            "category":"Recreation",
            "subcategory":"",
            "type":"Entertainment"
        }
    ],
    "sg:owner":"simplegeo",
    "sg:phone":"+1 540 389 7803",
    "sg:postcode":"24153",
    "sg:province":"VA",
    "src:geom":"simplegeo",
    "wof:belongsto":[],
    "wof:breaches":[],
    "wof:concordances":{
        "sg:id":"SG_6786OiePI8piysGarmwjBR_37.290499_-80.071962@1294252573"
    },
    "wof:country":"US",
    "wof:created":1461903307,
    "wof:geomhash":"528dd06afb4ddd1cc42dda8da0335385",
    "wof:hierarchy":[],
    "wof:id":723514071,
    "wof:lastmodified":1461903307,
    "wof:name":"Salem Banquet Hall",
    "wof:parent_id":-1,
    "wof:placetype":"venue",
    "wof:superseded_by":[],
    "wof:supersedes":[],
    "wof:tags":[]
},
  "bbox": [
    -80.071962,
    37.290499,
    -80.071962,
    37.290499
],
  "geometry": {"coordinates":[-80.071962,37.290499],"type":"Point"}
}