{
  "id": 723154615,
  "type": "Feature",
  "properties": {
    "edtf:cessation":"uuuu",
    "edtf:inception":"uuuu",
    "geom:area":0.0,
    "geom:bbox":"-77.264953,38.960588,-77.264953,38.960588",
    "geom:latitude":38.960588,
    "geom:longitude":-77.264953,
    "iso:country":"US",
    "sg:address":"9241 Wood Glade Dr",
    "sg:city":"Great Falls",
    "sg:classifiers":[
        {
            "category":"Professional",
            "subcategory":"Computer Services",
            "type":"Services"
        }
    ],
    "sg:owner":"simplegeo",
    "sg:phone":"+1 703 757 2347",
    "sg:postcode":"22066",
    "sg:province":"VA",
    "sg:tags":[
        "related"
    ],
    "src:geom":"simplegeo",
    "wof:belongsto":[],
    "wof:breaches":[],
    "wof:concordances":{
        "sg:id":"SG_7bbOHfNuiumm5wrBZkper1_38.960588_-77.264953@1294252573"
    },
    "wof:country":"US",
    "wof:created":1461896183,
    "wof:geomhash":"5769fc33a919d3a231cbb47236f3a09b",
    "wof:hierarchy":[],
    "wof:id":723154615,
    "wof:lastmodified":1461896183,
    "wof:name":"Mariah Technologies Inc",
    "wof:parent_id":-1,
    "wof:placetype":"venue",
    "wof:superseded_by":[],
    "wof:supersedes":[],
    "wof:tags":[
        "related"
    ]
},
  "bbox": [
    -77.264953,
    38.960588,
    -77.264953,
    38.960588
],
  "geometry": {"coordinates":[-77.26495300000001,38.960588],"type":"Point"}
}