{
  "id": 722649511,
  "type": "Feature",
  "properties": {
    "edtf:cessation":"uuuu",
    "edtf:inception":"uuuu",
    "geom:area":0.0,
    "geom:bbox":"-82.226044,36.547574,-82.226044,36.547574",
    "geom:latitude":36.547574,
    "geom:longitude":-82.226044,
    "iso:country":"US",
    "sg:address":"3113 Avoca Rd",
    "sg:city":"Bristol",
    "sg:classifiers":[
        {
            "category":"Building & Trades",
            "subcategory":"Construction",
            "type":"Services"
        }
    ],
    "sg:owner":"simplegeo",
    "sg:phone":"+1 423 652 2331",
    "sg:postcode":"37620",
    "sg:province":"VA",
    "sg:tags":[
        "general",
        "contractor"
    ],
    "src:geom":"simplegeo",
    "wof:belongsto":[],
    "wof:breaches":[],
    "wof:concordances":{
        "sg:id":"SG_21JBxhviZqjBa8L6w9DBRw_36.547574_-82.226044@1294252573"
    },
    "wof:country":"US",
    "wof:created":1461886011,
    "wof:geomhash":"e27d79712f790edaf6da6147c4558578",
    "wof:hierarchy":[],
    "wof:id":722649511,
    "wof:lastmodified":1461886011,
    "wof:name":"Stone Oak Properties",
    "wof:parent_id":420542177,
    "wof:placetype":"venue",
    "wof:superseded_by":[],
    "wof:supersedes":[],
    "wof:tags":[
        "general",
        "contractor"
    ]
},
  "bbox": [
    -82.226044,
    36.547574,
    -82.226044,
    36.547574
],
  "geometry": {"coordinates":[-82.226044,36.547574],"type":"Point"}
}