{
  "id": 723216149,
  "type": "Feature",
  "properties": {
    "edtf:cessation":"uuuu",
    "edtf:inception":"uuuu",
    "geom:area":0.0,
    "geom:bbox":"-77.632475,39.211715,-77.632475,39.211715",
    "geom:latitude":39.211715,
    "geom:longitude":-77.632475,
    "iso:country":"US",
    "sg:address":"39109 John Wolford Rd",
    "sg:city":"Waterford",
    "sg:classifiers":[
        {
            "category":"Organizations",
            "subcategory":"Membership Organization",
            "type":"Services"
        }
    ],
    "sg:owner":"simplegeo",
    "sg:phone":"+1 540 882 3638",
    "sg:postcode":"20197",
    "sg:province":"VA",
    "src:geom":"simplegeo",
    "wof:belongsto":[],
    "wof:breaches":[],
    "wof:concordances":{
        "sg:id":"SG_0OTvztFbKjzRvUjyK7yKjg_39.211715_-77.632475@1294252573"
    },
    "wof:country":"US",
    "wof:created":1461897387,
    "wof:geomhash":"868325de749188f159db174856a6b053",
    "wof:hierarchy":[],
    "wof:id":723216149,
    "wof:lastmodified":1461897387,
    "wof:name":"Columbian Harmony Cemetary Soc",
    "wof:parent_id":-1,
    "wof:placetype":"venue",
    "wof:superseded_by":[],
    "wof:supersedes":[],
    "wof:tags":[]
},
  "bbox": [
    -77.632475,
    39.211715,
    -77.632475,
    39.211715
],
  "geometry": {"coordinates":[-77.632475,39.211715],"type":"Point"}
}