{
  "id": 739344215,
  "type": "Feature",
  "properties": {
    "edtf:cessation":"uuuu",
    "edtf:inception":"uuuu",
    "geom:area":0.0,
    "geom:bbox":"-77.50038,37.580665,-77.50038,37.580665",
    "geom:latitude":37.580665,
    "geom:longitude":-77.50038,
    "iso:country":"US",
    "sg:address":"1510 Willow Lawn Dr",
    "sg:city":"Richmond",
    "sg:classifiers":[
        {
            "category":"Professional",
            "subcategory":"Management & Consulting",
            "type":"Services"
        }
    ],
    "sg:owner":"simplegeo",
    "sg:phone":"+1 804 784 9818",
    "sg:postcode":"23230",
    "sg:province":"VA",
    "sg:tags":[
        "marketing",
        "consultant"
    ],
    "src:geom":"simplegeo",
    "wof:belongsto":[],
    "wof:breaches":[],
    "wof:concordances":{
        "sg:id":"SG_5P7T27Gi9ZhBbAFl4Vvisc_37.580665_-77.500380@1294252573"
    },
    "wof:country":"US",
    "wof:created":1461905471,
    "wof:geomhash":"0c7ec6e6720f05d11c41febc21281974",
    "wof:hierarchy":[],
    "wof:id":739344215,
    "wof:lastmodified":1461905471,
    "wof:name":"Martin Branding",
    "wof:parent_id":-1,
    "wof:placetype":"venue",
    "wof:superseded_by":[],
    "wof:supersedes":[],
    "wof:tags":[
        "marketing",
        "consultant"
    ]
},
  "bbox": [
    -77.50038,
    37.580665,
    -77.50038,
    37.580665
],
  "geometry": {"coordinates":[-77.50038000000001,37.580665],"type":"Point"}
}