{
  "id": 722857739,
  "type": "Feature",
  "properties": {
    "edtf:cessation":"uuuu",
    "edtf:inception":"uuuu",
    "geom:area":0.0,
    "geom:bbox":"-77.43839,38.837896,-77.43839,38.837896",
    "geom:latitude":38.837896,
    "geom:longitude":-77.43839,
    "iso:country":"US",
    "sg:address":"14260 Centreville Sq",
    "sg:city":"Centreville",
    "sg:classifiers":[
        {
            "category":"Food & Beverages",
            "subcategory":"Groceries & Convenience Stores",
            "type":"Retail Goods"
        }
    ],
    "sg:owner":"simplegeo",
    "sg:phone":"+1 703 830 1412",
    "sg:postcode":"20121",
    "sg:province":"VA",
    "sg:tags":[
        "grocer"
    ],
    "src:geom":"simplegeo",
    "wof:belongsto":[],
    "wof:breaches":[],
    "wof:concordances":{
        "sg:id":"SG_6OHumocGlxBTyZbK8coYFL_38.837896_-77.438390@1294252573"
    },
    "wof:country":"US",
    "wof:created":1461889968,
    "wof:geomhash":"0d47f58b709874a8d712f0b8ad4830e2",
    "wof:hierarchy":[],
    "wof:id":722857739,
    "wof:lastmodified":1461889968,
    "wof:name":"Ambala Bazaar",
    "wof:parent_id":-1,
    "wof:placetype":"venue",
    "wof:superseded_by":[],
    "wof:supersedes":[],
    "wof:tags":[
        "grocer"
    ]
},
  "bbox": [
    -77.43839,
    38.837896,
    -77.43839,
    38.837896
],
  "geometry": {"coordinates":[-77.43839,38.837896],"type":"Point"}
}