{
  "id": 722961525,
  "type": "Feature",
  "properties": {
    "edtf:cessation":"uuuu",
    "edtf:inception":"uuuu",
    "geom:area":0.0,
    "geom:bbox":"-80.910137,36.580318,-80.910137,36.580318",
    "geom:latitude":36.580318,
    "geom:longitude":-80.910137,
    "iso:country":"US",
    "sg:address":"3186 Skyline Hwy",
    "sg:city":"Galax",
    "sg:classifiers":[
        {
            "category":"Shopping",
            "subcategory":"Bicycles & Sporting Goods",
            "type":"Retail Goods"
        }
    ],
    "sg:owner":"simplegeo",
    "sg:phone":"+1 276 236 0598",
    "sg:postcode":"24333",
    "sg:province":"VA",
    "src:geom":"simplegeo",
    "wof:belongsto":[],
    "wof:breaches":[],
    "wof:concordances":{
        "sg:id":"SG_73pwffT7S8JEJeyAJULxCd_36.580318_-80.910137@1294252573"
    },
    "wof:country":"US",
    "wof:created":1461892069,
    "wof:geomhash":"73fcf2bba3be2ffa74c68ff103b8af11",
    "wof:hierarchy":[],
    "wof:id":722961525,
    "wof:lastmodified":1461892069,
    "wof:name":"J Diamond",
    "wof:parent_id":-1,
    "wof:placetype":"venue",
    "wof:superseded_by":[],
    "wof:supersedes":[],
    "wof:tags":[]
},
  "bbox": [
    -80.910137,
    36.580318,
    -80.910137,
    36.580318
],
  "geometry": {"coordinates":[-80.91013700000001,36.580318],"type":"Point"}
}