{
  "id": 739691533,
  "type": "Feature",
  "properties": {
    "edtf:cessation":"uuuu",
    "edtf:inception":"uuuu",
    "geom:area":0.0,
    "geom:bbox":"-77.045455,38.812084,-77.045455,38.812084",
    "geom:latitude":38.812084,
    "geom:longitude":-77.045455,
    "iso:country":"US",
    "sg:address":"718 N Washington St",
    "sg:city":"Alexandria",
    "sg:classifiers":[
        {
            "category":"Real Estate",
            "subcategory":"Real Estate Services",
            "type":"Services"
        },
        {
            "category":"Professional",
            "subcategory":"Lawyer & Legal Services",
            "type":"Services"
        },
        {
            "category":"Insurance",
            "subcategory":"Title Insurance",
            "type":"Services"
        },
        {
            "category":"Banks & Credit Unions",
            "subcategory":"Financial Services",
            "type":"Services"
        }
    ],
    "sg:owner":"simplegeo",
    "sg:phone":"+1 703 836 5760",
    "sg:postcode":"22314",
    "sg:province":"VA",
    "sg:tags":[
        "attorney",
        "escrow"
    ],
    "sg:website":"http://www.firesidesettlements.com",
    "src:geom":"simplegeo",
    "wof:belongsto":[],
    "wof:breaches":[],
    "wof:concordances":{
        "sg:id":"SG_0n1tlxWXTSYTZDwewZA9eu_38.812084_-77.045455@1303262546"
    },
    "wof:country":"US",
    "wof:created":1461912375,
    "wof:geomhash":"02c216e565429c8ea197983b7ac022b0",
    "wof:hierarchy":[],
    "wof:id":739691533,
    "wof:lastmodified":1461912375,
    "wof:name":"Fireside Settlement & Title Services Inc",
    "wof:parent_id":-1,
    "wof:placetype":"venue",
    "wof:superseded_by":[],
    "wof:supersedes":[],
    "wof:tags":[
        "attorney",
        "escrow"
    ]
},
  "bbox": [
    -77.045455,
    38.812084,
    -77.045455,
    38.812084
],
  "geometry": {"coordinates":[-77.045455,38.812084],"type":"Point"}
}