{
  "id": 722709109,
  "type": "Feature",
  "properties": {
    "edtf:cessation":"uuuu",
    "edtf:inception":"uuuu",
    "geom:area":0.0,
    "geom:bbox":"-81.678964,36.800713,-81.678964,36.800713",
    "geom:latitude":36.800713,
    "geom:longitude":-81.678964,
    "iso:country":"US",
    "sg:address":"439 E Lee Hwy",
    "sg:city":"Chilhowie",
    "sg:classifiers":[
        {
            "category":"Restaurant",
            "subcategory":"",
            "type":"Food & Drink"
        }
    ],
    "sg:owner":"simplegeo",
    "sg:phone":"+1 276 646 3119",
    "sg:postcode":"24319",
    "sg:province":"VA",
    "sg:tags":[
        "parlor",
        "ice",
        "cream"
    ],
    "src:geom":"simplegeo",
    "wof:belongsto":[],
    "wof:breaches":[],
    "wof:concordances":{
        "sg:id":"SG_7Bj3xSjVT3p7AXvE19mjlR_36.800713_-81.678964@1294252573"
    },
    "wof:country":"US",
    "wof:created":1461887135,
    "wof:geomhash":"6c1358857acaa230b8218ba15a87934c",
    "wof:hierarchy":[],
    "wof:id":722709109,
    "wof:lastmodified":1461887135,
    "wof:name":"Tastee Freez",
    "wof:parent_id":-1,
    "wof:placetype":"venue",
    "wof:superseded_by":[],
    "wof:supersedes":[],
    "wof:tags":[
        "parlor",
        "ice",
        "cream"
    ]
},
  "bbox": [
    -81.678964,
    36.800713,
    -81.678964,
    36.800713
],
  "geometry": {"coordinates":[-81.67896399999999,36.800713],"type":"Point"}
}