{
  "id": 722704199,
  "type": "Feature",
  "properties": {
    "edtf:cessation":"uuuu",
    "edtf:inception":"uuuu",
    "geom:area":0.0,
    "geom:bbox":"-77.289984,38.998432,-77.289984,38.998432",
    "geom:latitude":38.998432,
    "geom:longitude":-77.289984,
    "iso:country":"US",
    "sg:address":"9908 Georgetown Pike",
    "sg:city":"Great Falls",
    "sg:classifiers":[
        {
            "category":"Food & Beverages",
            "subcategory":"Groceries & Convenience Stores",
            "type":"Retail Goods"
        }
    ],
    "sg:owner":"simplegeo",
    "sg:phone":"+1 703 759 5788",
    "sg:postcode":"22066",
    "sg:province":"VA",
    "src:geom":"simplegeo",
    "wof:belongsto":[],
    "wof:breaches":[],
    "wof:concordances":{
        "sg:id":"SG_0FKXtjBezMCiZDGXwnoPsp_38.998432_-77.289984@1294252573"
    },
    "wof:country":"US",
    "wof:created":1461887048,
    "wof:geomhash":"41af102937e86877f6029e1ed74ccdab",
    "wof:hierarchy":[],
    "wof:id":722704199,
    "wof:lastmodified":1461887048,
    "wof:name":"7-Eleven",
    "wof:parent_id":-1,
    "wof:placetype":"venue",
    "wof:superseded_by":[],
    "wof:supersedes":[],
    "wof:tags":[]
},
  "bbox": [
    -77.289984,
    38.998432,
    -77.289984,
    38.998432
],
  "geometry": {"coordinates":[-77.289984,38.998432],"type":"Point"}
}