{
  "id": 739573639,
  "type": "Feature",
  "properties": {
    "edtf:cessation":"uuuu",
    "edtf:inception":"uuuu",
    "geom:area":0.0,
    "geom:bbox":"-77.051882,38.80327,-77.051882,38.80327",
    "geom:latitude":38.80327,
    "geom:longitude":-77.051882,
    "iso:country":"US",
    "sg:address":"310 S Henry St",
    "sg:city":"Alexandria",
    "sg:classifiers":[
        {
            "category":"Professional",
            "subcategory":"",
            "type":"Services"
        }
    ],
    "sg:owner":"simplegeo",
    "sg:phone":"+1 703 299 9291",
    "sg:postcode":"22314",
    "sg:province":"VA",
    "sg:tags":[
        "community"
    ],
    "src:geom":"simplegeo",
    "wof:belongsto":[],
    "wof:breaches":[],
    "wof:concordances":{
        "sg:id":"SG_6kDJC0c5iXNoXFvx6KZDyk_38.802745_-77.051914@1293134755"
    },
    "wof:country":"US",
    "wof:created":1461909866,
    "wof:geomhash":"89b2b170c4b6a38a83a078cb97f5116e",
    "wof:hierarchy":[],
    "wof:id":739573639,
    "wof:lastmodified":1461909866,
    "wof:name":"American Academy-Facial Plastc",
    "wof:parent_id":-1,
    "wof:placetype":"venue",
    "wof:superseded_by":[],
    "wof:supersedes":[],
    "wof:tags":[
        "community"
    ]
},
  "bbox": [
    -77.051882,
    38.80327,
    -77.051882,
    38.80327
],
  "geometry": {"coordinates":[-77.05188200000001,38.80327],"type":"Point"}
}