{
  "id": 723377397,
  "type": "Feature",
  "properties": {
    "edtf:cessation":"uuuu",
    "edtf:inception":"uuuu",
    "geom:area":0.0,
    "geom:bbox":"-77.637454,37.635955,-77.637454,37.635955",
    "geom:latitude":37.635955,
    "geom:longitude":-77.637454,
    "iso:country":"US",
    "sg:address":"2726 Spinnaker Ct",
    "sg:city":"Richmond",
    "sg:classifiers":[
        {
            "category":"Professional",
            "subcategory":"",
            "type":"Services"
        }
    ],
    "sg:owner":"simplegeo",
    "sg:phone":"+1 804 360 7986",
    "sg:postcode":"23233",
    "sg:province":"VA",
    "sg:tags":[
        "arts",
        "artist"
    ],
    "src:geom":"simplegeo",
    "wof:belongsto":[],
    "wof:breaches":[],
    "wof:concordances":{
        "sg:id":"SG_404sm7uiTjIIQtbyma3lFW_37.635955_-77.637454@1294252573"
    },
    "wof:country":"US",
    "wof:created":1461900532,
    "wof:geomhash":"b5362cd5a7621ac505985afc7f45d1e0",
    "wof:hierarchy":[],
    "wof:id":723377397,
    "wof:lastmodified":1461900532,
    "wof:name":"Hiedemann Fine Art",
    "wof:parent_id":-1,
    "wof:placetype":"venue",
    "wof:superseded_by":[],
    "wof:supersedes":[],
    "wof:tags":[
        "arts",
        "artist"
    ]
},
  "bbox": [
    -77.637454,
    37.635955,
    -77.637454,
    37.635955
],
  "geometry": {"coordinates":[-77.63745400000001,37.635955],"type":"Point"}
}