{
  "id": 739689013,
  "type": "Feature",
  "properties": {
    "edtf:cessation":"uuuu",
    "edtf:inception":"uuuu",
    "geom:area":0.0,
    "geom:bbox":"-77.040561,38.814701,-77.040561,38.814701",
    "geom:latitude":38.814701,
    "geom:longitude":-77.040561,
    "iso:country":"US",
    "sg:address":"321 First St",
    "sg:city":"Alexandria",
    "sg:classifiers":[
        {
            "category":"Social Services",
            "subcategory":"Child Care",
            "type":"Services"
        }
    ],
    "sg:owner":"simplegeo",
    "sg:phone":"+1 703 836 9123",
    "sg:postcode":"22314",
    "sg:province":"VA",
    "sg:tags":[
        "nursery",
        "day"
    ],
    "sg:website":"http://www.stanthonysdayschool.org",
    "src:geom":"simplegeo",
    "wof:belongsto":[],
    "wof:breaches":[],
    "wof:concordances":{
        "sg:id":"SG_4UN5cRvFu2lgeI4hhxKVOT_38.814701_-77.040561@1303262546"
    },
    "wof:country":"US",
    "wof:created":1461912324,
    "wof:geomhash":"e0cf5b3c798489ad9beef51ec4870b6c",
    "wof:hierarchy":[],
    "wof:id":739689013,
    "wof:lastmodified":1461912324,
    "wof:name":"St Anthony's School",
    "wof:parent_id":-1,
    "wof:placetype":"venue",
    "wof:superseded_by":[],
    "wof:supersedes":[],
    "wof:tags":[
        "nursery",
        "day"
    ]
},
  "bbox": [
    -77.040561,
    38.814701,
    -77.040561,
    38.814701
],
  "geometry": {"coordinates":[-77.040561,38.814701],"type":"Point"}
}