{
  "id": 739297985,
  "type": "Feature",
  "properties": {
    "edtf:cessation":"uuuu",
    "edtf:inception":"uuuu",
    "geom:area":0.0,
    "geom:bbox":"-77.368786,37.723488,-77.368786,37.723488",
    "geom:latitude":37.723488,
    "geom:longitude":-77.368786,
    "iso:country":"US",
    "sg:address":"11563 Hanover Courthouse Rd",
    "sg:city":"Hanover",
    "sg:classifiers":[
        {
            "category":"Travel",
            "subcategory":"Hotels & Motels",
            "type":"Entertainment"
        }
    ],
    "sg:owner":"simplegeo",
    "sg:phone":"+1 804 559 9806",
    "sg:postcode":"23069",
    "sg:province":"VA",
    "sg:tags":[
        "operation"
    ],
    "src:geom":"simplegeo",
    "wof:belongsto":[],
    "wof:breaches":[],
    "wof:concordances":{
        "sg:id":"SG_1tNXjWFgMp0a0GAkngbuEu_37.723488_-77.368786@1294252573"
    },
    "wof:country":"US",
    "wof:created":1461904521,
    "wof:geomhash":"82748b869b190824dfec020531eb22e9",
    "wof:hierarchy":[],
    "wof:id":739297985,
    "wof:lastmodified":1461904521,
    "wof:name":"Hanover Motel",
    "wof:parent_id":-1,
    "wof:placetype":"venue",
    "wof:superseded_by":[],
    "wof:supersedes":[],
    "wof:tags":[
        "operation"
    ]
},
  "bbox": [
    -77.368786,
    37.723488,
    -77.368786,
    37.723488
],
  "geometry": {"coordinates":[-77.368786,37.723488],"type":"Point"}
}