{
  "id": 723104819,
  "type": "Feature",
  "properties": {
    "edtf:cessation":"uuuu",
    "edtf:inception":"uuuu",
    "geom:area":0.0,
    "geom:bbox":"-77.448003,38.896537,-77.448003,38.896537",
    "geom:latitude":38.896537,
    "geom:longitude":-77.448003,
    "iso:country":"US",
    "sg:address":"14514 Lee Rd",
    "sg:city":"Chantilly",
    "sg:classifiers":[
        {
            "category":"Manufacturing",
            "subcategory":"Retail Goods",
            "type":"Manufacturing & Wholesale Goods"
        }
    ],
    "sg:owner":"simplegeo",
    "sg:phone":"+1 703 378 3130",
    "sg:postcode":"20151",
    "sg:province":"VA",
    "sg:tags":[
        "manufacturer"
    ],
    "src:geom":"simplegeo",
    "wof:belongsto":[],
    "wof:breaches":[],
    "wof:concordances":{
        "sg:id":"SG_1eO0rPCthH2kZXcFtJwYDN_38.896537_-77.448003@1294252573"
    },
    "wof:country":"US",
    "wof:created":1461895211,
    "wof:geomhash":"2a46dc85d8e8c4db834116e044d79f28",
    "wof:hierarchy":[],
    "wof:id":723104819,
    "wof:lastmodified":1461895211,
    "wof:name":"Wiley Manufacturing",
    "wof:parent_id":-1,
    "wof:placetype":"venue",
    "wof:superseded_by":[],
    "wof:supersedes":[],
    "wof:tags":[
        "manufacturer"
    ]
},
  "bbox": [
    -77.448003,
    38.896537,
    -77.448003,
    38.896537
],
  "geometry": {"coordinates":[-77.448003,38.896537],"type":"Point"}
}