{
  "id": 723062999,
  "type": "Feature",
  "properties": {
    "edtf:cessation":"uuuu",
    "edtf:inception":"uuuu",
    "geom:area":0.0,
    "geom:bbox":"-77.315121,38.826823,-77.315121,38.826823",
    "geom:latitude":38.826823,
    "geom:longitude":-77.315121,
    "iso:country":"US",
    "sg:address":"10635 Braddock Rd",
    "sg:city":"Fairfax",
    "sg:classifiers":[
        {
            "category":"Recreation",
            "subcategory":"",
            "type":"Entertainment"
        }
    ],
    "sg:owner":"simplegeo",
    "sg:phone":"+1 703 273 5517",
    "sg:postcode":"22032",
    "sg:province":"VA",
    "src:geom":"simplegeo",
    "wof:belongsto":[],
    "wof:breaches":[],
    "wof:concordances":{
        "sg:id":"SG_465ZnSScGzWT6dFfDaqEFQ_38.826823_-77.315121@1294252573"
    },
    "wof:country":"US",
    "wof:created":1461894278,
    "wof:geomhash":"1935979e1ceff983eb6723ecf5e05961",
    "wof:hierarchy":[],
    "wof:id":723062999,
    "wof:lastmodified":1461894278,
    "wof:name":"Black Belt Academy",
    "wof:parent_id":-1,
    "wof:placetype":"venue",
    "wof:superseded_by":[],
    "wof:supersedes":[],
    "wof:tags":[]
},
  "bbox": [
    -77.315121,
    38.826823,
    -77.315121,
    38.826823
],
  "geometry": {"coordinates":[-77.315121,38.826823],"type":"Point"}
}