{
  "id": 722993461,
  "type": "Feature",
  "properties": {
    "edtf:cessation":"uuuu",
    "edtf:inception":"uuuu",
    "geom:area":0.0,
    "geom:bbox":"-76.329422,37.038575,-76.329422,37.038575",
    "geom:latitude":37.038575,
    "geom:longitude":-76.329422,
    "iso:country":"US",
    "sg:address":"112 Stonehurst Rd",
    "sg:city":"Hampton",
    "sg:classifiers":[
        {
            "category":"Organizations",
            "subcategory":"Membership Organization",
            "type":"Services"
        }
    ],
    "sg:owner":"simplegeo",
    "sg:phone":"+1 757 723 2927",
    "sg:postcode":"23669",
    "sg:province":"VA",
    "src:geom":"simplegeo",
    "wof:belongsto":[],
    "wof:breaches":[],
    "wof:concordances":{
        "sg:id":"SG_1m0hphTF95jNahd1pBPOwu_37.038575_-76.329422@1294252573"
    },
    "wof:country":"US",
    "wof:created":1461892759,
    "wof:geomhash":"b4aa0b06a1739f44293976dc78079cc8",
    "wof:hierarchy":[],
    "wof:id":722993461,
    "wof:lastmodified":1461892759,
    "wof:name":"Pine Cone Garden Club",
    "wof:parent_id":-1,
    "wof:placetype":"venue",
    "wof:superseded_by":[],
    "wof:supersedes":[],
    "wof:tags":[]
},
  "bbox": [
    -76.329422,
    37.038575,
    -76.329422,
    37.038575
],
  "geometry": {"coordinates":[-76.32942199999999,37.038575],"type":"Point"}
}