{
  "id": 723292345,
  "type": "Feature",
  "properties": {
    "edtf:cessation":"uuuu",
    "edtf:inception":"uuuu",
    "geom:area":0.0,
    "geom:bbox":"-82.130882,36.628498,-82.130882,36.628498",
    "geom:latitude":36.628498,
    "geom:longitude":-82.130882,
    "iso:country":"US",
    "sg:address":"3004 Linden Dr",
    "sg:city":"Bristol",
    "sg:classifiers":[
        {
            "category":"Cinema",
            "subcategory":"Movie Theater",
            "type":"Entertainment"
        }
    ],
    "sg:owner":"simplegeo",
    "sg:phone":"+1 276 669 0588",
    "sg:postcode":"24202",
    "sg:province":"VA",
    "src:geom":"simplegeo",
    "wof:belongsto":[],
    "wof:breaches":[],
    "wof:concordances":{
        "sg:id":"SG_683WbakztweaeBMA2goniZ_36.628498_-82.130882@1294252573"
    },
    "wof:country":"US",
    "wof:created":1461898919,
    "wof:geomhash":"bfda1fcb47d27ae4d3611980fff48c11",
    "wof:hierarchy":[],
    "wof:id":723292345,
    "wof:lastmodified":1461898919,
    "wof:name":"Tinseltown USA",
    "wof:parent_id":420547857,
    "wof:placetype":"venue",
    "wof:superseded_by":[],
    "wof:supersedes":[],
    "wof:tags":[]
},
  "bbox": [
    -82.130882,
    36.628498,
    -82.130882,
    36.628498
],
  "geometry": {"coordinates":[-82.130882,36.628498],"type":"Point"}
}