{
  "id": 722617543,
  "type": "Feature",
  "properties": {
    "edtf:cessation":"uuuu",
    "edtf:inception":"uuuu",
    "geom:area":0.0,
    "geom:bbox":"-77.535704,38.342293,-77.535704,38.342293",
    "geom:latitude":38.342293,
    "geom:longitude":-77.535704,
    "iso:country":"US",
    "sg:address":"9 Walnut Grove Dr",
    "sg:city":"Fredericksburg",
    "sg:classifiers":[
        {
            "category":"Building & Trades",
            "subcategory":"Construction",
            "type":"Services"
        }
    ],
    "sg:owner":"simplegeo",
    "sg:phone":"+1 540 752 7177",
    "sg:postcode":"22406",
    "sg:province":"VA",
    "sg:tags":[
        "downspouts",
        "gutter"
    ],
    "src:geom":"simplegeo",
    "wof:belongsto":[],
    "wof:breaches":[],
    "wof:concordances":{
        "sg:id":"SG_4M8gqtqvEpNDRFNVifjymc_38.342293_-77.535704@1294252573"
    },
    "wof:country":"US",
    "wof:created":1461885315,
    "wof:geomhash":"fe40d5998b2e734d782690a580b7c13a",
    "wof:hierarchy":[],
    "wof:id":722617543,
    "wof:lastmodified":1461885315,
    "wof:name":"C F Seamless Inc",
    "wof:parent_id":420547195,
    "wof:placetype":"venue",
    "wof:superseded_by":[],
    "wof:supersedes":[],
    "wof:tags":[
        "downspouts",
        "gutter"
    ]
},
  "bbox": [
    -77.535704,
    38.342293,
    -77.535704,
    38.342293
],
  "geometry": {"coordinates":[-77.535704,38.342293],"type":"Point"}
}