{
  "id": 723338735,
  "type": "Feature",
  "properties": {
    "edtf:cessation":"uuuu",
    "edtf:inception":"uuuu",
    "geom:area":0.0,
    "geom:bbox":"-77.287355,38.997693,-77.287355,38.997693",
    "geom:latitude":38.997693,
    "geom:longitude":-77.287355,
    "iso:country":"US",
    "sg:address":"9863 Georgetown Pike",
    "sg:city":"Great Falls",
    "sg:classifiers":[
        {
            "category":"Professional",
            "subcategory":"Management & Consulting",
            "type":"Services"
        }
    ],
    "sg:owner":"simplegeo",
    "sg:phone":"+1 703 759 6015",
    "sg:postcode":"22066",
    "sg:province":"VA",
    "sg:tags":[
        "marketing",
        "consultant"
    ],
    "sg:website":"www.pocketplan.com",
    "src:geom":"simplegeo",
    "wof:belongsto":[],
    "wof:breaches":[],
    "wof:concordances":{
        "sg:id":"SG_2KWsoDXMAx1eO6RVAJTfoc_38.997693_-77.287355@1294252573"
    },
    "wof:country":"US",
    "wof:created":1461899786,
    "wof:geomhash":"bbb6c6b006d93a8d61dcd3b5119ad2e4",
    "wof:hierarchy":[],
    "wof:id":723338735,
    "wof:lastmodified":1461899786,
    "wof:name":"Linx Corp",
    "wof:parent_id":-1,
    "wof:placetype":"venue",
    "wof:superseded_by":[],
    "wof:supersedes":[],
    "wof:tags":[
        "marketing",
        "consultant"
    ]
},
  "bbox": [
    -77.287355,
    38.997693,
    -77.287355,
    38.997693
],
  "geometry": {"coordinates":[-77.28735500000001,38.997693],"type":"Point"}
}