{
  "id": 723515673,
  "type": "Feature",
  "properties": {
    "edtf:cessation":"uuuu",
    "edtf:inception":"uuuu",
    "geom:area":0.0,
    "geom:bbox":"-80.490172,37.342093,-80.490172,37.342093",
    "geom:latitude":37.342093,
    "geom:longitude":-80.490172,
    "iso:country":"US",
    "sg:address":"3119 Clover Hollow Rd",
    "sg:city":"Newport",
    "sg:classifiers":[
        {
            "category":"Farming",
            "subcategory":"Farm",
            "type":"Manufacturing & Wholesale Goods"
        }
    ],
    "sg:owner":"simplegeo",
    "sg:phone":"+1 540 544 7195",
    "sg:postcode":"24128",
    "sg:province":"VA",
    "sg:tags":[
        "crop",
        "general"
    ],
    "src:geom":"simplegeo",
    "wof:belongsto":[],
    "wof:breaches":[],
    "wof:concordances":{
        "sg:id":"SG_4GOj1zSheW6u25zMiUTYAP_37.342093_-80.490172@1294252573"
    },
    "wof:country":"US",
    "wof:created":1461903343,
    "wof:geomhash":"c8413b96458e5680f62c78a01dface7e",
    "wof:hierarchy":[],
    "wof:id":723515673,
    "wof:lastmodified":1461903343,
    "wof:name":"Inwood Farm",
    "wof:parent_id":-1,
    "wof:placetype":"venue",
    "wof:superseded_by":[],
    "wof:supersedes":[],
    "wof:tags":[
        "crop",
        "general"
    ]
},
  "bbox": [
    -80.490172,
    37.342093,
    -80.490172,
    37.342093
],
  "geometry": {"coordinates":[-80.490172,37.342093],"type":"Point"}
}