{
  "id": 723378063,
  "type": "Feature",
  "properties": {
    "edtf:cessation":"uuuu",
    "edtf:inception":"uuuu",
    "geom:area":0.0,
    "geom:bbox":"-77.341883,37.546796,-77.341883,37.546796",
    "geom:latitude":37.546796,
    "geom:longitude":-77.341883,
    "iso:country":"US",
    "sg:address":"201 Newbridge Cir",
    "sg:city":"Richmond",
    "sg:classifiers":[
        {
            "category":"Real Estate",
            "subcategory":"Real Estate Operator",
            "type":"Services"
        }
    ],
    "sg:owner":"simplegeo",
    "sg:phone":"+1 804 737 7391",
    "sg:postcode":"23223",
    "sg:province":"VA",
    "sg:tags":[
        "apartment"
    ],
    "src:geom":"simplegeo",
    "wof:belongsto":[],
    "wof:breaches":[],
    "wof:concordances":{
        "sg:id":"SG_4P2jTFbCw4jKCuYU3atDw8_37.546796_-77.341883@1294252573"
    },
    "wof:country":"US",
    "wof:created":1461900548,
    "wof:geomhash":"bb00bf5dfd97a26567891726ac6d3270",
    "wof:hierarchy":[],
    "wof:id":723378063,
    "wof:lastmodified":1461900548,
    "wof:name":"Coventry Gardens Apartments",
    "wof:parent_id":-1,
    "wof:placetype":"venue",
    "wof:superseded_by":[],
    "wof:supersedes":[],
    "wof:tags":[
        "apartment"
    ]
},
  "bbox": [
    -77.341883,
    37.546796,
    -77.341883,
    37.546796
],
  "geometry": {"coordinates":[-77.341883,37.546796],"type":"Point"}
}