{
  "id": 723320375,
  "type": "Feature",
  "properties": {
    "edtf:cessation":"uuuu",
    "edtf:inception":"uuuu",
    "geom:area":0.0,
    "geom:bbox":"-77.705952,38.218447,-77.705952,38.218447",
    "geom:latitude":38.218447,
    "geom:longitude":-77.705952,
    "iso:country":"US",
    "sg:address":"10816 Robert E Lee Dr",
    "sg:city":"Spotsylvania",
    "sg:classifiers":[
        {
            "category":"Professional",
            "subcategory":"",
            "type":"Services"
        }
    ],
    "sg:owner":"simplegeo",
    "sg:phone":"+1 540 972 0330",
    "sg:postcode":"22551",
    "sg:province":"VA",
    "src:geom":"simplegeo",
    "wof:belongsto":[],
    "wof:breaches":[],
    "wof:concordances":{
        "sg:id":"SG_7cbQz5wgO0IMeq9R0fEVs1_38.218447_-77.705952@1294252573"
    },
    "wof:country":"US",
    "wof:created":1461899455,
    "wof:geomhash":"a1eaf1d43d7668a90ecb6cf9b5089a08",
    "wof:hierarchy":[],
    "wof:id":723320375,
    "wof:lastmodified":1461899455,
    "wof:name":"A A Abco",
    "wof:parent_id":-1,
    "wof:placetype":"venue",
    "wof:superseded_by":[],
    "wof:supersedes":[],
    "wof:tags":[]
},
  "bbox": [
    -77.705952,
    38.218447,
    -77.705952,
    38.218447
],
  "geometry": {"coordinates":[-77.705952,38.218447],"type":"Point"}
}