{
  "id": 723231597,
  "type": "Feature",
  "properties": {
    "edtf:cessation":"uuuu",
    "edtf:inception":"uuuu",
    "geom:area":0.0,
    "geom:bbox":"-77.453616,38.775972,-77.453616,38.775972",
    "geom:latitude":38.775972,
    "geom:longitude":-77.453616,
    "iso:country":"US",
    "sg:address":"8261 Shoppers Sq",
    "sg:city":"Manassas",
    "sg:classifiers":[
        {
            "category":"Retail",
            "subcategory":"Repair Shop",
            "type":"Services"
        }
    ],
    "sg:owner":"simplegeo",
    "sg:phone":"+1 703 369 1995",
    "sg:postcode":"20111",
    "sg:province":"VA",
    "sg:tags":[
        "electrical"
    ],
    "src:geom":"simplegeo",
    "wof:belongsto":[],
    "wof:breaches":[],
    "wof:concordances":{
        "sg:id":"SG_4AerVVmthWFQvBMFJseuKA_38.775972_-77.453616@1294252573"
    },
    "wof:country":"US",
    "wof:created":1461897741,
    "wof:geomhash":"cfb51fe64c39ae10f703ae7220b3714d",
    "wof:hierarchy":[],
    "wof:id":723231597,
    "wof:lastmodified":1461897741,
    "wof:name":"A & M Electronics Inc",
    "wof:parent_id":-1,
    "wof:placetype":"venue",
    "wof:superseded_by":[],
    "wof:supersedes":[],
    "wof:tags":[
        "electrical"
    ]
},
  "bbox": [
    -77.453616,
    38.775972,
    -77.453616,
    38.775972
],
  "geometry": {"coordinates":[-77.453616,38.775972],"type":"Point"}
}