{
  "id": 722946101,
  "type": "Feature",
  "properties": {
    "edtf:cessation":"uuuu",
    "edtf:inception":"uuuu",
    "geom:area":0.0,
    "geom:bbox":"-78.183647,39.16315,-78.183647,39.16315",
    "geom:latitude":39.16315,
    "geom:longitude":-78.183647,
    "iso:country":"US",
    "sg:address":"2147 Valley Ave",
    "sg:city":"Winchester",
    "sg:classifiers":[
        {
            "category":"Banks & Credit Unions",
            "subcategory":"Bank",
            "type":"Services"
        }
    ],
    "sg:owner":"simplegeo",
    "sg:phone":"+1 540 662 6900",
    "sg:postcode":"22601",
    "sg:province":"VA",
    "src:geom":"simplegeo",
    "wof:belongsto":[],
    "wof:breaches":[],
    "wof:concordances":{
        "sg:id":"SG_7dSQ2VxGBZKfMipHCUfgdb_39.163150_-78.183647@1294252573"
    },
    "wof:country":"US",
    "wof:created":1461891754,
    "wof:geomhash":"b5d1c30dd844885d244a617627f8f6b3",
    "wof:hierarchy":[],
    "wof:id":722946101,
    "wof:lastmodified":1461891754,
    "wof:name":"First Citizens Bank",
    "wof:parent_id":-1,
    "wof:placetype":"venue",
    "wof:superseded_by":[],
    "wof:supersedes":[],
    "wof:tags":[]
},
  "bbox": [
    -78.183647,
    39.16315,
    -78.183647,
    39.16315
],
  "geometry": {"coordinates":[-78.18364699999999,39.16315],"type":"Point"}
}