{
  "id": 722868837,
  "type": "Feature",
  "properties": {
    "edtf:cessation":"uuuu",
    "edtf:inception":"uuuu",
    "geom:area":0.0,
    "geom:bbox":"-79.306906,37.3709,-79.306906,37.3709",
    "geom:latitude":37.3709,
    "geom:longitude":-79.306906,
    "iso:country":"US",
    "sg:address":"14175 Forest Rd",
    "sg:city":"Forest",
    "sg:classifiers":[
        {
            "category":"Professional",
            "subcategory":"",
            "type":"Services"
        }
    ],
    "sg:owner":"simplegeo",
    "sg:phone":"+1 434 534 6045",
    "sg:postcode":"24551",
    "sg:province":"VA",
    "src:geom":"simplegeo",
    "wof:belongsto":[],
    "wof:breaches":[],
    "wof:concordances":{
        "sg:id":"SG_6wqUCxAwafmd7EWjWaMoua_37.370900_-79.306906@1294252573"
    },
    "wof:country":"US",
    "wof:created":1461890178,
    "wof:geomhash":"aaac5ffe70dcffc789f8e9c6633e61b4",
    "wof:hierarchy":[],
    "wof:id":722868837,
    "wof:lastmodified":1461890178,
    "wof:name":"Farias Twin Oaks",
    "wof:parent_id":-1,
    "wof:placetype":"venue",
    "wof:superseded_by":[],
    "wof:supersedes":[],
    "wof:tags":[]
},
  "bbox": [
    -79.306906,
    37.3709,
    -79.306906,
    37.3709
],
  "geometry": {"coordinates":[-79.306906,37.3709],"type":"Point"}
}