{
  "id": 739373287,
  "type": "Feature",
  "properties": {
    "edtf:cessation":"uuuu",
    "edtf:inception":"uuuu",
    "geom:area":0.0,
    "geom:bbox":"-76.507011,37.435628,-76.507011,37.435628",
    "geom:latitude":37.435628,
    "geom:longitude":-76.507011,
    "iso:country":"US",
    "sg:address":"7169 Wellington Ct",
    "sg:city":"Gloucester",
    "sg:classifiers":[
        {
            "category":"Building & Trades",
            "subcategory":"Landscaping Services",
            "type":"Services"
        }
    ],
    "sg:owner":"simplegeo",
    "sg:phone":"+1 804 693 0412",
    "sg:postcode":"23061",
    "sg:province":"VA",
    "sg:tags":[
        "lawn",
        "landscape",
        "maintenance",
        "contractor"
    ],
    "src:geom":"simplegeo",
    "wof:belongsto":[],
    "wof:breaches":[],
    "wof:concordances":{
        "sg:id":"SG_0HXlQ2xj8aJSFI3qMmoTeF_37.435628_-76.507011@1294252573"
    },
    "wof:country":"US",
    "wof:created":1461906069,
    "wof:geomhash":"f079564ec1f59358a533e3bd225c0582",
    "wof:hierarchy":[],
    "wof:id":739373287,
    "wof:lastmodified":1461906069,
    "wof:name":"Atlantic Lawn & Landscaping",
    "wof:parent_id":-1,
    "wof:placetype":"venue",
    "wof:superseded_by":[],
    "wof:supersedes":[],
    "wof:tags":[
        "lawn",
        "landscape",
        "maintenance",
        "contractor"
    ]
},
  "bbox": [
    -76.507011,
    37.435628,
    -76.507011,
    37.435628
],
  "geometry": {"coordinates":[-76.50701100000001,37.435628],"type":"Point"}
}