{
  "id": 722634073,
  "type": "Feature",
  "properties": {
    "edtf:cessation":"uuuu",
    "edtf:inception":"uuuu",
    "geom:area":0.0,
    "geom:bbox":"-80.256288,36.646975,-80.256288,36.646975",
    "geom:latitude":36.646975,
    "geom:longitude":-80.256288,
    "iso:country":"US",
    "sg:address":"18688 Jeb Stuart Hwy",
    "sg:city":"Stuart",
    "sg:classifiers":[
        {
            "category":"Health Services",
            "subcategory":"Hospital",
            "type":"Services"
        }
    ],
    "sg:owner":"simplegeo",
    "sg:phone":"+1 276 694 3151",
    "sg:postcode":"24171",
    "sg:province":"VA",
    "sg:website":"www.rjrhospital.com",
    "src:geom":"simplegeo",
    "wof:belongsto":[],
    "wof:breaches":[],
    "wof:concordances":{
        "sg:id":"SG_3GbHY5seeiDz0hwhTQsEAp_36.646975_-80.256288@1294252573"
    },
    "wof:country":"US",
    "wof:created":1461885722,
    "wof:geomhash":"3c51078587ae2851bfeb4053edf2eacc",
    "wof:hierarchy":[],
    "wof:id":722634073,
    "wof:lastmodified":1461885722,
    "wof:name":"R J Reynolds-Patrick Hosp Inc",
    "wof:parent_id":-1,
    "wof:placetype":"venue",
    "wof:superseded_by":[],
    "wof:supersedes":[],
    "wof:tags":[]
},
  "bbox": [
    -80.256288,
    36.646975,
    -80.256288,
    36.646975
],
  "geometry": {"coordinates":[-80.256288,36.646975],"type":"Point"}
}