{
  "id": 723342027,
  "type": "Feature",
  "properties": {
    "edtf:cessation":"uuuu",
    "edtf:inception":"uuuu",
    "geom:area":0.0,
    "geom:bbox":"-77.311602,38.843738,-77.311602,38.843738",
    "geom:latitude":38.843738,
    "geom:longitude":-77.311602,
    "iso:country":"US",
    "sg:address":"10520 Judicial Dr",
    "sg:city":"Fairfax",
    "sg:classifiers":[
        {
            "category":"Government",
            "subcategory":"Jail",
            "type":"Public Place"
        }
    ],
    "sg:owner":"simplegeo",
    "sg:phone":"+1 703 246 4467",
    "sg:postcode":"22030",
    "sg:province":"VA",
    "sg:tags":[
        "county",
        "govt",
        "institution"
    ],
    "sg:website":"www.fairfaxcounty.gov",
    "src:geom":"simplegeo",
    "wof:belongsto":[],
    "wof:breaches":[],
    "wof:concordances":{
        "sg:id":"SG_38nqMsCeb6q9NfZkW5vyUi_38.843738_-77.311602@1294252573"
    },
    "wof:country":"US",
    "wof:created":1461899845,
    "wof:geomhash":"636aa9fa639b2396ca70cb199d25b600",
    "wof:hierarchy":[],
    "wof:id":723342027,
    "wof:lastmodified":1461899845,
    "wof:name":"Community Corrections",
    "wof:parent_id":-1,
    "wof:placetype":"venue",
    "wof:superseded_by":[],
    "wof:supersedes":[],
    "wof:tags":[
        "county",
        "govt",
        "institution"
    ]
},
  "bbox": [
    -77.311602,
    38.843738,
    -77.311602,
    38.843738
],
  "geometry": {"coordinates":[-77.31160199999999,38.843738],"type":"Point"}
}