{
  "id": 723482725,
  "type": "Feature",
  "properties": {
    "edtf:cessation":"uuuu",
    "edtf:inception":"uuuu",
    "geom:area":0.0,
    "geom:bbox":"-77.269959,38.829816,-77.269959,38.829816",
    "geom:latitude":38.829816,
    "geom:longitude":-77.269959,
    "iso:country":"US",
    "sg:address":"9346 Athens Rd",
    "sg:city":"Fairfax",
    "sg:classifiers":[
        {
            "category":"Wholesale",
            "subcategory":"Vending Machines",
            "type":"Manufacturing & Wholesale Goods"
        }
    ],
    "sg:owner":"simplegeo",
    "sg:phone":"+1 703 503 0860",
    "sg:postcode":"22032",
    "sg:province":"VA",
    "src:geom":"simplegeo",
    "wof:belongsto":[],
    "wof:breaches":[],
    "wof:concordances":{
        "sg:id":"SG_7Gg1SAiJjXslLiDybOxjBt_38.829816_-77.269959@1294252573"
    },
    "wof:country":"US",
    "wof:created":1461902590,
    "wof:geomhash":"170e72e1cf397cd26e1b24ccadfc29e1",
    "wof:hierarchy":[],
    "wof:id":723482725,
    "wof:lastmodified":1461902590,
    "wof:name":"B & N Svc",
    "wof:parent_id":-1,
    "wof:placetype":"venue",
    "wof:superseded_by":[],
    "wof:supersedes":[],
    "wof:tags":[]
},
  "bbox": [
    -77.269959,
    38.829816,
    -77.269959,
    38.829816
],
  "geometry": {"coordinates":[-77.269959,38.829816],"type":"Point"}
}