{
  "id": 739472131,
  "type": "Feature",
  "properties": {
    "edtf:cessation":"uuuu",
    "edtf:inception":"uuuu",
    "geom:area":0.0,
    "geom:bbox":"-80.747469,36.779458,-80.747469,36.779458",
    "geom:latitude":36.779458,
    "geom:longitude":-80.747469,
    "iso:country":"US",
    "sg:address":"155 Forest Dr",
    "sg:city":"Wytheville",
    "sg:classifiers":[
        {
            "category":"Manufacturing",
            "subcategory":"Lumber",
            "type":"Manufacturing & Wholesale Goods"
        }
    ],
    "sg:owner":"simplegeo",
    "sg:phone":"+1 276 228 4515",
    "sg:postcode":"24343",
    "sg:province":"VA",
    "sg:tags":[
        "government"
    ],
    "src:geom":"simplegeo",
    "wof:belongsto":[],
    "wof:breaches":[],
    "wof:concordances":{
        "sg:id":"SG_0XKbJuZ4mItToZT190M2A1_36.779458_-80.747469@1294252573"
    },
    "wof:country":"US",
    "wof:created":1461907922,
    "wof:geomhash":"5483c8cc5de189ea435ce6f1b236cdc7",
    "wof:hierarchy":[],
    "wof:id":739472131,
    "wof:lastmodified":1461907922,
    "wof:name":"Forestry Dept",
    "wof:parent_id":-1,
    "wof:placetype":"venue",
    "wof:superseded_by":[],
    "wof:supersedes":[],
    "wof:tags":[
        "government"
    ]
},
  "bbox": [
    -80.747469,
    36.779458,
    -80.747469,
    36.779458
],
  "geometry": {"coordinates":[-80.747469,36.779458],"type":"Point"}
}