{
  "id": 723213179,
  "type": "Feature",
  "properties": {
    "edtf:cessation":"uuuu",
    "edtf:inception":"uuuu",
    "geom:area":0.0,
    "geom:bbox":"-77.431572,37.686031,-77.431572,37.686031",
    "geom:latitude":37.686031,
    "geom:longitude":-77.431572,
    "iso:country":"US",
    "sg:address":"10259 Cloverlea Ct",
    "sg:city":"Mechanicsville",
    "sg:classifiers":[
        {
            "category":"Shopping",
            "subcategory":"Gifts & Souvenirs",
            "type":"Retail Goods"
        }
    ],
    "sg:owner":"simplegeo",
    "sg:phone":"+1 804 550 1097",
    "sg:postcode":"23116",
    "sg:province":"VA",
    "sg:website":"www.glassworksbyalex.com",
    "src:geom":"simplegeo",
    "wof:belongsto":[],
    "wof:breaches":[],
    "wof:concordances":{
        "sg:id":"SG_3XVrahRNusmQkQBHDiEp4e_37.686031_-77.431572@1294252573"
    },
    "wof:country":"US",
    "wof:created":1461897330,
    "wof:geomhash":"be4a7b4f2bc7fb90819218bccc09e4b1",
    "wof:hierarchy":[],
    "wof:id":723213179,
    "wof:lastmodified":1461897330,
    "wof:name":"Glassworks By Alex",
    "wof:parent_id":-1,
    "wof:placetype":"venue",
    "wof:superseded_by":[],
    "wof:supersedes":[],
    "wof:tags":[]
},
  "bbox": [
    -77.431572,
    37.686031,
    -77.431572,
    37.686031
],
  "geometry": {"coordinates":[-77.431572,37.686031],"type":"Point"}
}