{
  "id": 739603121,
  "type": "Feature",
  "properties": {
    "edtf:cessation":"uuuu",
    "edtf:inception":"uuuu",
    "geom:area":0.0,
    "geom:bbox":"-77.511135,38.779267,-77.511135,38.779267",
    "geom:latitude":38.779267,
    "geom:longitude":-77.511135,
    "iso:country":"US",
    "sg:address":"10521 Crestwood Dr Ste 203",
    "sg:city":"Manassas",
    "sg:classifiers":[
        {
            "category":"Shopping",
            "subcategory":"Shoes",
            "type":"Retail Goods"
        }
    ],
    "sg:owner":"simplegeo",
    "sg:phone":"+1 703 392 4787",
    "sg:postcode":"20109",
    "sg:province":"VA",
    "sg:tags":[
        "store"
    ],
    "src:geom":"simplegeo",
    "wof:belongsto":[],
    "wof:breaches":[],
    "wof:concordances":{
        "sg:id":"SG_2Cahrzz1sW3Dc262MXrLIe_38.779267_-77.511135@1303262495"
    },
    "wof:country":"US",
    "wof:created":1461910476,
    "wof:geomhash":"976f57df80dcaf5468ac4164c5f4f6be",
    "wof:hierarchy":[],
    "wof:id":739603121,
    "wof:lastmodified":1461910476,
    "wof:name":"Fennix Italy",
    "wof:parent_id":-1,
    "wof:placetype":"venue",
    "wof:superseded_by":[],
    "wof:supersedes":[],
    "wof:tags":[
        "store"
    ]
},
  "bbox": [
    -77.511135,
    38.779267,
    -77.511135,
    38.779267
],
  "geometry": {"coordinates":[-77.511135,38.779267],"type":"Point"}
}