{
  "id": 739718747,
  "type": "Feature",
  "properties": {
    "edtf:cessation":"uuuu",
    "edtf:inception":"uuuu",
    "geom:area":0.0,
    "geom:bbox":"-77.434598,37.628997,-77.434598,37.628997",
    "geom:latitude":37.628997,
    "geom:longitude":-77.434598,
    "iso:country":"US",
    "sg:address":"6301 Chamberlayne Rd",
    "sg:city":"Richmond",
    "sg:classifiers":[],
    "sg:owner":"simplegeo",
    "sg:phone":"+1 804 746 2666",
    "sg:postcode":"23227",
    "sg:province":"VA",
    "src:geom":"simplegeo",
    "wof:belongsto":[],
    "wof:breaches":[],
    "wof:concordances":{
        "sg:id":"SG_1UD4nAntv3DdXeCda9JZ5a_37.628997_-77.434598@1303262550"
    },
    "wof:country":"US",
    "wof:created":1461912966,
    "wof:geomhash":"20202a73e953b5f32d5e8ec0514c5b09",
    "wof:hierarchy":[],
    "wof:id":739718747,
    "wof:lastmodified":1461912966,
    "wof:name":"Giovanni's Pizza",
    "wof:parent_id":-1,
    "wof:placetype":"venue",
    "wof:superseded_by":[],
    "wof:supersedes":[],
    "wof:tags":[]
},
  "bbox": [
    -77.434598,
    37.628997,
    -77.434598,
    37.628997
],
  "geometry": {"coordinates":[-77.43459799999999,37.628997],"type":"Point"}
}