{
  "id": 722977737,
  "type": "Feature",
  "properties": {
    "edtf:cessation":"uuuu",
    "edtf:inception":"uuuu",
    "geom:area":0.0,
    "geom:bbox":"-77.352187,37.518657,-77.352187,37.518657",
    "geom:latitude":37.518657,
    "geom:longitude":-77.352187,
    "iso:country":"US",
    "sg:address":"4722 Finlay St",
    "sg:city":"Richmond",
    "sg:classifiers":[
        {
            "category":"Wholesale",
            "subcategory":"Auto Parts",
            "type":"Manufacturing & Wholesale Goods"
        }
    ],
    "sg:owner":"simplegeo",
    "sg:phone":"+1 804 222 7864",
    "sg:postcode":"23231",
    "sg:province":"VA",
    "src:geom":"simplegeo",
    "wof:belongsto":[],
    "wof:breaches":[],
    "wof:concordances":{
        "sg:id":"SG_0ERYv19gZvRkjg9deJvddQ_37.518657_-77.352187@1294252573"
    },
    "wof:country":"US",
    "wof:created":1461892411,
    "wof:geomhash":"6b7860fbb4df3868cc99e1a8993b024a",
    "wof:hierarchy":[],
    "wof:id":722977737,
    "wof:lastmodified":1461892411,
    "wof:name":"Advance Auto Parts",
    "wof:parent_id":-1,
    "wof:placetype":"venue",
    "wof:superseded_by":[],
    "wof:supersedes":[],
    "wof:tags":[]
},
  "bbox": [
    -77.352187,
    37.518657,
    -77.352187,
    37.518657
],
  "geometry": {"coordinates":[-77.352187,37.518657],"type":"Point"}
}