{
  "id": 739441423,
  "type": "Feature",
  "properties": {
    "edtf:cessation":"uuuu",
    "edtf:inception":"uuuu",
    "geom:area":0.0,
    "geom:bbox":"-77.446878,38.798122,-77.446878,38.798122",
    "geom:latitude":38.798122,
    "geom:longitude":-77.446878,
    "iso:country":"US",
    "sg:address":"7220 Centreville Rd",
    "sg:city":"Manassas",
    "sg:classifiers":[
        {
            "category":"Shopping",
            "subcategory":"Bicycles & Sporting Goods",
            "type":"Retail Goods"
        }
    ],
    "sg:owner":"simplegeo",
    "sg:phone":"+1 703 257 5883",
    "sg:postcode":"20111",
    "sg:province":"VA",
    "sg:tags":[
        "device",
        "operator",
        "amusement"
    ],
    "src:geom":"simplegeo",
    "wof:belongsto":[],
    "wof:breaches":[],
    "wof:concordances":{
        "sg:id":"SG_5u7R3blMHoNvNRSUEjcZmm_38.798122_-77.446878@1294252573"
    },
    "wof:country":"US",
    "wof:created":1461907377,
    "wof:geomhash":"e81d8caf59cb3785f26dc31228cde209",
    "wof:hierarchy":[],
    "wof:id":739441423,
    "wof:lastmodified":1461907377,
    "wof:name":"Amusement Depot",
    "wof:parent_id":-1,
    "wof:placetype":"venue",
    "wof:superseded_by":[],
    "wof:supersedes":[],
    "wof:tags":[
        "device",
        "operator",
        "amusement"
    ]
},
  "bbox": [
    -77.446878,
    38.798122,
    -77.446878,
    38.798122
],
  "geometry": {"coordinates":[-77.446878,38.798122],"type":"Point"}
}