{
  "id": 723033823,
  "type": "Feature",
  "properties": {
    "edtf:cessation":"uuuu",
    "edtf:inception":"uuuu",
    "geom:area":0.0,
    "geom:bbox":"-77.117697,38.845717,-77.117697,38.845717",
    "geom:latitude":38.845717,
    "geom:longitude":-77.117697,
    "iso:country":"US",
    "sg:address":"5201 Leesburg Pike",
    "sg:city":"Falls Church",
    "sg:classifiers":[
        {
            "category":"Professional",
            "subcategory":"Computer Services",
            "type":"Services"
        }
    ],
    "sg:owner":"simplegeo",
    "sg:phone":"+1 703 998 0175",
    "sg:postcode":"22041",
    "sg:province":"VA",
    "sg:tags":[
        "integrated",
        "system"
    ],
    "src:geom":"simplegeo",
    "wof:belongsto":[],
    "wof:breaches":[],
    "wof:concordances":{
        "sg:id":"SG_0m87xIR7axBNhIFFMb7ZDG_38.845717_-77.117697@1294252573"
    },
    "wof:country":"US",
    "wof:created":1461893680,
    "wof:geomhash":"b3f09fa725edc8f13df829f7fb73401a",
    "wof:hierarchy":[],
    "wof:id":723033823,
    "wof:lastmodified":1461893680,
    "wof:name":"Intellidyne LLC",
    "wof:parent_id":-1,
    "wof:placetype":"venue",
    "wof:superseded_by":[],
    "wof:supersedes":[],
    "wof:tags":[
        "integrated",
        "system"
    ]
},
  "bbox": [
    -77.117697,
    38.845717,
    -77.117697,
    38.845717
],
  "geometry": {"coordinates":[-77.11769700000001,38.845717],"type":"Point"}
}