{
  "id": 722665425,
  "type": "Feature",
  "properties": {
    "edtf:cessation":"uuuu",
    "edtf:inception":"uuuu",
    "geom:area":0.0,
    "geom:bbox":"-79.959503,37.246726,-79.959503,37.246726",
    "geom:latitude":37.246726,
    "geom:longitude":-79.959503,
    "iso:country":"US",
    "sg:address":"2502 Franklin Rd SW",
    "sg:city":"Roanoke",
    "sg:classifiers":[
        {
            "category":"Health Services",
            "subcategory":"Optometrist",
            "type":"Services"
        }
    ],
    "sg:owner":"simplegeo",
    "sg:phone":"+1 540 982 2404",
    "sg:postcode":"24014",
    "sg:province":"VA",
    "src:geom":"simplegeo",
    "wof:belongsto":[],
    "wof:breaches":[],
    "wof:concordances":{
        "sg:id":"SG_0KxMRhoB1U5naQdmVRztnP_37.246726_-79.959503@1294252573"
    },
    "wof:country":"US",
    "wof:created":1461886310,
    "wof:geomhash":"c5056c9ac01f404c6428f5c1c8d9c0ac",
    "wof:hierarchy":[],
    "wof:id":722665425,
    "wof:lastmodified":1461886310,
    "wof:name":"David Armstrong Dr",
    "wof:parent_id":-1,
    "wof:placetype":"venue",
    "wof:superseded_by":[],
    "wof:supersedes":[],
    "wof:tags":[]
},
  "bbox": [
    -79.959503,
    37.246726,
    -79.959503,
    37.246726
],
  "geometry": {"coordinates":[-79.959503,37.246726],"type":"Point"}
}