{
  "id": 723330141,
  "type": "Feature",
  "properties": {
    "edtf:cessation":"uuuu",
    "edtf:inception":"uuuu",
    "geom:area":0.0,
    "geom:bbox":"-77.65319,37.539579,-77.65319,37.539579",
    "geom:latitude":37.539579,
    "geom:longitude":-77.65319,
    "iso:country":"US",
    "sg:address":"3121 E Brigstock Rd",
    "sg:city":"Midlothian",
    "sg:classifiers":[
        {
            "category":"Professional",
            "subcategory":"Management & Consulting",
            "type":"Services"
        }
    ],
    "sg:owner":"simplegeo",
    "sg:phone":"+1 804 218 2320",
    "sg:postcode":"23113",
    "sg:province":"VA",
    "sg:tags":[
        "environmental"
    ],
    "src:geom":"simplegeo",
    "wof:belongsto":[],
    "wof:breaches":[],
    "wof:concordances":{
        "sg:id":"SG_1vxtNLLfM7vRp535LqmFS6_37.539579_-77.653190@1294252573"
    },
    "wof:country":"US",
    "wof:created":1461899628,
    "wof:geomhash":"d17436514a537f5ceb73e0852f0f8edd",
    "wof:hierarchy":[],
    "wof:id":723330141,
    "wof:lastmodified":1461899628,
    "wof:name":"E Com LLC",
    "wof:parent_id":-1,
    "wof:placetype":"venue",
    "wof:superseded_by":[],
    "wof:supersedes":[],
    "wof:tags":[
        "environmental"
    ]
},
  "bbox": [
    -77.65319,
    37.539579,
    -77.65319,
    37.539579
],
  "geometry": {"coordinates":[-77.65319,37.539579],"type":"Point"}
}