{
  "id": 739688261,
  "type": "Feature",
  "properties": {
    "edtf:cessation":"uuuu",
    "edtf:inception":"uuuu",
    "geom:area":0.0,
    "geom:bbox":"-77.043485,38.814991,-77.043485,38.814991",
    "geom:latitude":38.814991,
    "geom:longitude":-77.043485,
    "iso:country":"US",
    "sg:address":"530 First St",
    "sg:city":"Alexandria",
    "sg:classifiers":[
        {
            "category":"Building & Trades",
            "subcategory":"Locksmith",
            "type":"Services"
        }
    ],
    "sg:owner":"simplegeo",
    "sg:phone":"+1 703 253 9402",
    "sg:postcode":"22314",
    "sg:province":"VA",
    "sg:tags":[
        "key"
    ],
    "src:geom":"simplegeo",
    "wof:belongsto":[],
    "wof:breaches":[],
    "wof:concordances":{
        "sg:id":"SG_3CFUsjW1kWLaxwjtxhMrSr_38.814991_-77.043485@1303262546"
    },
    "wof:country":"US",
    "wof:created":1461912304,
    "wof:geomhash":"41837c52d1c5041e5015758fe5aa78fe",
    "wof:hierarchy":[],
    "wof:id":739688261,
    "wof:lastmodified":1461912304,
    "wof:name":"Locksmith Security & Lock Out Service",
    "wof:parent_id":-1,
    "wof:placetype":"venue",
    "wof:superseded_by":[],
    "wof:supersedes":[],
    "wof:tags":[
        "key"
    ]
},
  "bbox": [
    -77.043485,
    38.814991,
    -77.043485,
    38.814991
],
  "geometry": {"coordinates":[-77.043485,38.814991],"type":"Point"}
}