{
  "id": 722920775,
  "type": "Feature",
  "properties": {
    "edtf:cessation":"uuuu",
    "edtf:inception":"uuuu",
    "geom:area":0.0,
    "geom:bbox":"-77.508295,38.794132,-77.508295,38.794132",
    "geom:latitude":38.794132,
    "geom:longitude":-77.508295,
    "iso:country":"US",
    "sg:address":"10445 Rapidan Ln",
    "sg:city":"Manassas",
    "sg:classifiers":[
        {
            "category":"Organizations",
            "subcategory":"Religious Organization",
            "type":"Services"
        }
    ],
    "sg:owner":"simplegeo",
    "sg:phone":"+1 703 369 5835",
    "sg:postcode":"20109",
    "sg:province":"VA",
    "src:geom":"simplegeo",
    "wof:belongsto":[],
    "wof:breaches":[],
    "wof:concordances":{
        "sg:id":"SG_5jqqkCX7RNoZAIclOTUyAr_38.794132_-77.508295@1294252573"
    },
    "wof:country":"US",
    "wof:created":1461891200,
    "wof:geomhash":"dad83eb6ce81459a6318c047ab04f012",
    "wof:hierarchy":[],
    "wof:id":722920775,
    "wof:lastmodified":1461891200,
    "wof:name":"Roots In Christ Investors LLC",
    "wof:parent_id":-1,
    "wof:placetype":"venue",
    "wof:superseded_by":[],
    "wof:supersedes":[],
    "wof:tags":[]
},
  "bbox": [
    -77.508295,
    38.794132,
    -77.508295,
    38.794132
],
  "geometry": {"coordinates":[-77.508295,38.794132],"type":"Point"}
}