{
  "id": 722952749,
  "type": "Feature",
  "properties": {
    "edtf:cessation":"uuuu",
    "edtf:inception":"uuuu",
    "geom:area":0.0,
    "geom:bbox":"-77.933188,37.552307,-77.933188,37.552307",
    "geom:latitude":37.552307,
    "geom:longitude":-77.933188,
    "iso:country":"US",
    "sg:address":"4100 Old Buckingham Rd",
    "sg:city":"Powhatan",
    "sg:classifiers":[
        {
            "category":"Food & Beverages",
            "subcategory":"Groceries & Convenience Stores",
            "type":"Retail Goods"
        }
    ],
    "sg:owner":"simplegeo",
    "sg:phone":"+1 804 598 4859",
    "sg:postcode":"23139",
    "sg:province":"VA",
    "sg:tags":[
        "grocer"
    ],
    "src:geom":"simplegeo",
    "wof:belongsto":[],
    "wof:breaches":[],
    "wof:concordances":{
        "sg:id":"SG_547HNvBrb1kQH8yHUAV0Ys_37.552307_-77.933188@1294252573"
    },
    "wof:country":"US",
    "wof:created":1461891883,
    "wof:geomhash":"0c3c020123070e901b661eee416677a1",
    "wof:hierarchy":[],
    "wof:id":722952749,
    "wof:lastmodified":1461891883,
    "wof:name":"Red Barn Food Store",
    "wof:parent_id":-1,
    "wof:placetype":"venue",
    "wof:superseded_by":[],
    "wof:supersedes":[],
    "wof:tags":[
        "grocer"
    ]
},
  "bbox": [
    -77.933188,
    37.552307,
    -77.933188,
    37.552307
],
  "geometry": {"coordinates":[-77.933188,37.552307],"type":"Point"}
}