{
  "id": 722672295,
  "type": "Feature",
  "properties": {
    "edtf:cessation":"uuuu",
    "edtf:inception":"uuuu",
    "geom:area":0.0,
    "geom:bbox":"-78.932244,38.15515,-78.932244,38.15515",
    "geom:latitude":38.15515,
    "geom:longitude":-78.932244,
    "iso:country":"US",
    "sg:address":"1340 New Hope Rd",
    "sg:city":"Waynesboro",
    "sg:classifiers":[
        {
            "category":"Wholesale",
            "subcategory":"Farm Supplies",
            "type":"Manufacturing & Wholesale Goods"
        }
    ],
    "sg:owner":"simplegeo",
    "sg:phone":"+1 540 943 5571",
    "sg:postcode":"22980",
    "sg:province":"VA",
    "sg:website":"www.augustacoop.com",
    "src:geom":"simplegeo",
    "wof:belongsto":[],
    "wof:breaches":[],
    "wof:concordances":{
        "sg:id":"SG_69NII2Y3X6FaEmsXbNGFh9_38.155150_-78.932244@1294252573"
    },
    "wof:country":"US",
    "wof:created":1461886438,
    "wof:geomhash":"51e35cf3d9f48cfae62c5ea575da5379",
    "wof:hierarchy":[],
    "wof:id":722672295,
    "wof:lastmodified":1461886438,
    "wof:name":"Augusta Co-Op Farm Bureau Inc",
    "wof:parent_id":-1,
    "wof:placetype":"venue",
    "wof:superseded_by":[],
    "wof:supersedes":[],
    "wof:tags":[]
},
  "bbox": [
    -78.932244,
    38.15515,
    -78.932244,
    38.15515
],
  "geometry": {"coordinates":[-78.932244,38.15515],"type":"Point"}
}