{
  "id": 739342315,
  "type": "Feature",
  "properties": {
    "edtf:cessation":"uuuu",
    "edtf:inception":"uuuu",
    "geom:area":0.0,
    "geom:bbox":"-77.272405,38.767513,-77.272405,38.767513",
    "geom:latitude":38.767513,
    "geom:longitude":-77.272405,
    "iso:country":"US",
    "sg:address":"9502 Claychin Ct",
    "sg:city":"Burke",
    "sg:classifiers":[
        {
            "category":"Professional",
            "subcategory":"Engineering",
            "type":"Services"
        }
    ],
    "sg:owner":"simplegeo",
    "sg:phone":"+1 703 644 1615",
    "sg:postcode":"22015",
    "sg:province":"VA",
    "src:geom":"simplegeo",
    "wof:belongsto":[],
    "wof:breaches":[],
    "wof:concordances":{
        "sg:id":"SG_6jv4hF5f392j9FrOhpr4Pe_38.767513_-77.272405@1294252573"
    },
    "wof:country":"US",
    "wof:created":1461905431,
    "wof:geomhash":"2219c15cc5979b4623e46625ea1f8a48",
    "wof:hierarchy":[],
    "wof:id":739342315,
    "wof:lastmodified":1461905431,
    "wof:name":"Dave Engineering Consultants",
    "wof:parent_id":-1,
    "wof:placetype":"venue",
    "wof:superseded_by":[],
    "wof:supersedes":[],
    "wof:tags":[]
},
  "bbox": [
    -77.272405,
    38.767513,
    -77.272405,
    38.767513
],
  "geometry": {"coordinates":[-77.27240500000001,38.767513],"type":"Point"}
}