{
  "id": 722712683,
  "type": "Feature",
  "properties": {
    "edtf:cessation":"uuuu",
    "edtf:inception":"uuuu",
    "geom:area":0.0,
    "geom:bbox":"-78.018252,38.456579,-78.018252,38.456579",
    "geom:latitude":38.456579,
    "geom:longitude":-78.018252,
    "iso:country":"US",
    "sg:address":"767 Madison Rd",
    "sg:city":"Culpeper",
    "sg:classifiers":[
        {
            "category":"Professional",
            "subcategory":"Engineering",
            "type":"Services"
        }
    ],
    "sg:owner":"simplegeo",
    "sg:phone":"+1 540 825 1369",
    "sg:postcode":"22701",
    "sg:province":"VA",
    "sg:tags":[
        "engineer"
    ],
    "src:geom":"simplegeo",
    "wof:belongsto":[],
    "wof:breaches":[],
    "wof:concordances":{
        "sg:id":"SG_19uKNfRYYcYkavSv33EsVD_38.456579_-78.018252@1294252573"
    },
    "wof:country":"US",
    "wof:created":1461887202,
    "wof:geomhash":"30bb3f0b0315e5b7e87accfa809ffce8",
    "wof:hierarchy":[],
    "wof:id":722712683,
    "wof:lastmodified":1461887202,
    "wof:name":"ATCS",
    "wof:parent_id":420546635,
    "wof:placetype":"venue",
    "wof:superseded_by":[],
    "wof:supersedes":[],
    "wof:tags":[
        "engineer"
    ]
},
  "bbox": [
    -78.018252,
    38.456579,
    -78.018252,
    38.456579
],
  "geometry": {"coordinates":[-78.018252,38.456579],"type":"Point"}
}