{
  "id": 723515485,
  "type": "Feature",
  "properties": {
    "edtf:cessation":"uuuu",
    "edtf:inception":"uuuu",
    "geom:area":0.0,
    "geom:bbox":"-76.145016,36.756074,-76.145016,36.756074",
    "geom:latitude":36.756074,
    "geom:longitude":-76.145016,
    "iso:country":"US",
    "sg:address":"2724 Elbow Rd",
    "sg:city":"Chesapeake",
    "sg:classifiers":[
        {
            "category":"Utilities",
            "subcategory":"Cable",
            "type":"Services"
        }
    ],
    "sg:owner":"simplegeo",
    "sg:phone":"+1 757 420 0349",
    "sg:postcode":"23320",
    "sg:province":"VA",
    "sg:tags":[
        "television"
    ],
    "src:geom":"simplegeo",
    "wof:belongsto":[],
    "wof:breaches":[],
    "wof:concordances":{
        "sg:id":"SG_0AFzww2prX6k1BgSCoQWfQ_36.756074_-76.145016@1294252573"
    },
    "wof:country":"US",
    "wof:created":1461903339,
    "wof:geomhash":"f32d0f8901041275ae01d60381b6b0cb",
    "wof:hierarchy":[],
    "wof:id":723515485,
    "wof:lastmodified":1461903339,
    "wof:name":"Sinclair Telecable",
    "wof:parent_id":-1,
    "wof:placetype":"venue",
    "wof:superseded_by":[],
    "wof:supersedes":[],
    "wof:tags":[
        "television"
    ]
},
  "bbox": [
    -76.145016,
    36.756074,
    -76.145016,
    36.756074
],
  "geometry": {"coordinates":[-76.145016,36.756074],"type":"Point"}
}