{
  "id": 722781077,
  "type": "Feature",
  "properties": {
    "edtf:cessation":"uuuu",
    "edtf:inception":"uuuu",
    "geom:area":0.0,
    "geom:bbox":"-77.360913,38.74389,-77.360913,38.74389",
    "geom:latitude":38.74389,
    "geom:longitude":-77.360913,
    "iso:country":"US",
    "sg:address":"7901 Wolf Run Hills Rd",
    "sg:city":"Fairfax Station",
    "sg:classifiers":[
        {
            "category":"Real Estate",
            "subcategory":"Real Estate Operator",
            "type":"Services"
        }
    ],
    "sg:owner":"simplegeo",
    "sg:phone":"+1 703 425 9791",
    "sg:postcode":"22039",
    "sg:province":"VA",
    "sg:tags":[
        "building",
        "apartment"
    ],
    "src:geom":"simplegeo",
    "wof:belongsto":[],
    "wof:breaches":[],
    "wof:concordances":{
        "sg:id":"SG_0jg246cYEv1WFjt0tZv1Rf_38.743890_-77.360913@1294252573"
    },
    "wof:country":"US",
    "wof:created":1461888519,
    "wof:geomhash":"15c6f66c5082755e318a4339770408b3",
    "wof:hierarchy":[],
    "wof:id":722781077,
    "wof:lastmodified":1461888519,
    "wof:name":"Cabrillo Park Apartments",
    "wof:parent_id":-1,
    "wof:placetype":"venue",
    "wof:superseded_by":[],
    "wof:supersedes":[],
    "wof:tags":[
        "building",
        "apartment"
    ]
},
  "bbox": [
    -77.360913,
    38.74389,
    -77.360913,
    38.74389
],
  "geometry": {"coordinates":[-77.360913,38.74389],"type":"Point"}
}