{
  "id": 739508005,
  "type": "Feature",
  "properties": {
    "edtf:cessation":"uuuu",
    "edtf:inception":"uuuu",
    "geom:area":0.0,
    "geom:bbox":"-77.171516,38.263989,-77.171516,38.263989",
    "geom:latitude":38.263989,
    "geom:longitude":-77.171516,
    "iso:country":"US",
    "sg:address":"10051 Kings Hwy",
    "sg:city":"King George",
    "sg:classifiers":[
        {
            "category":"Home & Garden",
            "subcategory":"Household Appliances",
            "type":"Retail Goods"
        }
    ],
    "sg:owner":"simplegeo",
    "sg:phone":"+1 540 775 3872",
    "sg:postcode":"22485",
    "sg:province":"VA",
    "sg:tags":[
        "cleaners",
        "vacuum"
    ],
    "src:geom":"simplegeo",
    "wof:belongsto":[],
    "wof:breaches":[],
    "wof:concordances":{
        "sg:id":"SG_0ifqx5SodJAeOCSXotP7BG_38.263989_-77.171516@1294252573"
    },
    "wof:country":"US",
    "wof:created":1461908576,
    "wof:geomhash":"6db94c6416ab7f4f589da7bc5a90111b",
    "wof:hierarchy":[],
    "wof:id":739508005,
    "wof:lastmodified":1461908576,
    "wof:name":"Stine's Vacuum & Sewing Ctr",
    "wof:parent_id":-1,
    "wof:placetype":"venue",
    "wof:superseded_by":[],
    "wof:supersedes":[],
    "wof:tags":[
        "cleaners",
        "vacuum"
    ]
},
  "bbox": [
    -77.171516,
    38.263989,
    -77.171516,
    38.263989
],
  "geometry": {"coordinates":[-77.171516,38.263989],"type":"Point"}
}