{
  "id": 723348809,
  "type": "Feature",
  "properties": {
    "edtf:cessation":"uuuu",
    "edtf:inception":"uuuu",
    "geom:area":0.0,
    "geom:bbox":"-80.256799,36.578635,-80.256799,36.578635",
    "geom:latitude":36.578635,
    "geom:longitude":-80.256799,
    "iso:country":"US",
    "sg:address":"604 Clark House Farm Rd",
    "sg:city":"Stuart",
    "sg:classifiers":[
        {
            "category":"Wholesale",
            "subcategory":"Sporting Goods",
            "type":"Manufacturing & Wholesale Goods"
        }
    ],
    "sg:owner":"simplegeo",
    "sg:phone":"+1 276 694 2420",
    "sg:postcode":"24171",
    "sg:province":"VA",
    "src:geom":"simplegeo",
    "wof:belongsto":[],
    "wof:breaches":[],
    "wof:concordances":{
        "sg:id":"SG_622WqcxcoQJjQ62bpr8Zm5_36.578635_-80.256799@1294252573"
    },
    "wof:country":"US",
    "wof:created":1461899973,
    "wof:geomhash":"22016708b24d367a89d0c95a480df72d",
    "wof:hierarchy":[],
    "wof:id":723348809,
    "wof:lastmodified":1461899973,
    "wof:name":"Get Limit",
    "wof:parent_id":-1,
    "wof:placetype":"venue",
    "wof:superseded_by":[],
    "wof:supersedes":[],
    "wof:tags":[]
},
  "bbox": [
    -80.256799,
    36.578635,
    -80.256799,
    36.578635
],
  "geometry": {"coordinates":[-80.256799,36.578635],"type":"Point"}
}