{
  "id": 723369635,
  "type": "Feature",
  "properties": {
    "edtf:cessation":"uuuu",
    "edtf:inception":"uuuu",
    "geom:area":0.0,
    "geom:bbox":"-78.964847,37.065507,-78.964847,37.065507",
    "geom:latitude":37.065507,
    "geom:longitude":-78.964847,
    "iso:country":"US",
    "sg:address":"17716 Brookneal Hwy",
    "sg:city":"Brookneal",
    "sg:classifiers":[
        {
            "category":"Organizations",
            "subcategory":"Religious Organization",
            "type":"Services"
        }
    ],
    "sg:owner":"simplegeo",
    "sg:phone":"+1 434 376 5588",
    "sg:postcode":"24528",
    "sg:province":"VA",
    "src:geom":"simplegeo",
    "wof:belongsto":[],
    "wof:breaches":[],
    "wof:concordances":{
        "sg:id":"SG_2uq2uJaGPKuWUl18sIUGS9_37.065507_-78.964847@1294252573"
    },
    "wof:country":"US",
    "wof:created":1461900366,
    "wof:geomhash":"2235bf3b212c986692b65d265da8b240",
    "wof:hierarchy":[],
    "wof:id":723369635,
    "wof:lastmodified":1461900366,
    "wof:name":"Burning Bsh Chrch/Gd In Chrst",
    "wof:parent_id":420546599,
    "wof:placetype":"venue",
    "wof:superseded_by":[],
    "wof:supersedes":[],
    "wof:tags":[]
},
  "bbox": [
    -78.964847,
    37.065507,
    -78.964847,
    37.065507
],
  "geometry": {"coordinates":[-78.96484700000001,37.065507],"type":"Point"}
}