{
  "id": 722670241,
  "type": "Feature",
  "properties": {
    "edtf:cessation":"uuuu",
    "edtf:inception":"uuuu",
    "geom:area":0.0,
    "geom:bbox":"-77.501059,37.64668,-77.501059,37.64668",
    "geom:latitude":37.64668,
    "geom:longitude":-77.501059,
    "iso:country":"US",
    "sg:address":"9700 Royerton Dr",
    "sg:city":"Richmond",
    "sg:classifiers":[
        {
            "category":"Shopping",
            "subcategory":"Bicycles & Sporting Goods",
            "type":"Retail Goods"
        }
    ],
    "sg:owner":"simplegeo",
    "sg:phone":"+1 804 266 0898",
    "sg:postcode":"23228",
    "sg:province":"VA",
    "src:geom":"simplegeo",
    "wof:belongsto":[],
    "wof:breaches":[],
    "wof:concordances":{
        "sg:id":"SG_0tXF5g0MInM8IoTlrlCbGB_37.646680_-77.501059@1294252573"
    },
    "wof:country":"US",
    "wof:created":1461886402,
    "wof:geomhash":"9520668949f10be547dd56decd1299e8",
    "wof:hierarchy":[],
    "wof:id":722670241,
    "wof:lastmodified":1461886402,
    "wof:name":"Calvary Shop The",
    "wof:parent_id":-1,
    "wof:placetype":"venue",
    "wof:superseded_by":[],
    "wof:supersedes":[],
    "wof:tags":[]
},
  "bbox": [
    -77.501059,
    37.64668,
    -77.501059,
    37.64668
],
  "geometry": {"coordinates":[-77.501059,37.64668],"type":"Point"}
}