{
  "id": 722553747,
  "type": "Feature",
  "properties": {
    "edtf:cessation":"uuuu",
    "edtf:inception":"uuuu",
    "geom:area":0.0,
    "geom:bbox":"-77.451287,38.762912,-77.451287,38.762912",
    "geom:latitude":38.762912,
    "geom:longitude":-77.451287,
    "iso:country":"US",
    "sg:address":"9046 Euclid Ave",
    "sg:city":"Manassas",
    "sg:classifiers":[
        {
            "category":"Building & Trades",
            "subcategory":"Cleaning & Sanitation",
            "type":"Services"
        }
    ],
    "sg:owner":"simplegeo",
    "sg:phone":"+1 703 368 4959",
    "sg:postcode":"20110",
    "sg:province":"VA",
    "sg:tags":[
        "janitor"
    ],
    "src:geom":"simplegeo",
    "wof:belongsto":[],
    "wof:breaches":[],
    "wof:concordances":{
        "sg:id":"SG_1XEPICAgsNv9S3YQnuIhHe_38.762912_-77.451287@1294252573"
    },
    "wof:country":"US",
    "wof:created":1461884083,
    "wof:geomhash":"670c86b7776b77f6d18d872524b1f111",
    "wof:hierarchy":[],
    "wof:id":722553747,
    "wof:lastmodified":1461884083,
    "wof:name":"Walker's Carpet Care & Jntrl",
    "wof:parent_id":-1,
    "wof:placetype":"venue",
    "wof:superseded_by":[],
    "wof:supersedes":[],
    "wof:tags":[
        "janitor"
    ]
},
  "bbox": [
    -77.451287,
    38.762912,
    -77.451287,
    38.762912
],
  "geometry": {"coordinates":[-77.45128699999999,38.762912],"type":"Point"}
}