{
  "id": 723511537,
  "type": "Feature",
  "properties": {
    "edtf:cessation":"uuuu",
    "edtf:inception":"uuuu",
    "geom:area":0.0,
    "geom:bbox":"-80.742065,36.76192,-80.742065,36.76192",
    "geom:latitude":36.76192,
    "geom:longitude":-80.742065,
    "iso:country":"US",
    "sg:address":"327 W Grayson St",
    "sg:city":"Hillsville",
    "sg:classifiers":[
        {
            "category":"Professional",
            "subcategory":"",
            "type":"Services"
        }
    ],
    "sg:owner":"simplegeo",
    "sg:phone":"+1 276 728 7049",
    "sg:postcode":"24343",
    "sg:province":"VA",
    "src:geom":"simplegeo",
    "wof:belongsto":[],
    "wof:breaches":[],
    "wof:concordances":{
        "sg:id":"SG_0qs3355lI2wMwhErh75WT0_36.761920_-80.742065@1294252573"
    },
    "wof:country":"US",
    "wof:created":1461903229,
    "wof:geomhash":"497bf5431b5892e06b8bfe87d86f097d",
    "wof:hierarchy":[],
    "wof:id":723511537,
    "wof:lastmodified":1461903229,
    "wof:name":"Michael L Miller",
    "wof:parent_id":-1,
    "wof:placetype":"venue",
    "wof:superseded_by":[],
    "wof:supersedes":[],
    "wof:tags":[]
},
  "bbox": [
    -80.742065,
    36.76192,
    -80.742065,
    36.76192
],
  "geometry": {"coordinates":[-80.742065,36.76192],"type":"Point"}
}