{
  "id": 722999971,
  "type": "Feature",
  "properties": {
    "edtf:cessation":"uuuu",
    "edtf:inception":"uuuu",
    "geom:area":0.0,
    "geom:bbox":"-77.734276,38.969384,-77.734276,38.969384",
    "geom:latitude":38.969384,
    "geom:longitude":-77.734276,
    "iso:country":"US",
    "sg:address":"10 E Washington St",
    "sg:city":"Middleburg",
    "sg:classifiers":[
        {
            "category":"Real Estate",
            "subcategory":"Real Estate Agent",
            "type":"Services"
        }
    ],
    "sg:owner":"simplegeo",
    "sg:phone":"+1 540 687 6321",
    "sg:postcode":"20117",
    "sg:province":"VA",
    "sg:website":"www.middleburgrealestate.net",
    "src:geom":"simplegeo",
    "wof:belongsto":[],
    "wof:breaches":[],
    "wof:concordances":{
        "sg:id":"SG_6oBlNa5nWMkDFlYawTNyZF_38.969384_-77.734276@1294252573"
    },
    "wof:country":"US",
    "wof:created":1461892905,
    "wof:geomhash":"72997af9cd7ee68cb0cb42ea04ad3de5",
    "wof:hierarchy":[],
    "wof:id":722999971,
    "wof:lastmodified":1461892905,
    "wof:name":"Middleburg Real Estate",
    "wof:parent_id":-1,
    "wof:placetype":"venue",
    "wof:superseded_by":[],
    "wof:supersedes":[],
    "wof:tags":[]
},
  "bbox": [
    -77.734276,
    38.969384,
    -77.734276,
    38.969384
],
  "geometry": {"coordinates":[-77.73427599999999,38.969384],"type":"Point"}
}