{
  "id": 739542813,
  "type": "Feature",
  "properties": {
    "edtf:cessation":"uuuu",
    "edtf:inception":"uuuu",
    "geom:area":0.0,
    "geom:bbox":"-80.082674,37.28689,-80.082674,37.28689",
    "geom:latitude":37.28689,
    "geom:longitude":-80.082674,
    "iso:country":"US",
    "sg:address":"1403 Mill Race Dr",
    "sg:city":"Salem",
    "sg:classifiers":[
        {
            "category":"Real Estate",
            "subcategory":"Architect",
            "type":"Services"
        }
    ],
    "sg:owner":"simplegeo",
    "sg:phone":"+1 540 774 5326",
    "sg:postcode":"24153",
    "sg:province":"VA",
    "sg:tags":[
        "architectural"
    ],
    "src:geom":"simplegeo",
    "wof:belongsto":[],
    "wof:breaches":[],
    "wof:concordances":{
        "sg:id":"SG_7JF75VzzgCf23SO4LESLTZ_37.286890_-80.082674@1294252573"
    },
    "wof:country":"US",
    "wof:created":1461909206,
    "wof:geomhash":"45b245be20aee09f78429fc98ed99a62",
    "wof:hierarchy":[],
    "wof:id":739542813,
    "wof:lastmodified":1461909206,
    "wof:name":"Craighead & Assoc Architects",
    "wof:parent_id":-1,
    "wof:placetype":"venue",
    "wof:superseded_by":[],
    "wof:supersedes":[],
    "wof:tags":[
        "architectural"
    ]
},
  "bbox": [
    -80.082674,
    37.28689,
    -80.082674,
    37.28689
],
  "geometry": {"coordinates":[-80.082674,37.28689],"type":"Point"}
}