{
  "id": 722880883,
  "type": "Feature",
  "properties": {
    "edtf:cessation":"uuuu",
    "edtf:inception":"uuuu",
    "geom:area":0.0,
    "geom:bbox":"-78.935342,38.062233,-78.935342,38.062233",
    "geom:latitude":38.062233,
    "geom:longitude":-78.935342,
    "iso:country":"US",
    "sg:address":"16 Windigrove Dr",
    "sg:city":"Waynesboro",
    "sg:classifiers":[
        {
            "category":"Shopping",
            "subcategory":"Gifts & Souvenirs",
            "type":"Retail Goods"
        }
    ],
    "sg:owner":"simplegeo",
    "sg:phone":"+1 540 943 3505",
    "sg:postcode":"22980",
    "sg:province":"VA",
    "sg:tags":[
        "shop"
    ],
    "src:geom":"simplegeo",
    "wof:belongsto":[],
    "wof:breaches":[],
    "wof:concordances":{
        "sg:id":"SG_2TUd8Gql67YhjbJF0HPvx7_38.062233_-78.935342@1294252573"
    },
    "wof:country":"US",
    "wof:created":1461890402,
    "wof:geomhash":"a33387a6dcd7f7ea32571ca5580c45c5",
    "wof:hierarchy":[],
    "wof:id":722880883,
    "wof:lastmodified":1461890402,
    "wof:name":"Artistic Imports",
    "wof:parent_id":-1,
    "wof:placetype":"venue",
    "wof:superseded_by":[],
    "wof:supersedes":[],
    "wof:tags":[
        "shop"
    ]
},
  "bbox": [
    -78.935342,
    38.062233,
    -78.935342,
    38.062233
],
  "geometry": {"coordinates":[-78.93534200000001,38.062233],"type":"Point"}
}