{
  "id": 739465089,
  "type": "Feature",
  "properties": {
    "edtf:cessation":"uuuu",
    "edtf:inception":"uuuu",
    "geom:area":0.0,
    "geom:bbox":"-78.162706,39.167041,-78.162706,39.167041",
    "geom:latitude":39.167041,
    "geom:longitude":-78.162706,
    "iso:country":"US",
    "sg:address":"1850 Apple Blossom Dr",
    "sg:city":"Winchester",
    "sg:classifiers":[
        {
            "category":"Manufacturing",
            "subcategory":"Toys & Sporting Goods",
            "type":"Manufacturing & Wholesale Goods"
        },
        {
            "category":"Shopping",
            "subcategory":"Bicycles & Sporting Goods",
            "type":"Retail Goods"
        }
    ],
    "sg:owner":"simplegeo",
    "sg:phone":"+1 540 545 4170",
    "sg:postcode":"22601",
    "sg:province":"VA",
    "sg:tags":[
        "mfg"
    ],
    "src:geom":"simplegeo",
    "wof:belongsto":[],
    "wof:breaches":[],
    "wof:concordances":{
        "sg:id":"SG_5H9vNBpizqiexWOclo7EnQ_39.167041_-78.162706@1294252573"
    },
    "wof:country":"US",
    "wof:created":1461907802,
    "wof:geomhash":"8264f0163610f02f48bbac0e58fb9e39",
    "wof:hierarchy":[],
    "wof:id":739465089,
    "wof:lastmodified":1461907802,
    "wof:name":"Shenk & Tittle",
    "wof:parent_id":-1,
    "wof:placetype":"venue",
    "wof:superseded_by":[],
    "wof:supersedes":[],
    "wof:tags":[
        "mfg"
    ]
},
  "bbox": [
    -78.162706,
    39.167041,
    -78.162706,
    39.167041
],
  "geometry": {"coordinates":[-78.162706,39.167041],"type":"Point"}
}