{
  "id": 723339341,
  "type": "Feature",
  "properties": {
    "edtf:cessation":"uuuu",
    "edtf:inception":"uuuu",
    "geom:area":0.0,
    "geom:bbox":"-77.436553,38.837074,-77.436553,38.837074",
    "geom:latitude":38.837074,
    "geom:longitude":-77.436553,
    "iso:country":"US",
    "sg:address":"14101 Saint Germain Dr",
    "sg:city":"Centreville",
    "sg:classifiers":[
        {
            "category":"Restaurant",
            "subcategory":"",
            "type":"Food & Drink"
        }
    ],
    "sg:owner":"simplegeo",
    "sg:phone":"+1 703 830 7177",
    "sg:postcode":"20121",
    "sg:province":"VA",
    "sg:tags":[
        "eating"
    ],
    "src:geom":"simplegeo",
    "wof:belongsto":[],
    "wof:breaches":[],
    "wof:concordances":{
        "sg:id":"SG_06xWRjxaqtFXpaEguKPye3_38.837074_-77.436553@1294252573"
    },
    "wof:country":"US",
    "wof:created":1461899797,
    "wof:geomhash":"fdec1834b3755cbd4151d4f04767ad27",
    "wof:hierarchy":[],
    "wof:id":723339341,
    "wof:lastmodified":1461899797,
    "wof:name":"Shade Tree Restaurant & Sports",
    "wof:parent_id":-1,
    "wof:placetype":"venue",
    "wof:superseded_by":[],
    "wof:supersedes":[],
    "wof:tags":[
        "eating"
    ]
},
  "bbox": [
    -77.436553,
    38.837074,
    -77.436553,
    38.837074
],
  "geometry": {"coordinates":[-77.436553,38.837074],"type":"Point"}
}