{
  "id": 723021283,
  "type": "Feature",
  "properties": {
    "edtf:cessation":"uuuu",
    "edtf:inception":"uuuu",
    "geom:area":0.0,
    "geom:bbox":"-77.011808,38.284595,-77.011808,38.284595",
    "geom:latitude":38.284595,
    "geom:longitude":-77.011808,
    "iso:country":"US",
    "sg:address":"9026 Pebble Beach Ln",
    "sg:city":"King George",
    "sg:classifiers":[
        {
            "category":"Professional",
            "subcategory":"Detective & Security Services",
            "type":"Services"
        }
    ],
    "sg:owner":"simplegeo",
    "sg:phone":"+1 540 775 2775",
    "sg:postcode":"22485",
    "sg:province":"VA",
    "sg:tags":[
        "system"
    ],
    "src:geom":"simplegeo",
    "wof:belongsto":[],
    "wof:breaches":[],
    "wof:concordances":{
        "sg:id":"SG_1pNiD6whlOAmzlMktXJ5WC_38.284595_-77.011808@1294252573"
    },
    "wof:country":"US",
    "wof:created":1461893400,
    "wof:geomhash":"c0611a71ccce8d27d8e41f56271010e4",
    "wof:hierarchy":[],
    "wof:id":723021283,
    "wof:lastmodified":1461893400,
    "wof:name":"Ron Boline Inc",
    "wof:parent_id":-1,
    "wof:placetype":"venue",
    "wof:superseded_by":[],
    "wof:supersedes":[],
    "wof:tags":[
        "system"
    ]
},
  "bbox": [
    -77.011808,
    38.284595,
    -77.011808,
    38.284595
],
  "geometry": {"coordinates":[-77.011808,38.284595],"type":"Point"}
}