{
  "id": 739360977,
  "type": "Feature",
  "properties": {
    "edtf:cessation":"uuuu",
    "edtf:inception":"uuuu",
    "geom:area":0.0,
    "geom:bbox":"-77.652521,38.310955,-77.652521,38.310955",
    "geom:latitude":38.310955,
    "geom:longitude":-77.652521,
    "iso:country":"US",
    "sg:address":"9001 Plank Rd",
    "sg:city":"Spotsylvania",
    "sg:classifiers":[
        {
            "category":"Professional",
            "subcategory":"",
            "type":"Services"
        }
    ],
    "sg:owner":"simplegeo",
    "sg:phone":"+1 540 786 5156",
    "sg:postcode":"22553",
    "sg:province":"VA",
    "sg:tags":[
        "establishment"
    ],
    "src:geom":"simplegeo",
    "wof:belongsto":[],
    "wof:breaches":[],
    "wof:concordances":{
        "sg:id":"SG_14YPz3I8B23PgQd3jvDM1v_38.310955_-77.652521@1294252573"
    },
    "wof:country":"US",
    "wof:created":1461905832,
    "wof:geomhash":"17585982588b97cbd2a1d9c184e2ff03",
    "wof:hierarchy":[],
    "wof:id":739360977,
    "wof:lastmodified":1461905832,
    "wof:name":"Eastern National",
    "wof:parent_id":-1,
    "wof:placetype":"venue",
    "wof:superseded_by":[],
    "wof:supersedes":[],
    "wof:tags":[
        "establishment"
    ]
},
  "bbox": [
    -77.652521,
    38.310955,
    -77.652521,
    38.310955
],
  "geometry": {"coordinates":[-77.65252099999999,38.310955],"type":"Point"}
}