{
  "id": 722957147,
  "type": "Feature",
  "properties": {
    "edtf:cessation":"uuuu",
    "edtf:inception":"uuuu",
    "geom:area":0.0,
    "geom:bbox":"-77.065975,38.80085,-77.065975,38.80085",
    "geom:latitude":38.80085,
    "geom:longitude":-77.065975,
    "iso:country":"US",
    "sg:address":"2121 Eisenhower Ave",
    "sg:city":"Alexandria",
    "sg:classifiers":[
        {
            "category":"Organizations",
            "subcategory":"Professional Association",
            "type":"Services"
        }
    ],
    "sg:owner":"simplegeo",
    "sg:phone":"+1 703 739 1049",
    "sg:postcode":"22314",
    "sg:province":"VA",
    "src:geom":"simplegeo",
    "wof:belongsto":[],
    "wof:breaches":[],
    "wof:concordances":{
        "sg:id":"SG_7XUIQKXdSIK5Ejm2Tv19jU_38.800850_-77.065975@1294252573"
    },
    "wof:country":"US",
    "wof:created":1461891966,
    "wof:geomhash":"4747e21522b3d711afe83098489b1e84",
    "wof:hierarchy":[],
    "wof:id":722957147,
    "wof:lastmodified":1461891966,
    "wof:name":"Auditory Verbal International",
    "wof:parent_id":-1,
    "wof:placetype":"venue",
    "wof:superseded_by":[],
    "wof:supersedes":[],
    "wof:tags":[]
},
  "bbox": [
    -77.065975,
    38.80085,
    -77.065975,
    38.80085
],
  "geometry": {"coordinates":[-77.06597499999999,38.80085],"type":"Point"}
}