{
  "id": 723384233,
  "type": "Feature",
  "properties": {
    "edtf:cessation":"uuuu",
    "edtf:inception":"uuuu",
    "geom:area":0.0,
    "geom:bbox":"-78.002601,38.202102,-78.002601,38.202102",
    "geom:latitude":38.202102,
    "geom:longitude":-78.002601,
    "iso:country":"US",
    "sg:address":"21266 Lahore Rd",
    "sg:city":"Orange",
    "sg:classifiers":[
        {
            "category":"Retail",
            "subcategory":"Auto Repair",
            "type":"Services"
        }
    ],
    "sg:owner":"simplegeo",
    "sg:phone":"+1 540 854 9717",
    "sg:postcode":"22960",
    "sg:province":"VA",
    "sg:tags":[
        "repairing",
        "automobile"
    ],
    "src:geom":"simplegeo",
    "wof:belongsto":[],
    "wof:breaches":[],
    "wof:concordances":{
        "sg:id":"SG_73NNUJyupuStrDvmSqvu7s_38.202102_-78.002601@1294252573"
    },
    "wof:country":"US",
    "wof:created":1461900667,
    "wof:geomhash":"edf3dac2b085ec8dd9e25a67249a9978",
    "wof:hierarchy":[],
    "wof:id":723384233,
    "wof:lastmodified":1461900667,
    "wof:name":"Browns Auto",
    "wof:parent_id":-1,
    "wof:placetype":"venue",
    "wof:superseded_by":[],
    "wof:supersedes":[],
    "wof:tags":[
        "repairing",
        "automobile"
    ]
},
  "bbox": [
    -78.002601,
    38.202102,
    -78.002601,
    38.202102
],
  "geometry": {"coordinates":[-78.002601,38.202102],"type":"Point"}
}