{
  "id": 723372209,
  "type": "Feature",
  "properties": {
    "edtf:cessation":"uuuu",
    "edtf:inception":"uuuu",
    "geom:area":0.0,
    "geom:bbox":"-78.828404,37.354416,-78.828404,37.354416",
    "geom:latitude":37.354416,
    "geom:longitude":-78.828404,
    "iso:country":"US",
    "sg:address":"177 Lee St",
    "sg:city":"Appomattox",
    "sg:classifiers":[
        {
            "category":"Insurance",
            "subcategory":"Insurance Agent",
            "type":"Services"
        }
    ],
    "sg:owner":"simplegeo",
    "sg:phone":"+1 434 352 4121",
    "sg:postcode":"24522",
    "sg:province":"VA",
    "src:geom":"simplegeo",
    "wof:belongsto":[],
    "wof:breaches":[],
    "wof:concordances":{
        "sg:id":"SG_7K6yNCJPsKLeHl3wZQU1I6_37.354416_-78.828404@1294252573"
    },
    "wof:country":"US",
    "wof:created":1461900421,
    "wof:geomhash":"1a0a29af0937fd978e548767355ded8b",
    "wof:hierarchy":[],
    "wof:id":723372209,
    "wof:lastmodified":1461900421,
    "wof:name":"Woodmen Of The World Life Ins",
    "wof:parent_id":-1,
    "wof:placetype":"venue",
    "wof:superseded_by":[],
    "wof:supersedes":[],
    "wof:tags":[]
},
  "bbox": [
    -78.828404,
    37.354416,
    -78.828404,
    37.354416
],
  "geometry": {"coordinates":[-78.82840400000001,37.354416],"type":"Point"}
}