{
  "id": 722622543,
  "type": "Feature",
  "properties": {
    "edtf:cessation":"uuuu",
    "edtf:inception":"uuuu",
    "geom:area":0.0,
    "geom:bbox":"-80.254303,37.334077,-80.254303,37.334077",
    "geom:latitude":37.334077,
    "geom:longitude":-80.254303,
    "iso:country":"US",
    "sg:address":"9020 Newport Rd",
    "sg:city":"Catawba",
    "sg:classifiers":[
        {
            "category":"Shopping",
            "subcategory":"Bicycles & Sporting Goods",
            "type":"Retail Goods"
        }
    ],
    "sg:owner":"simplegeo",
    "sg:phone":"+1 540 384 6222",
    "sg:postcode":"24070",
    "sg:province":"VA",
    "src:geom":"simplegeo",
    "wof:belongsto":[],
    "wof:breaches":[],
    "wof:concordances":{
        "sg:id":"SG_3RGbu7xzRRlOxFVQ7fLaDe_37.334077_-80.254303@1294252573"
    },
    "wof:country":"US",
    "wof:created":1461885437,
    "wof:geomhash":"cd806e23fef2c5429271939081be73d1",
    "wof:hierarchy":[],
    "wof:id":722622543,
    "wof:lastmodified":1461885437,
    "wof:name":"Morgans Saddlery & Southwest",
    "wof:parent_id":-1,
    "wof:placetype":"venue",
    "wof:superseded_by":[],
    "wof:supersedes":[],
    "wof:tags":[]
},
  "bbox": [
    -80.254303,
    37.334077,
    -80.254303,
    37.334077
],
  "geometry": {"coordinates":[-80.25430299999999,37.334077],"type":"Point"}
}