{
  "id": 722728349,
  "type": "Feature",
  "properties": {
    "edtf:cessation":"uuuu",
    "edtf:inception":"uuuu",
    "geom:area":0.0,
    "geom:bbox":"-77.456455,38.767816,-77.456455,38.767816",
    "geom:latitude":38.767816,
    "geom:longitude":-77.456455,
    "iso:country":"US",
    "sg:address":"8645 Mathis Ave",
    "sg:city":"Manassas",
    "sg:classifiers":[
        {
            "category":"Building & Trades",
            "subcategory":"Pest Control",
            "type":"Services"
        }
    ],
    "sg:owner":"simplegeo",
    "sg:phone":"+1 703 330 9170",
    "sg:postcode":"20110",
    "sg:province":"VA",
    "src:geom":"simplegeo",
    "wof:belongsto":[],
    "wof:breaches":[],
    "wof:concordances":{
        "sg:id":"SG_5mIhw42not2qtcIWTCEq4g_38.767816_-77.456455@1294252573"
    },
    "wof:country":"US",
    "wof:created":1461887496,
    "wof:geomhash":"13cffc9cf61485d3e907d455b1a5d663",
    "wof:hierarchy":[],
    "wof:id":722728349,
    "wof:lastmodified":1461887496,
    "wof:name":"Patriot Professional Svc",
    "wof:parent_id":-1,
    "wof:placetype":"venue",
    "wof:superseded_by":[],
    "wof:supersedes":[],
    "wof:tags":[]
},
  "bbox": [
    -77.456455,
    38.767816,
    -77.456455,
    38.767816
],
  "geometry": {"coordinates":[-77.45645500000001,38.767816],"type":"Point"}
}