{
  "id": 722659295,
  "type": "Feature",
  "properties": {
    "edtf:cessation":"uuuu",
    "edtf:inception":"uuuu",
    "geom:area":0.0,
    "geom:bbox":"-78.225534,36.997082,-78.225534,36.997082",
    "geom:latitude":36.997082,
    "geom:longitude":-78.225534,
    "iso:country":"US",
    "sg:address":"1509 9th St",
    "sg:city":"Victoria",
    "sg:classifiers":[
        {
            "category":"Organizations",
            "subcategory":"Religious Organization",
            "type":"Services"
        }
    ],
    "sg:owner":"simplegeo",
    "sg:phone":"+1 434 696 2844",
    "sg:postcode":"23974",
    "sg:province":"VA",
    "src:geom":"simplegeo",
    "wof:belongsto":[],
    "wof:breaches":[],
    "wof:concordances":{
        "sg:id":"SG_4pXjfuLuajkdbqNrJvKETq_36.997082_-78.225534@1294252573"
    },
    "wof:country":"US",
    "wof:created":1461886192,
    "wof:geomhash":"9564cfb19b3f8ac5f33d9ef7b06d99d1",
    "wof:hierarchy":[],
    "wof:id":722659295,
    "wof:lastmodified":1461886192,
    "wof:name":"Victoria Presbyterian Church",
    "wof:parent_id":-1,
    "wof:placetype":"venue",
    "wof:superseded_by":[],
    "wof:supersedes":[],
    "wof:tags":[]
},
  "bbox": [
    -78.225534,
    36.997082,
    -78.225534,
    36.997082
],
  "geometry": {"coordinates":[-78.225534,36.997082],"type":"Point"}
}