{
  "id": 723075995,
  "type": "Feature",
  "properties": {
    "edtf:cessation":"uuuu",
    "edtf:inception":"uuuu",
    "geom:area":0.0,
    "geom:bbox":"-77.346507,38.95941,-77.346507,38.95941",
    "geom:latitude":38.95941,
    "geom:longitude":-77.346507,
    "iso:country":"US",
    "sg:address":"11657 Charter Oak Ct",
    "sg:city":"Reston",
    "sg:classifiers":[
        {
            "category":"Professional",
            "subcategory":"",
            "type":"Services"
        }
    ],
    "sg:owner":"simplegeo",
    "sg:phone":"+1 703 481 9602",
    "sg:postcode":"20190",
    "sg:province":"VA",
    "src:geom":"simplegeo",
    "wof:belongsto":[
        85688747,
        102191575,
        85633793,
        101729785,
        102084863,
        85851565
    ],
    "wof:breaches":[],
    "wof:concordances":{
        "sg:id":"SG_7VChRqphVusZSLo1AO2Uem_38.959410_-77.346507@1294252573"
    },
    "wof:country":"US",
    "wof:created":1461894603,
    "wof:geomhash":"33aec2cbe9d272a814f0dc1ceb0380ee",
    "wof:hierarchy":[
        {
            "continent_id":102191575,
            "country_id":85633793,
            "county_id":102084863,
            "locality_id":101729785,
            "neighbourhood_id":85851565,
            "region_id":85688747,
            "venue_id":723075995
        }
    ],
    "wof:id":723075995,
    "wof:lastmodified":1461894603,
    "wof:name":"Jh Porcelain Artist",
    "wof:parent_id":85851565,
    "wof:placetype":"venue",
    "wof:superseded_by":[],
    "wof:supersedes":[],
    "wof:tags":[]
},
  "bbox": [
    -77.346507,
    38.95941,
    -77.346507,
    38.95941
],
  "geometry": {"coordinates":[-77.346507,38.95941],"type":"Point"}
}