{
  "id": 739719865,
  "type": "Feature",
  "properties": {
    "edtf:cessation":"uuuu",
    "edtf:inception":"uuuu",
    "geom:area":0.0,
    "geom:bbox":"-77.511803,37.643108,-77.511803,37.643108",
    "geom:latitude":37.643108,
    "geom:longitude":-77.511803,
    "iso:country":"US",
    "sg:address":"3000 Silverbush Ct",
    "sg:city":"Henrico",
    "sg:classifiers":[
        {
            "category":"Real Estate",
            "subcategory":"Real Estate Services",
            "type":"Services"
        }
    ],
    "sg:owner":"simplegeo",
    "sg:phone":"+1 804 536 3749",
    "sg:postcode":"23228",
    "sg:province":"VA",
    "sg:tags":[
        "management"
    ],
    "src:geom":"simplegeo",
    "wof:belongsto":[],
    "wof:breaches":[],
    "wof:concordances":{
        "sg:id":"SG_7AunhPuIXxwEl23w8Xqg5O_37.643108_-77.511803@1303262550"
    },
    "wof:country":"US",
    "wof:created":1461912990,
    "wof:geomhash":"58a52f491a92e6cd90ad19aa6b432195",
    "wof:hierarchy":[],
    "wof:id":739719865,
    "wof:lastmodified":1461912990,
    "wof:name":"VMJ Properties",
    "wof:parent_id":-1,
    "wof:placetype":"venue",
    "wof:superseded_by":[],
    "wof:supersedes":[],
    "wof:tags":[
        "management"
    ]
},
  "bbox": [
    -77.511803,
    37.643108,
    -77.511803,
    37.643108
],
  "geometry": {"coordinates":[-77.511803,37.643108],"type":"Point"}
}