{
  "id": 739386975,
  "type": "Feature",
  "properties": {
    "edtf:cessation":"uuuu",
    "edtf:inception":"uuuu",
    "geom:area":0.0,
    "geom:bbox":"-77.264542,38.864966,-77.264542,38.864966",
    "geom:latitude":38.864966,
    "geom:longitude":-77.264542,
    "iso:country":"US",
    "sg:address":"9229 Arlington Blvd",
    "sg:city":"Fairfax",
    "sg:classifiers":[
        {
            "category":"Restaurant",
            "subcategory":"",
            "type":"Food & Drink"
        }
    ],
    "sg:owner":"simplegeo",
    "sg:phone":"+1 703 591 8518",
    "sg:postcode":"22031",
    "sg:province":"VA",
    "sg:tags":[
        "contract"
    ],
    "src:geom":"simplegeo",
    "wof:belongsto":[],
    "wof:breaches":[],
    "wof:concordances":{
        "sg:id":"SG_687UwKDkdc5e6A5sStuZRW_38.864966_-77.264542@1294252573"
    },
    "wof:country":"US",
    "wof:created":1461906336,
    "wof:geomhash":"02edb694dec96219bd76c05ef1295978",
    "wof:hierarchy":[],
    "wof:id":739386975,
    "wof:lastmodified":1461906336,
    "wof:name":"Sodexho Inc",
    "wof:parent_id":-1,
    "wof:placetype":"venue",
    "wof:superseded_by":[],
    "wof:supersedes":[],
    "wof:tags":[
        "contract"
    ]
},
  "bbox": [
    -77.264542,
    38.864966,
    -77.264542,
    38.864966
],
  "geometry": {"coordinates":[-77.26454200000001,38.864966],"type":"Point"}
}