{
  "id": 739710745,
  "type": "Feature",
  "properties": {
    "edtf:cessation":"uuuu",
    "edtf:inception":"uuuu",
    "geom:area":0.0,
    "geom:bbox":"-77.644289,37.502427,-77.644289,37.502427",
    "geom:latitude":37.502427,
    "geom:longitude":-77.644289,
    "iso:country":"US",
    "sg:address":"13303 Midlothian Tpke",
    "sg:city":"Midlothian",
    "sg:classifiers":[
        {
            "category":"Professional",
            "subcategory":"Lawyer & Legal Services",
            "type":"Services"
        }
    ],
    "sg:owner":"simplegeo",
    "sg:phone":"+1 804 794 0080",
    "sg:postcode":"23113",
    "sg:province":"VA",
    "sg:tags":[
        "attorney",
        "accident",
        "personal",
        "medical",
        "damage",
        "liability",
        "malpractice",
        "injury",
        "property",
        "product",
        "law"
    ],
    "sg:website":"http://burnettwilliams.com",
    "src:geom":"simplegeo",
    "wof:belongsto":[],
    "wof:breaches":[],
    "wof:concordances":{
        "sg:id":"SG_2nHevTDbobSTIqUoTIOsdQ_37.502427_-77.644289@1303262549"
    },
    "wof:country":"US",
    "wof:created":1461912797,
    "wof:geomhash":"44fcda9226f89d904a58b484a7e18af1",
    "wof:hierarchy":[],
    "wof:id":739710745,
    "wof:lastmodified":1461912797,
    "wof:name":"Williams Jim Attorney",
    "wof:parent_id":-1,
    "wof:placetype":"venue",
    "wof:superseded_by":[],
    "wof:supersedes":[],
    "wof:tags":[
        "attorney",
        "accident",
        "personal",
        "medical",
        "damage",
        "liability",
        "malpractice",
        "injury",
        "property",
        "product",
        "law"
    ]
},
  "bbox": [
    -77.644289,
    37.502427,
    -77.644289,
    37.502427
],
  "geometry": {"coordinates":[-77.644289,37.502427],"type":"Point"}
}