{
  "id": 723312029,
  "type": "Feature",
  "properties": {
    "edtf:cessation":"uuuu",
    "edtf:inception":"uuuu",
    "geom:area":0.0,
    "geom:bbox":"-77.6498,37.503026,-77.6498,37.503026",
    "geom:latitude":37.503026,
    "geom:longitude":-77.6498,
    "iso:country":"US",
    "sg:address":"13561 Midlothian Tpke",
    "sg:city":"Midlothian",
    "sg:classifiers":[
        {
            "category":"Restaurant",
            "subcategory":"",
            "type":"Food & Drink"
        }
    ],
    "sg:owner":"simplegeo",
    "sg:phone":"+1 804 378 0510",
    "sg:postcode":"23113",
    "sg:province":"VA",
    "src:geom":"simplegeo",
    "wof:belongsto":[],
    "wof:breaches":[],
    "wof:concordances":{
        "sg:id":"SG_2sx4lXPr9BrCTwzjU6JULi_37.503026_-77.649800@1294252573"
    },
    "wof:country":"US",
    "wof:created":1461899302,
    "wof:geomhash":"96dc2485cf625785ef19b109fbcb0d9d",
    "wof:hierarchy":[],
    "wof:id":723312029,
    "wof:lastmodified":1461899302,
    "wof:name":"Uncle Buck's Steak & Seafood",
    "wof:parent_id":-1,
    "wof:placetype":"venue",
    "wof:superseded_by":[],
    "wof:supersedes":[],
    "wof:tags":[]
},
  "bbox": [
    -77.6498,
    37.503026,
    -77.6498,
    37.503026
],
  "geometry": {"coordinates":[-77.6498,37.503026],"type":"Point"}
}