{
  "id": 739298163,
  "type": "Feature",
  "properties": {
    "edtf:cessation":"uuuu",
    "edtf:inception":"uuuu",
    "geom:area":0.0,
    "geom:bbox":"-77.256771,38.84697,-77.256771,38.84697",
    "geom:latitude":38.84697,
    "geom:longitude":-77.256771,
    "iso:country":"US",
    "sg:address":"9012 Colesbury Pl",
    "sg:city":"Fairfax",
    "sg:classifiers":[
        {
            "category":"Professional",
            "subcategory":"Management & Consulting",
            "type":"Services"
        }
    ],
    "sg:owner":"simplegeo",
    "sg:phone":"+1 703 280 8295",
    "sg:postcode":"22031",
    "sg:province":"VA",
    "sg:tags":[
        "consultant",
        "business"
    ],
    "src:geom":"simplegeo",
    "wof:belongsto":[],
    "wof:breaches":[],
    "wof:concordances":{
        "sg:id":"SG_2BqNtunCw5G0LnDLCJizQg_38.846970_-77.256771@1294252573"
    },
    "wof:country":"US",
    "wof:created":1461904524,
    "wof:geomhash":"2846a4453fdd56e736589f4c21cec862",
    "wof:hierarchy":[],
    "wof:id":739298163,
    "wof:lastmodified":1461904524,
    "wof:name":"WCV Co LTD",
    "wof:parent_id":-1,
    "wof:placetype":"venue",
    "wof:superseded_by":[],
    "wof:supersedes":[],
    "wof:tags":[
        "consultant",
        "business"
    ]
},
  "bbox": [
    -77.256771,
    38.84697,
    -77.256771,
    38.84697
],
  "geometry": {"coordinates":[-77.256771,38.84697],"type":"Point"}
}