{
  "id": 723207831,
  "type": "Feature",
  "properties": {
    "edtf:cessation":"uuuu",
    "edtf:inception":"uuuu",
    "geom:area":0.0,
    "geom:bbox":"-78.132797,36.719269,-78.132797,36.719269",
    "geom:latitude":36.719269,
    "geom:longitude":-78.132797,
    "iso:country":"US",
    "sg:address":"827 S Hill Ave",
    "sg:city":"South Hill",
    "sg:classifiers":[
        {
            "category":"Food & Beverages",
            "subcategory":"Groceries & Convenience Stores",
            "type":"Retail Goods"
        }
    ],
    "sg:owner":"simplegeo",
    "sg:phone":"+1 434 447 7801",
    "sg:postcode":"23970",
    "sg:province":"VA",
    "src:geom":"simplegeo",
    "wof:belongsto":[],
    "wof:breaches":[],
    "wof:concordances":{
        "sg:id":"SG_219PBGt3eYLpdkqdBs9r5y_36.719269_-78.132797@1294252573"
    },
    "wof:country":"US",
    "wof:created":1461897219,
    "wof:geomhash":"1e567dafedf97d7c27f34dbb0bef9cc8",
    "wof:hierarchy":[],
    "wof:id":723207831,
    "wof:lastmodified":1461897219,
    "wof:name":"E-Z Stop Convenience Store",
    "wof:parent_id":-1,
    "wof:placetype":"venue",
    "wof:superseded_by":[],
    "wof:supersedes":[],
    "wof:tags":[]
},
  "bbox": [
    -78.132797,
    36.719269,
    -78.132797,
    36.719269
],
  "geometry": {"coordinates":[-78.132797,36.719269],"type":"Point"}
}