{
  "id": 739283511,
  "type": "Feature",
  "properties": {
    "edtf:cessation":"uuuu",
    "edtf:inception":"uuuu",
    "geom:area":0.0,
    "geom:bbox":"-77.614868,37.652121,-77.614868,37.652121",
    "geom:latitude":37.652121,
    "geom:longitude":-77.614868,
    "iso:country":"US",
    "sg:address":"11530 W Broad St",
    "sg:city":"Richmond",
    "sg:classifiers":[
        {
            "category":"Shopping",
            "subcategory":"Computers & Home Electronics",
            "type":"Retail Goods"
        }
    ],
    "sg:owner":"simplegeo",
    "sg:phone":"+1 804 360 4588",
    "sg:postcode":"23233",
    "sg:province":"VA",
    "sg:tags":[
        "game",
        "video"
    ],
    "src:geom":"simplegeo",
    "wof:belongsto":[],
    "wof:breaches":[],
    "wof:concordances":{
        "sg:id":"SG_3iZ6mASFH748snV9uMU7dn_37.652121_-77.614868@1294252573"
    },
    "wof:country":"US",
    "wof:created":1461904229,
    "wof:geomhash":"3e23a5a978d1fa1c2778e2ef46877d6b",
    "wof:hierarchy":[],
    "wof:id":739283511,
    "wof:lastmodified":1461904229,
    "wof:name":"Game Stop Corp",
    "wof:parent_id":-1,
    "wof:placetype":"venue",
    "wof:superseded_by":[],
    "wof:supersedes":[],
    "wof:tags":[
        "game",
        "video"
    ]
},
  "bbox": [
    -77.614868,
    37.652121,
    -77.614868,
    37.652121
],
  "geometry": {"coordinates":[-77.614868,37.652121],"type":"Point"}
}