{
  "id": 723064351,
  "type": "Feature",
  "properties": {
    "edtf:cessation":"uuuu",
    "edtf:inception":"uuuu",
    "geom:area":0.0,
    "geom:bbox":"-78.317209,37.90671,-78.317209,37.90671",
    "geom:latitude":37.90671,
    "geom:longitude":-78.317209,
    "iso:country":"US",
    "sg:address":"13 Brassie Ter",
    "sg:city":"Palmyra",
    "sg:classifiers":[
        {
            "category":"Shopping",
            "subcategory":"Used Merchandise",
            "type":"Retail Goods"
        }
    ],
    "sg:owner":"simplegeo",
    "sg:phone":"+1 434 591 0884",
    "sg:postcode":"22963",
    "sg:province":"VA",
    "sg:tags":[
        "book",
        "rare",
        "dealer"
    ],
    "src:geom":"simplegeo",
    "wof:belongsto":[],
    "wof:breaches":[],
    "wof:concordances":{
        "sg:id":"SG_6P6mxYCVZ9yU3V3fudzOQT_37.906710_-78.317209@1294252573"
    },
    "wof:country":"US",
    "wof:created":1461894307,
    "wof:geomhash":"266b59f019f466439b4a45b258f44c88",
    "wof:hierarchy":[],
    "wof:id":723064351,
    "wof:lastmodified":1461894307,
    "wof:name":"Old Soldier Books",
    "wof:parent_id":-1,
    "wof:placetype":"venue",
    "wof:superseded_by":[],
    "wof:supersedes":[],
    "wof:tags":[
        "book",
        "rare",
        "dealer"
    ]
},
  "bbox": [
    -78.317209,
    37.90671,
    -78.317209,
    37.90671
],
  "geometry": {"coordinates":[-78.31720900000001,37.90671],"type":"Point"}
}