{
  "id": 739295175,
  "type": "Feature",
  "properties": {
    "edtf:cessation":"uuuu",
    "edtf:inception":"uuuu",
    "geom:area":0.0,
    "geom:bbox":"-77.523378,38.724209,-77.523378,38.724209",
    "geom:latitude":38.724209,
    "geom:longitude":-77.523378,
    "iso:country":"US",
    "sg:address":"10600 Observation Rd",
    "sg:city":"Manassas",
    "sg:classifiers":[
        {
            "category":"Education",
            "subcategory":"Vocational School",
            "type":"Public Place"
        },
        {
            "category":"Education",
            "subcategory":"Special Training",
            "type":"Public Place"
        }
    ],
    "sg:owner":"simplegeo",
    "sg:phone":"+1 703 361 0575",
    "sg:postcode":"20110",
    "sg:province":"VA",
    "sg:tags":[
        "commercial",
        "aircraft",
        "flight",
        "aviation",
        "supply"
    ],
    "src:geom":"simplegeo",
    "wof:belongsto":[],
    "wof:breaches":[],
    "wof:concordances":{
        "sg:id":"SG_5mjYXITWB5nPvy5BgADF8Z_38.724209_-77.523378@1294252573"
    },
    "wof:country":"US",
    "wof:created":1461904468,
    "wof:geomhash":"4de7d076f01e4638346bf2a5ef7071bd",
    "wof:hierarchy":[],
    "wof:id":739295175,
    "wof:lastmodified":1461904468,
    "wof:name":"Manassas Aviation Center Inc",
    "wof:parent_id":-1,
    "wof:placetype":"venue",
    "wof:superseded_by":[],
    "wof:supersedes":[],
    "wof:tags":[
        "commercial",
        "aircraft",
        "flight",
        "aviation",
        "supply"
    ]
},
  "bbox": [
    -77.523378,
    38.724209,
    -77.523378,
    38.724209
],
  "geometry": {"coordinates":[-77.52337799999999,38.724209],"type":"Point"}
}