{
  "id": 723407313,
  "type": "Feature",
  "properties": {
    "edtf:cessation":"uuuu",
    "edtf:inception":"uuuu",
    "geom:area":0.0,
    "geom:bbox":"-77.813682,37.115308,-77.813682,37.115308",
    "geom:latitude":37.115308,
    "geom:longitude":-77.813682,
    "iso:country":"US",
    "sg:address":"6675 Grubby Rd",
    "sg:city":"Wilsons",
    "sg:classifiers":[
        {
            "category":"Freight",
            "subcategory":"",
            "type":"Transportation"
        }
    ],
    "sg:owner":"simplegeo",
    "sg:phone":"+1 804 265 5643",
    "sg:postcode":"23894",
    "sg:province":"VA",
    "sg:tags":[
        "local",
        "trucking"
    ],
    "src:geom":"simplegeo",
    "wof:belongsto":[],
    "wof:breaches":[],
    "wof:concordances":{
        "sg:id":"SG_2ku3vx7yRedraltZWRUDim_37.115308_-77.813682@1294252573"
    },
    "wof:country":"US",
    "wof:created":1461901117,
    "wof:geomhash":"1e0c6afe197cb223d97d87902aa06a09",
    "wof:hierarchy":[],
    "wof:id":723407313,
    "wof:lastmodified":1461901117,
    "wof:name":"B & T Hauling",
    "wof:parent_id":-1,
    "wof:placetype":"venue",
    "wof:superseded_by":[],
    "wof:supersedes":[],
    "wof:tags":[
        "local",
        "trucking"
    ]
},
  "bbox": [
    -77.813682,
    37.115308,
    -77.813682,
    37.115308
],
  "geometry": {"coordinates":[-77.813682,37.115308],"type":"Point"}
}