{
  "id": 722643917,
  "type": "Feature",
  "properties": {
    "edtf:cessation":"uuuu",
    "edtf:inception":"uuuu",
    "geom:area":0.0,
    "geom:bbox":"-77.535735,38.278171,-77.535735,38.278171",
    "geom:latitude":38.278171,
    "geom:longitude":-77.535735,
    "iso:country":"US",
    "sg:address":"11708 Roosevelt Rd",
    "sg:city":"Fredericksburg",
    "sg:classifiers":[
        {
            "category":"Manufacturing",
            "subcategory":"Tools & Machinery",
            "type":"Manufacturing & Wholesale Goods"
        }
    ],
    "sg:owner":"simplegeo",
    "sg:phone":"+1 540 379 7263",
    "sg:postcode":"22407",
    "sg:province":"VA",
    "sg:tags":[
        "dry",
        "machine",
        "cleaning"
    ],
    "src:geom":"simplegeo",
    "wof:belongsto":[],
    "wof:breaches":[],
    "wof:concordances":{
        "sg:id":"SG_5RzCc1V4FywuImTWGgP2qA_38.278171_-77.535735@1294252573"
    },
    "wof:country":"US",
    "wof:created":1461885909,
    "wof:geomhash":"ccb7ec17806319c2393656862ea0d2df",
    "wof:hierarchy":[],
    "wof:id":722643917,
    "wof:lastmodified":1461885909,
    "wof:name":"Satec Virginia Corp",
    "wof:parent_id":-1,
    "wof:placetype":"venue",
    "wof:superseded_by":[],
    "wof:supersedes":[],
    "wof:tags":[
        "dry",
        "machine",
        "cleaning"
    ]
},
  "bbox": [
    -77.535735,
    38.278171,
    -77.535735,
    38.278171
],
  "geometry": {"coordinates":[-77.535735,38.278171],"type":"Point"}
}