{
  "id": 723375381,
  "type": "Feature",
  "properties": {
    "edtf:cessation":"uuuu",
    "edtf:inception":"uuuu",
    "geom:area":0.0,
    "geom:bbox":"-77.371353,38.508215,-77.371353,38.508215",
    "geom:latitude":38.508215,
    "geom:longitude":-77.371353,
    "iso:country":"US",
    "sg:address":"3869 Jefferson Davis Hwy",
    "sg:city":"Stafford",
    "sg:classifiers":[
        {
            "category":"Shopping",
            "subcategory":"Florist",
            "type":"Retail Goods"
        }
    ],
    "sg:owner":"simplegeo",
    "sg:phone":"+1 703 221 9600",
    "sg:postcode":"22554",
    "sg:province":"VA",
    "src:geom":"simplegeo",
    "wof:belongsto":[],
    "wof:breaches":[],
    "wof:concordances":{
        "sg:id":"SG_342BcgEXFZ26xtP9SJxL2z_38.508215_-77.371353@1294252573"
    },
    "wof:country":"US",
    "wof:created":1461900479,
    "wof:geomhash":"d350d58ade19e54b3e9f6ef167a5912c",
    "wof:hierarchy":[],
    "wof:id":723375381,
    "wof:lastmodified":1461900479,
    "wof:name":"Simply Elegant Flowers & Gifts",
    "wof:parent_id":420547175,
    "wof:placetype":"venue",
    "wof:superseded_by":[],
    "wof:supersedes":[],
    "wof:tags":[]
},
  "bbox": [
    -77.371353,
    38.508215,
    -77.371353,
    38.508215
],
  "geometry": {"coordinates":[-77.371353,38.508215],"type":"Point"}
}