{
  "id": 722681521,
  "type": "Feature",
  "properties": {
    "edtf:cessation":"uuuu",
    "edtf:inception":"uuuu",
    "geom:area":0.0,
    "geom:bbox":"-77.475814,39.041142,-77.475814,39.041142",
    "geom:latitude":39.041142,
    "geom:longitude":-77.475814,
    "iso:country":"US",
    "sg:address":"20817 Confidence Ct",
    "sg:city":"Ashburn",
    "sg:classifiers":[
        {
            "category":"Professional",
            "subcategory":"",
            "type":"Services"
        }
    ],
    "sg:owner":"simplegeo",
    "sg:phone":"+1 703 724 0401",
    "sg:postcode":"20147",
    "sg:province":"VA",
    "sg:tags":[
        "establishment"
    ],
    "src:geom":"simplegeo",
    "wof:belongsto":[],
    "wof:breaches":[],
    "wof:concordances":{
        "sg:id":"SG_6VX1TpDxiWNu52xXEzfL5y_39.041142_-77.475814@1294252573"
    },
    "wof:country":"US",
    "wof:created":1461886612,
    "wof:geomhash":"b0f902d6c5b90bade60507ed90456aa8",
    "wof:hierarchy":[],
    "wof:id":722681521,
    "wof:lastmodified":1461886612,
    "wof:name":"Claim It Rite",
    "wof:parent_id":-1,
    "wof:placetype":"venue",
    "wof:superseded_by":[],
    "wof:supersedes":[],
    "wof:tags":[
        "establishment"
    ]
},
  "bbox": [
    -77.475814,
    39.041142,
    -77.475814,
    39.041142
],
  "geometry": {"coordinates":[-77.475814,39.041142],"type":"Point"}
}