{
  "id": 722919731,
  "type": "Feature",
  "properties": {
    "edtf:cessation":"uuuu",
    "edtf:inception":"uuuu",
    "geom:area":0.0,
    "geom:bbox":"-77.539599,37.656094,-77.539599,37.656094",
    "geom:latitude":37.656094,
    "geom:longitude":-77.539599,
    "iso:country":"US",
    "sg:address":"9006 Covewood Rd",
    "sg:city":"Glen Allen",
    "sg:classifiers":[
        {
            "category":"Personal",
            "subcategory":"",
            "type":"Services"
        }
    ],
    "sg:owner":"simplegeo",
    "sg:phone":"+1 804 965 9561",
    "sg:postcode":"23060",
    "sg:province":"VA",
    "src:geom":"simplegeo",
    "wof:belongsto":[],
    "wof:breaches":[],
    "wof:concordances":{
        "sg:id":"SG_554EK5KD7yvV7IxtmUT29E_37.656094_-77.539599@1294252573"
    },
    "wof:country":"US",
    "wof:created":1461891178,
    "wof:geomhash":"ce35d41fd8a945dbaa53a75967aa86ce",
    "wof:hierarchy":[],
    "wof:id":722919731,
    "wof:lastmodified":1461891178,
    "wof:name":"Honey Do Handyman Service Inc",
    "wof:parent_id":-1,
    "wof:placetype":"venue",
    "wof:superseded_by":[],
    "wof:supersedes":[],
    "wof:tags":[]
},
  "bbox": [
    -77.539599,
    37.656094,
    -77.539599,
    37.656094
],
  "geometry": {"coordinates":[-77.539599,37.656094],"type":"Point"}
}