{
  "id": 722606033,
  "type": "Feature",
  "properties": {
    "edtf:cessation":"uuuu",
    "edtf:inception":"uuuu",
    "geom:area":0.0,
    "geom:bbox":"-78.454277,36.802287,-78.454277,36.802287",
    "geom:latitude":36.802287,
    "geom:longitude":-78.454277,
    "iso:country":"US",
    "sg:address":"502 Walker St",
    "sg:city":"Chase City",
    "sg:classifiers":[
        {
            "category":"Museum",
            "subcategory":"",
            "type":"Entertainment"
        }
    ],
    "sg:owner":"simplegeo",
    "sg:phone":"+1 434 372 3120",
    "sg:postcode":"23924",
    "sg:province":"VA",
    "src:geom":"simplegeo",
    "wof:belongsto":[],
    "wof:breaches":[],
    "wof:concordances":{
        "sg:id":"SG_2sfkWS2YvE3uFpWH5E3WcM_36.802287_-78.454277@1294252573"
    },
    "wof:country":"US",
    "wof:created":1461885100,
    "wof:geomhash":"4f7beac58fe554090cfdf57cc02b0d55",
    "wof:hierarchy":[],
    "wof:id":722606033,
    "wof:lastmodified":1461885100,
    "wof:name":"Mac Callummore Museum",
    "wof:parent_id":-1,
    "wof:placetype":"venue",
    "wof:superseded_by":[],
    "wof:supersedes":[],
    "wof:tags":[]
},
  "bbox": [
    -78.454277,
    36.802287,
    -78.454277,
    36.802287
],
  "geometry": {"coordinates":[-78.454277,36.802287],"type":"Point"}
}