{
  "id": 723025465,
  "type": "Feature",
  "properties": {
    "edtf:cessation":"uuuu",
    "edtf:inception":"uuuu",
    "geom:area":0.0,
    "geom:bbox":"-77.436655,38.775028,-77.436655,38.775028",
    "geom:latitude":38.775028,
    "geom:longitude":-77.436655,
    "iso:country":"US",
    "sg:address":"9205 Enterprise Ct",
    "sg:city":"Manassas Park",
    "sg:classifiers":[
        {
            "category":"Local Transit",
            "subcategory":"",
            "type":"Transportation"
        }
    ],
    "sg:owner":"simplegeo",
    "sg:phone":"+1 703 530 7058",
    "sg:postcode":"20111",
    "sg:province":"VA",
    "sg:tags":[
        "limousine"
    ],
    "src:geom":"simplegeo",
    "wof:belongsto":[],
    "wof:breaches":[],
    "wof:concordances":{
        "sg:id":"SG_3OoKgS25EmizjVWyGnBtLO_38.775028_-77.436655@1294252573"
    },
    "wof:country":"US",
    "wof:created":1461893513,
    "wof:geomhash":"9e60ee593b56234f2b3b4a6bbe780496",
    "wof:hierarchy":[],
    "wof:id":723025465,
    "wof:lastmodified":1461893513,
    "wof:name":"Classy Carriage Limousine",
    "wof:parent_id":-1,
    "wof:placetype":"venue",
    "wof:superseded_by":[],
    "wof:supersedes":[],
    "wof:tags":[
        "limousine"
    ]
},
  "bbox": [
    -77.436655,
    38.775028,
    -77.436655,
    38.775028
],
  "geometry": {"coordinates":[-77.436655,38.775028],"type":"Point"}
}