{
  "id": 722792491,
  "type": "Feature",
  "properties": {
    "edtf:cessation":"uuuu",
    "edtf:inception":"uuuu",
    "geom:area":0.0,
    "geom:bbox":"-77.566756,39.113857,-77.566756,39.113857",
    "geom:latitude":39.113857,
    "geom:longitude":-77.566756,
    "iso:country":"US",
    "sg:address":"17 Royal St SW",
    "sg:city":"Leesburg",
    "sg:classifiers":[
        {
            "category":"Real Estate",
            "subcategory":"Developer",
            "type":"Services"
        },
        {
            "category":"Professional",
            "subcategory":"Management & Consulting",
            "type":"Services"
        },
        {
            "category":"Government",
            "subcategory":"Office",
            "type":"Public Place"
        }
    ],
    "sg:owner":"simplegeo",
    "sg:phone":"+1 703 771 2121",
    "sg:postcode":"20175",
    "sg:province":"VA",
    "sg:tags":[
        "consultant",
        "design",
        "business"
    ],
    "src:geom":"simplegeo",
    "wof:belongsto":[],
    "wof:breaches":[],
    "wof:concordances":{
        "sg:id":"SG_37wyRdCyYtRAruhE3onx4K_39.113857_-77.566756@1294252573"
    },
    "wof:country":"US",
    "wof:created":1461888744,
    "wof:geomhash":"6e9842ec6d6b57724835dc7119f09346",
    "wof:hierarchy":[],
    "wof:id":722792491,
    "wof:lastmodified":1461888744,
    "wof:name":"Land Management & Design LLC",
    "wof:parent_id":-1,
    "wof:placetype":"venue",
    "wof:superseded_by":[],
    "wof:supersedes":[],
    "wof:tags":[
        "consultant",
        "design",
        "business"
    ]
},
  "bbox": [
    -77.566756,
    39.113857,
    -77.566756,
    39.113857
],
  "geometry": {"coordinates":[-77.566756,39.113857],"type":"Point"}
}