{
  "id": 722620239,
  "type": "Feature",
  "properties": {
    "edtf:cessation":"uuuu",
    "edtf:inception":"uuuu",
    "geom:area":0.0,
    "geom:bbox":"-78.493682,38.021237,-78.493682,38.021237",
    "geom:latitude":38.021237,
    "geom:longitude":-78.493682,
    "iso:country":"US",
    "sg:address":"990 5th St SW",
    "sg:city":"Charlottesville",
    "sg:classifiers":[
        {
            "category":"Organizations",
            "subcategory":"Religious Organization",
            "type":"Services"
        }
    ],
    "sg:owner":"simplegeo",
    "sg:phone":"+1 434 977 5429",
    "sg:postcode":"22902",
    "sg:province":"VA",
    "sg:tags":[
        "christ",
        "church"
    ],
    "src:geom":"simplegeo",
    "wof:belongsto":[],
    "wof:breaches":[],
    "wof:concordances":{
        "sg:id":"SG_5pV6cLpasLpnr9cFpkCBgF_38.021237_-78.493682@1294252573"
    },
    "wof:country":"US",
    "wof:created":1461885394,
    "wof:geomhash":"6c1d57daf78504f0ed2b1566072844da",
    "wof:hierarchy":[],
    "wof:id":722620239,
    "wof:lastmodified":1461885394,
    "wof:name":"Charlttsvlle Chrch Christ Bb W",
    "wof:parent_id":420558727,
    "wof:placetype":"venue",
    "wof:superseded_by":[],
    "wof:supersedes":[],
    "wof:tags":[
        "christ",
        "church"
    ]
},
  "bbox": [
    -78.493682,
    38.021237,
    -78.493682,
    38.021237
],
  "geometry": {"coordinates":[-78.49368200000001,38.021237],"type":"Point"}
}