{
  "id": 739582861,
  "type": "Feature",
  "properties": {
    "edtf:cessation":"uuuu",
    "edtf:inception":"uuuu",
    "geom:area":0.0,
    "geom:bbox":"-77.510452,38.306259,-77.510452,38.306259",
    "geom:latitude":38.306259,
    "geom:longitude":-77.510452,
    "iso:country":"US",
    "sg:address":"1780 Carl D Silver Pkwy",
    "sg:city":"Fredericksburg",
    "sg:classifiers":[
        {
            "category":"Restaurant",
            "subcategory":"",
            "type":"Food & Drink"
        }
    ],
    "sg:menulink":"http://www.allmenus.com/va/fredericksburg/105375-ryans/menu/",
    "sg:owner":"simplegeo",
    "sg:phone":"+1 540 548 0051",
    "sg:postcode":"22401",
    "sg:province":"VA",
    "sg:tags":[
        "american"
    ],
    "src:geom":"simplegeo",
    "wof:belongsto":[],
    "wof:breaches":[],
    "wof:concordances":{
        "sg:id":"SG_4KwG1sWroyBsCYfpmYwny3_38.306259_-77.510452@1299784598"
    },
    "wof:country":"US",
    "wof:created":1461910063,
    "wof:geomhash":"de4235a0062bc7e57c55a7cab715b919",
    "wof:hierarchy":[],
    "wof:id":739582861,
    "wof:lastmodified":1461910063,
    "wof:name":"Ryan's",
    "wof:parent_id":-1,
    "wof:placetype":"venue",
    "wof:superseded_by":[],
    "wof:supersedes":[],
    "wof:tags":[
        "american"
    ]
},
  "bbox": [
    -77.510452,
    38.306259,
    -77.510452,
    38.306259
],
  "geometry": {"coordinates":[-77.510452,38.306259],"type":"Point"}
}