{
  "id": 723226639,
  "type": "Feature",
  "properties": {
    "edtf:cessation":"uuuu",
    "edtf:inception":"uuuu",
    "geom:area":0.0,
    "geom:bbox":"-77.992012,37.335657,-77.992012,37.335657",
    "geom:latitude":37.335657,
    "geom:longitude":-77.992012,
    "iso:country":"US",
    "sg:address":"16951 Leidig St",
    "sg:city":"Amelia Court Hse",
    "sg:classifiers":[
        {
            "category":"Manufacturing",
            "subcategory":"Lumber",
            "type":"Manufacturing & Wholesale Goods"
        }
    ],
    "sg:owner":"simplegeo",
    "sg:phone":"+1 804 561 2155",
    "sg:postcode":"23002",
    "sg:province":"VA",
    "sg:tags":[
        "planing",
        "mills",
        "sawmill"
    ],
    "src:geom":"simplegeo",
    "wof:belongsto":[],
    "wof:breaches":[],
    "wof:concordances":{
        "sg:id":"SG_39EuuNfn4lf27pTWEfQSw0_37.335657_-77.992012@1294252573"
    },
    "wof:country":"US",
    "wof:created":1461897632,
    "wof:geomhash":"606b489c6dccafa7465a839bb9edec14",
    "wof:hierarchy":[],
    "wof:id":723226639,
    "wof:lastmodified":1461897632,
    "wof:name":"Amelia Lumber Co",
    "wof:parent_id":-1,
    "wof:placetype":"venue",
    "wof:superseded_by":[],
    "wof:supersedes":[],
    "wof:tags":[
        "planing",
        "mills",
        "sawmill"
    ]
},
  "bbox": [
    -77.992012,
    37.335657,
    -77.992012,
    37.335657
],
  "geometry": {"coordinates":[-77.992012,37.335657],"type":"Point"}
}