{
  "id": 739341809,
  "type": "Feature",
  "properties": {
    "edtf:cessation":"uuuu",
    "edtf:inception":"uuuu",
    "geom:area":0.0,
    "geom:bbox":"-77.553512,37.671656,-77.553512,37.671656",
    "geom:latitude":37.671656,
    "geom:longitude":-77.553512,
    "iso:country":"US",
    "sg:address":"8905 Lissie Ct",
    "sg:city":"Glen Allen",
    "sg:classifiers":[
        {
            "category":"Professional",
            "subcategory":"Computer Services",
            "type":"Services"
        }
    ],
    "sg:owner":"simplegeo",
    "sg:phone":"+1 804 307 9656",
    "sg:postcode":"23060",
    "sg:province":"VA",
    "sg:tags":[
        "prepackaged",
        "software",
        "custom"
    ],
    "src:geom":"simplegeo",
    "wof:belongsto":[],
    "wof:breaches":[],
    "wof:concordances":{
        "sg:id":"SG_02dLM5v2Ky0uC2SbCxkcK4_37.671656_-77.553512@1294252573"
    },
    "wof:country":"US",
    "wof:created":1461905419,
    "wof:geomhash":"08038ee11624a21129fdfdfceda5bab1",
    "wof:hierarchy":[],
    "wof:id":739341809,
    "wof:lastmodified":1461905419,
    "wof:name":"Shoonya Inc",
    "wof:parent_id":-1,
    "wof:placetype":"venue",
    "wof:superseded_by":[],
    "wof:supersedes":[],
    "wof:tags":[
        "prepackaged",
        "software",
        "custom"
    ]
},
  "bbox": [
    -77.553512,
    37.671656,
    -77.553512,
    37.671656
],
  "geometry": {"coordinates":[-77.553512,37.671656],"type":"Point"}
}