{
  "id": 739710577,
  "type": "Feature",
  "properties": {
    "edtf:cessation":"uuuu",
    "edtf:inception":"uuuu",
    "geom:area":0.0,
    "geom:bbox":"-77.672612,37.544283,-77.672612,37.544283",
    "geom:latitude":37.544283,
    "geom:longitude":-77.672612,
    "iso:country":"US",
    "sg:address":"3504 Crossings Way",
    "sg:city":"Midlothian",
    "sg:classifiers":[
        {
            "category":"Real Estate",
            "subcategory":"Real Estate Agent",
            "type":"Services"
        }
    ],
    "sg:owner":"simplegeo",
    "sg:phone":"+1 804 320 2421",
    "sg:postcode":"23113",
    "sg:province":"VA",
    "src:geom":"simplegeo",
    "wof:belongsto":[],
    "wof:breaches":[],
    "wof:concordances":{
        "sg:id":"SG_0EdktNbB8AMJlDlQWzG5aH_37.544283_-77.672612@1303262549"
    },
    "wof:country":"US",
    "wof:created":1461912795,
    "wof:geomhash":"2bf64b8ecc42c72aad3ff79b92e1022f",
    "wof:hierarchy":[],
    "wof:id":739710577,
    "wof:lastmodified":1461912795,
    "wof:name":"Hazelwood Realty Enterprises",
    "wof:parent_id":-1,
    "wof:placetype":"venue",
    "wof:superseded_by":[],
    "wof:supersedes":[],
    "wof:tags":[]
},
  "bbox": [
    -77.672612,
    37.544283,
    -77.672612,
    37.544283
],
  "geometry": {"coordinates":[-77.672612,37.544283],"type":"Point"}
}