{
  "id": 739515251,
  "type": "Feature",
  "properties": {
    "edtf:cessation":"uuuu",
    "edtf:inception":"uuuu",
    "geom:area":0.0,
    "geom:bbox":"-80.054219,37.293537,-80.054219,37.293537",
    "geom:latitude":37.293537,
    "geom:longitude":-80.054219,
    "iso:country":"US",
    "sg:address":"305 E Main St",
    "sg:city":"Salem",
    "sg:classifiers":[
        {
            "category":"Education",
            "subcategory":"Library",
            "type":"Public Place"
        }
    ],
    "sg:owner":"simplegeo",
    "sg:phone":"+1 540 387 6344",
    "sg:postcode":"24153",
    "sg:province":"VA",
    "src:geom":"simplegeo",
    "wof:belongsto":[],
    "wof:breaches":[],
    "wof:concordances":{
        "sg:id":"SG_05orsirBIpOvGytU2FJYNO_37.293537_-80.054219@1294252573"
    },
    "wof:country":"US",
    "wof:created":1461908708,
    "wof:geomhash":"f9b44211b896128e04cf3aa1946a3732",
    "wof:hierarchy":[],
    "wof:id":739515251,
    "wof:lastmodified":1461908708,
    "wof:name":"Roanoke County Law Library",
    "wof:parent_id":-1,
    "wof:placetype":"venue",
    "wof:superseded_by":[],
    "wof:supersedes":[],
    "wof:tags":[]
},
  "bbox": [
    -80.054219,
    37.293537,
    -80.054219,
    37.293537
],
  "geometry": {"coordinates":[-80.054219,37.293537],"type":"Point"}
}