{
  "id": 739371067,
  "type": "Feature",
  "properties": {
    "edtf:cessation":"uuuu",
    "edtf:inception":"uuuu",
    "geom:area":0.0,
    "geom:bbox":"-77.643965,37.62319,-77.643965,37.62319",
    "geom:latitude":37.62319,
    "geom:longitude":-77.643965,
    "iso:country":"US",
    "sg:address":"12300 Lullington Dr",
    "sg:city":"Richmond",
    "sg:classifiers":[
        {
            "category":"Insurance",
            "subcategory":"Insurance Agent",
            "type":"Services"
        }
    ],
    "sg:owner":"simplegeo",
    "sg:phone":"+1 804 754 1327",
    "sg:postcode":"23238",
    "sg:province":"VA",
    "src:geom":"simplegeo",
    "wof:belongsto":[],
    "wof:breaches":[],
    "wof:concordances":{
        "sg:id":"SG_0Ww7VD3ytlfoXsgmxoqjBk_37.623190_-77.643965@1294252573"
    },
    "wof:country":"US",
    "wof:created":1461906015,
    "wof:geomhash":"fd05366ac68aa1cf590a6a63e5d9f3ee",
    "wof:hierarchy":[],
    "wof:id":739371067,
    "wof:lastmodified":1461906015,
    "wof:name":"Long Term Care Insurance Svc",
    "wof:parent_id":-1,
    "wof:placetype":"venue",
    "wof:superseded_by":[],
    "wof:supersedes":[],
    "wof:tags":[]
},
  "bbox": [
    -77.643965,
    37.62319,
    -77.643965,
    37.62319
],
  "geometry": {"coordinates":[-77.64396499999999,37.62319],"type":"Point"}
}