{
  "id": 723417855,
  "type": "Feature",
  "properties": {
    "edtf:cessation":"uuuu",
    "edtf:inception":"uuuu",
    "geom:area":0.0,
    "geom:bbox":"-77.627662,37.637317,-77.627662,37.637317",
    "geom:latitude":37.637317,
    "geom:longitude":-77.627662,
    "iso:country":"US",
    "sg:address":"11904 Dalkeith Ln",
    "sg:city":"Richmond",
    "sg:classifiers":[
        {
            "category":"Real Estate",
            "subcategory":"Real Estate Agent",
            "type":"Services"
        }
    ],
    "sg:owner":"simplegeo",
    "sg:phone":"+1 804 360 3779",
    "sg:postcode":"23233",
    "sg:province":"VA",
    "src:geom":"simplegeo",
    "wof:belongsto":[],
    "wof:breaches":[],
    "wof:concordances":{
        "sg:id":"SG_1Ugo9EeHDesLGvCG3lIhzk_37.637317_-77.627662@1294252573"
    },
    "wof:country":"US",
    "wof:created":1461901321,
    "wof:geomhash":"747a3440ea8456dcf341047fb023f219",
    "wof:hierarchy":[],
    "wof:id":723417855,
    "wof:lastmodified":1461901321,
    "wof:name":"Circeo Properties LLC",
    "wof:parent_id":-1,
    "wof:placetype":"venue",
    "wof:superseded_by":[],
    "wof:supersedes":[],
    "wof:tags":[]
},
  "bbox": [
    -77.627662,
    37.637317,
    -77.627662,
    37.637317
],
  "geometry": {"coordinates":[-77.627662,37.637317],"type":"Point"}
}