{
  "id": 722942503,
  "type": "Feature",
  "properties": {
    "edtf:cessation":"uuuu",
    "edtf:inception":"uuuu",
    "geom:area":0.0,
    "geom:bbox":"-76.281091,36.86604,-76.281091,36.86604",
    "geom:latitude":36.86604,
    "geom:longitude":-76.281091,
    "iso:country":"US",
    "sg:address":"419 E 20th St",
    "sg:city":"Norfolk",
    "sg:classifiers":[
        {
            "category":"Retail",
            "subcategory":"Auto Repair",
            "type":"Services"
        }
    ],
    "sg:owner":"simplegeo",
    "sg:phone":"+1 757 624 9191",
    "sg:postcode":"23504",
    "sg:province":"VA",
    "sg:tags":[
        "truck"
    ],
    "src:geom":"simplegeo",
    "wof:belongsto":[],
    "wof:breaches":[],
    "wof:concordances":{
        "sg:id":"SG_4aqvTbLufUQwgrQIfAPunv_36.866040_-76.281091@1294252573"
    },
    "wof:country":"US",
    "wof:created":1461891682,
    "wof:geomhash":"a68986f100509cdc1a2a462b367fd588",
    "wof:hierarchy":[],
    "wof:id":722942503,
    "wof:lastmodified":1461891682,
    "wof:name":"Automotive Services Virginia",
    "wof:parent_id":-1,
    "wof:placetype":"venue",
    "wof:superseded_by":[],
    "wof:supersedes":[],
    "wof:tags":[
        "truck"
    ]
},
  "bbox": [
    -76.281091,
    36.86604,
    -76.281091,
    36.86604
],
  "geometry": {"coordinates":[-76.281091,36.86604],"type":"Point"}
}