{
  "id": 722753735,
  "type": "Feature",
  "properties": {
    "edtf:cessation":"uuuu",
    "edtf:inception":"uuuu",
    "geom:area":0.0,
    "geom:bbox":"-77.428796,38.831667,-77.428796,38.831667",
    "geom:latitude":38.831667,
    "geom:longitude":-77.428796,
    "iso:country":"US",
    "sg:address":"6022 Sunset Ridge Ct",
    "sg:city":"Centreville",
    "sg:classifiers":[
        {
            "category":"Building & Trades",
            "subcategory":"Cleaning & Sanitation",
            "type":"Services"
        }
    ],
    "sg:owner":"simplegeo",
    "sg:phone":"+1 703 988 0061",
    "sg:postcode":"20121",
    "sg:province":"VA",
    "sg:tags":[
        "janitor"
    ],
    "src:geom":"simplegeo",
    "wof:belongsto":[],
    "wof:breaches":[],
    "wof:concordances":{
        "sg:id":"SG_2DktzoC4VfOpO1sG1TDSur_38.831667_-77.428796@1294252573"
    },
    "wof:country":"US",
    "wof:created":1461888010,
    "wof:geomhash":"701649d643f22be1bbb847375a121210",
    "wof:hierarchy":[],
    "wof:id":722753735,
    "wof:lastmodified":1461888010,
    "wof:name":"Mary's Excellent Cleaning Svc",
    "wof:parent_id":-1,
    "wof:placetype":"venue",
    "wof:superseded_by":[],
    "wof:supersedes":[],
    "wof:tags":[
        "janitor"
    ]
},
  "bbox": [
    -77.428796,
    38.831667,
    -77.428796,
    38.831667
],
  "geometry": {"coordinates":[-77.42879600000001,38.831667],"type":"Point"}
}