{
  "id": 723171575,
  "type": "Feature",
  "properties": {
    "edtf:cessation":"uuuu",
    "edtf:inception":"uuuu",
    "geom:area":0.0,
    "geom:bbox":"-77.503619,38.252862,-77.503619,38.252862",
    "geom:latitude":38.252862,
    "geom:longitude":-77.503619,
    "iso:country":"US",
    "sg:address":"4755 Ewell Rd",
    "sg:city":"Fredericksburg",
    "sg:classifiers":[
        {
            "category":"Retail",
            "subcategory":"Auto Repair",
            "type":"Services"
        }
    ],
    "sg:owner":"simplegeo",
    "sg:phone":"+1 540 295 4432",
    "sg:postcode":"22408",
    "sg:province":"VA",
    "sg:tags":[
        "automotive"
    ],
    "src:geom":"simplegeo",
    "wof:belongsto":[],
    "wof:breaches":[],
    "wof:concordances":{
        "sg:id":"SG_2060xwf2JXEsSSnp6RU7YC_38.252862_-77.503619@1294252573"
    },
    "wof:country":"US",
    "wof:created":1461896506,
    "wof:geomhash":"0757303af017e7b8d9b97a11ec43f53b",
    "wof:hierarchy":[],
    "wof:id":723171575,
    "wof:lastmodified":1461896506,
    "wof:name":"JKJ Transport and Auto",
    "wof:parent_id":-1,
    "wof:placetype":"venue",
    "wof:superseded_by":[],
    "wof:supersedes":[],
    "wof:tags":[
        "automotive"
    ]
},
  "bbox": [
    -77.503619,
    38.252862,
    -77.503619,
    38.252862
],
  "geometry": {"coordinates":[-77.503619,38.252862],"type":"Point"}
}