{
  "id": 723101385,
  "type": "Feature",
  "properties": {
    "edtf:cessation":"uuuu",
    "edtf:inception":"uuuu",
    "geom:area":0.0,
    "geom:bbox":"-79.24019,37.442657,-79.24019,37.442657",
    "geom:latitude":37.442657,
    "geom:longitude":-79.24019,
    "iso:country":"US",
    "sg:address":"5153 Boonsboro Rd",
    "sg:city":"Lynchburg",
    "sg:classifiers":[
        {
            "category":"Building & Trades",
            "subcategory":"Construction",
            "type":"Services"
        }
    ],
    "sg:owner":"simplegeo",
    "sg:phone":"+1 434 384 9330",
    "sg:postcode":"24503",
    "sg:province":"VA",
    "sg:tags":[
        "siding",
        "contractor"
    ],
    "src:geom":"simplegeo",
    "wof:belongsto":[],
    "wof:breaches":[],
    "wof:concordances":{
        "sg:id":"SG_30iO1bKi4n4i8KZ9T96UX9_37.442657_-79.240190@1294252573"
    },
    "wof:country":"US",
    "wof:created":1461895151,
    "wof:geomhash":"4ea04d9471add340e18aa51485b37a00",
    "wof:hierarchy":[],
    "wof:id":723101385,
    "wof:lastmodified":1461895151,
    "wof:name":"Boonsboro Siding Co",
    "wof:parent_id":-1,
    "wof:placetype":"venue",
    "wof:superseded_by":[],
    "wof:supersedes":[],
    "wof:tags":[
        "siding",
        "contractor"
    ]
},
  "bbox": [
    -79.24019,
    37.442657,
    -79.24019,
    37.442657
],
  "geometry": {"coordinates":[-79.24019,37.442657],"type":"Point"}
}