{
  "id": 722727805,
  "type": "Feature",
  "properties": {
    "edtf:cessation":"uuuu",
    "edtf:inception":"uuuu",
    "geom:area":0.0,
    "geom:bbox":"-78.65401,38.632946,-78.65401,38.632946",
    "geom:latitude":38.632946,
    "geom:longitude":-78.65401,
    "iso:country":"US",
    "sg:address":"361 Smith Creek Rd",
    "sg:city":"New Market",
    "sg:classifiers":[
        {
            "category":"Wholesale",
            "subcategory":"Meat",
            "type":"Manufacturing & Wholesale Goods"
        }
    ],
    "sg:owner":"simplegeo",
    "sg:phone":"+1 540 740 3118",
    "sg:postcode":"22844",
    "sg:province":"VA",
    "sg:tags":[
        "poultry",
        "plant",
        "processing"
    ],
    "src:geom":"simplegeo",
    "wof:belongsto":[],
    "wof:breaches":[],
    "wof:concordances":{
        "sg:id":"SG_1XnIIoRyfYbdmNwtOhvHTa_38.632946_-78.654010@1294252573"
    },
    "wof:country":"US",
    "wof:created":1461887487,
    "wof:geomhash":"ed10cec375620057750c64e8c94666a6",
    "wof:hierarchy":[],
    "wof:id":722727805,
    "wof:lastmodified":1461887487,
    "wof:name":"Tyson Foods Inc",
    "wof:parent_id":-1,
    "wof:placetype":"venue",
    "wof:superseded_by":[],
    "wof:supersedes":[],
    "wof:tags":[
        "poultry",
        "plant",
        "processing"
    ]
},
  "bbox": [
    -78.65401,
    38.632946,
    -78.65401,
    38.632946
],
  "geometry": {"coordinates":[-78.65401,38.632946],"type":"Point"}
}