{
  "id": 723394807,
  "type": "Feature",
  "properties": {
    "edtf:cessation":"uuuu",
    "edtf:inception":"uuuu",
    "geom:area":0.0,
    "geom:bbox":"-77.676321,37.546366,-77.676321,37.546366",
    "geom:latitude":37.546366,
    "geom:longitude":-77.676321,
    "iso:country":"US",
    "sg:address":"3410 Winterfield Rd",
    "sg:city":"Midlothian",
    "sg:classifiers":[
        {
            "category":"Building & Trades",
            "subcategory":"Construction",
            "type":"Services"
        }
    ],
    "sg:owner":"simplegeo",
    "sg:phone":"+1 804 375 9628",
    "sg:postcode":"23113",
    "sg:province":"VA",
    "sg:tags":[
        "masonry"
    ],
    "src:geom":"simplegeo",
    "wof:belongsto":[],
    "wof:breaches":[],
    "wof:concordances":{
        "sg:id":"SG_3DJGDkd1bbw0HkfYCUzNkP_37.546366_-77.676321@1294252573"
    },
    "wof:country":"US",
    "wof:created":1461900870,
    "wof:geomhash":"4e94d8437b13a220c49a8043746c8231",
    "wof:hierarchy":[],
    "wof:id":723394807,
    "wof:lastmodified":1461900870,
    "wof:name":"Matney Construction Company",
    "wof:parent_id":-1,
    "wof:placetype":"venue",
    "wof:superseded_by":[],
    "wof:supersedes":[],
    "wof:tags":[
        "masonry"
    ]
},
  "bbox": [
    -77.676321,
    37.546366,
    -77.676321,
    37.546366
],
  "geometry": {"coordinates":[-77.676321,37.546366],"type":"Point"}
}