{
  "id": 723286221,
  "type": "Feature",
  "properties": {
    "edtf:cessation":"uuuu",
    "edtf:inception":"uuuu",
    "geom:area":0.0,
    "geom:bbox":"-77.565238,37.492408,-77.565238,37.492408",
    "geom:latitude":37.492408,
    "geom:longitude":-77.565238,
    "iso:country":"US",
    "sg:address":"241 Arboretum Pl",
    "sg:city":"Richmond",
    "sg:classifiers":[
        {
            "category":"Travel",
            "subcategory":"Hotels & Motels",
            "type":"Entertainment"
        }
    ],
    "sg:owner":"simplegeo",
    "sg:phone":"+1 804 272 1800",
    "sg:postcode":"23236",
    "sg:province":"VA",
    "sg:website":"www.extendedstayhotels.com",
    "src:geom":"simplegeo",
    "wof:belongsto":[],
    "wof:breaches":[],
    "wof:concordances":{
        "sg:id":"SG_1QXNwCn4tgSNeRQJvezGbo_37.492408_-77.565238@1294252573"
    },
    "wof:country":"US",
    "wof:created":1461898796,
    "wof:geomhash":"6272dc3dd5e38d6e59ec7bbb71e242e2",
    "wof:hierarchy":[],
    "wof:id":723286221,
    "wof:lastmodified":1461898796,
    "wof:name":"Homestead Studios Suites Hotel",
    "wof:parent_id":-1,
    "wof:placetype":"venue",
    "wof:superseded_by":[],
    "wof:supersedes":[],
    "wof:tags":[]
},
  "bbox": [
    -77.565238,
    37.492408,
    -77.565238,
    37.492408
],
  "geometry": {"coordinates":[-77.56523799999999,37.492408],"type":"Point"}
}