{
  "id": 739452903,
  "type": "Feature",
  "properties": {
    "edtf:cessation":"uuuu",
    "edtf:inception":"uuuu",
    "geom:area":0.0,
    "geom:bbox":"-77.135958,38.851178,-77.135958,38.851178",
    "geom:latitude":38.851178,
    "geom:longitude":-77.135958,
    "iso:country":"US",
    "sg:address":"3424 Washington Dr",
    "sg:city":"Falls Church",
    "sg:classifiers":[
        {
            "category":"Professional",
            "subcategory":"Lawyer & Legal Services",
            "type":"Services"
        }
    ],
    "sg:owner":"simplegeo",
    "sg:phone":"+1 703 575 9759",
    "sg:postcode":"22041",
    "sg:province":"VA",
    "src:geom":"simplegeo",
    "wof:belongsto":[],
    "wof:breaches":[],
    "wof:concordances":{
        "sg:id":"SG_3SXaCqVuiuJ4ANiaPZFjR4_38.851178_-77.135958@1294252573"
    },
    "wof:country":"US",
    "wof:created":1461907593,
    "wof:geomhash":"a757af1f885c62d38f396d9fc2f5265b",
    "wof:hierarchy":[],
    "wof:id":739452903,
    "wof:lastmodified":1461907593,
    "wof:name":"Carlos Vilomar",
    "wof:parent_id":-1,
    "wof:placetype":"venue",
    "wof:superseded_by":[],
    "wof:supersedes":[],
    "wof:tags":[]
},
  "bbox": [
    -77.135958,
    38.851178,
    -77.135958,
    38.851178
],
  "geometry": {"coordinates":[-77.135958,38.851178],"type":"Point"}
}