{
  "id": 722593757,
  "type": "Feature",
  "properties": {
    "edtf:cessation":"uuuu",
    "edtf:inception":"uuuu",
    "geom:area":0.0,
    "geom:bbox":"-78.868803,38.448041,-78.868803,38.448041",
    "geom:latitude":38.448041,
    "geom:longitude":-78.868803,
    "iso:country":"US",
    "sg:address":"16 Newman Ave",
    "sg:city":"Harrisonburg",
    "sg:classifiers":[
        {
            "category":"Shopping",
            "subcategory":"Jewelry",
            "type":"Retail Goods"
        }
    ],
    "sg:owner":"simplegeo",
    "sg:phone":"+1 540 801 8285",
    "sg:postcode":"22801",
    "sg:province":"VA",
    "src:geom":"simplegeo",
    "wof:belongsto":[],
    "wof:breaches":[],
    "wof:concordances":{
        "sg:id":"SG_51EId8uLUwPn2AJ7TanhFT_38.448041_-78.868803@1294252573"
    },
    "wof:country":"US",
    "wof:created":1461884861,
    "wof:geomhash":"5f2d871b9924ce9eca58d2e536634568",
    "wof:hierarchy":[],
    "wof:id":722593757,
    "wof:lastmodified":1461884861,
    "wof:name":"Silver Gems",
    "wof:parent_id":-1,
    "wof:placetype":"venue",
    "wof:superseded_by":[],
    "wof:supersedes":[],
    "wof:tags":[]
},
  "bbox": [
    -78.868803,
    38.448041,
    -78.868803,
    38.448041
],
  "geometry": {"coordinates":[-78.868803,38.448041],"type":"Point"}
}