{
  "id": 723153729,
  "type": "Feature",
  "properties": {
    "edtf:cessation":"uuuu",
    "edtf:inception":"uuuu",
    "geom:area":0.0,
    "geom:bbox":"-79.952308,37.059639,-79.952308,37.059639",
    "geom:latitude":37.059639,
    "geom:longitude":-79.952308,
    "iso:country":"US",
    "sg:address":"240 Verndale Ln",
    "sg:city":"Boones Mill",
    "sg:classifiers":[
        {
            "category":"Farming",
            "subcategory":"Dairy Farm",
            "type":"Manufacturing & Wholesale Goods"
        }
    ],
    "sg:owner":"simplegeo",
    "sg:phone":"+1 540 483 2723",
    "sg:postcode":"24065",
    "sg:province":"VA",
    "src:geom":"simplegeo",
    "wof:belongsto":[],
    "wof:breaches":[],
    "wof:concordances":{
        "sg:id":"SG_3n4XUAV7AO1luUL8RWGYuC_37.059639_-79.952308@1294252573"
    },
    "wof:country":"US",
    "wof:created":1461896168,
    "wof:geomhash":"d515448ebaf84737665251e00020cc5d",
    "wof:hierarchy":[],
    "wof:id":723153729,
    "wof:lastmodified":1461896168,
    "wof:name":"Verndale Dairy Inc",
    "wof:parent_id":-1,
    "wof:placetype":"venue",
    "wof:superseded_by":[],
    "wof:supersedes":[],
    "wof:tags":[]
},
  "bbox": [
    -79.952308,
    37.059639,
    -79.952308,
    37.059639
],
  "geometry": {"coordinates":[-79.952308,37.059639],"type":"Point"}
}