{
  "id": 722688697,
  "type": "Feature",
  "properties": {
    "edtf:cessation":"uuuu",
    "edtf:inception":"uuuu",
    "geom:area":0.0,
    "geom:bbox":"-77.329729,37.544668,-77.329729,37.544668",
    "geom:latitude":37.544668,
    "geom:longitude":-77.329729,
    "iso:country":"US",
    "sg:address":"1 S Holly Ave",
    "sg:city":"Highland Springs",
    "sg:classifiers":[
        {
            "category":"Organizations",
            "subcategory":"Religious Organization",
            "type":"Services"
        }
    ],
    "sg:owner":"simplegeo",
    "sg:phone":"+1 804 737 2221",
    "sg:postcode":"23075",
    "sg:province":"VA",
    "sg:tags":[
        "church"
    ],
    "src:geom":"simplegeo",
    "wof:belongsto":[],
    "wof:breaches":[],
    "wof:concordances":{
        "sg:id":"SG_24H96W9JIGPm5xr252gfDa_37.544668_-77.329729@1294252573"
    },
    "wof:country":"US",
    "wof:created":1461886760,
    "wof:geomhash":"5bfccf7d19758b9411070af10fa3c1f4",
    "wof:hierarchy":[],
    "wof:id":722688697,
    "wof:lastmodified":1461886760,
    "wof:name":"Living Hope Evangelical Church",
    "wof:parent_id":-1,
    "wof:placetype":"venue",
    "wof:superseded_by":[],
    "wof:supersedes":[],
    "wof:tags":[
        "church"
    ]
},
  "bbox": [
    -77.329729,
    37.544668,
    -77.329729,
    37.544668
],
  "geometry": {"coordinates":[-77.329729,37.544668],"type":"Point"}
}