{
  "id": 722655583,
  "type": "Feature",
  "properties": {
    "edtf:cessation":"uuuu",
    "edtf:inception":"uuuu",
    "geom:area":0.0,
    "geom:bbox":"-77.432986,38.673081,-77.432986,38.673081",
    "geom:latitude":38.673081,
    "geom:longitude":-77.432986,
    "iso:country":"US",
    "sg:address":"13080 Dovetree Ct",
    "sg:city":"Manassas",
    "sg:classifiers":[
        {
            "category":"Building & Trades",
            "subcategory":"Construction",
            "type":"Services"
        }
    ],
    "sg:owner":"simplegeo",
    "sg:phone":"+1 703 847 0901",
    "sg:postcode":"20112",
    "sg:province":"VA",
    "sg:tags":[
        "commercial",
        "remodeling",
        "contractor"
    ],
    "src:geom":"simplegeo",
    "wof:belongsto":[],
    "wof:breaches":[],
    "wof:concordances":{
        "sg:id":"SG_16mKzCRXtAERl02HYG808F_38.673081_-77.432986@1294252573"
    },
    "wof:country":"US",
    "wof:created":1461886125,
    "wof:geomhash":"75fa876210419e3b58bf87ce3f2dbc1b",
    "wof:hierarchy":[],
    "wof:id":722655583,
    "wof:lastmodified":1461886125,
    "wof:name":"Matrix Construction Company",
    "wof:parent_id":-1,
    "wof:placetype":"venue",
    "wof:superseded_by":[],
    "wof:supersedes":[],
    "wof:tags":[
        "commercial",
        "remodeling",
        "contractor"
    ]
},
  "bbox": [
    -77.432986,
    38.673081,
    -77.432986,
    38.673081
],
  "geometry": {"coordinates":[-77.432986,38.673081],"type":"Point"}
}