{
  "id": 739479599,
  "type": "Feature",
  "properties": {
    "edtf:cessation":"uuuu",
    "edtf:inception":"uuuu",
    "geom:area":0.0,
    "geom:bbox":"-80.748796,37.333463,-80.748796,37.333463",
    "geom:latitude":37.333463,
    "geom:longitude":-80.748796,
    "iso:country":"US",
    "sg:address":"763 N Main St",
    "sg:city":"Pearisburg",
    "sg:classifiers":[
        {
            "category":"Arts & Performance",
            "subcategory":"Theater",
            "type":"Entertainment"
        }
    ],
    "sg:owner":"simplegeo",
    "sg:phone":"+1 540 921 4274",
    "sg:postcode":"24134",
    "sg:province":"VA",
    "sg:tags":[
        "group"
    ],
    "src:geom":"simplegeo",
    "wof:belongsto":[],
    "wof:breaches":[],
    "wof:concordances":{
        "sg:id":"SG_5rcMr0bARhPfJPMrsd6HOv_37.333463_-80.748796@1294252573"
    },
    "wof:country":"US",
    "wof:created":1461908065,
    "wof:geomhash":"bc549c876e1a8a1c02c52ded019b50fd",
    "wof:hierarchy":[],
    "wof:id":739479599,
    "wof:lastmodified":1461908065,
    "wof:name":"A & A Amusement",
    "wof:parent_id":-1,
    "wof:placetype":"venue",
    "wof:superseded_by":[],
    "wof:supersedes":[],
    "wof:tags":[
        "group"
    ]
},
  "bbox": [
    -80.748796,
    37.333463,
    -80.748796,
    37.333463
],
  "geometry": {"coordinates":[-80.748796,37.333463],"type":"Point"}
}