{
  "id": 722653433,
  "type": "Feature",
  "properties": {
    "edtf:cessation":"uuuu",
    "edtf:inception":"uuuu",
    "geom:area":0.0,
    "geom:bbox":"-77.550732,37.600812,-77.550732,37.600812",
    "geom:latitude":37.600812,
    "geom:longitude":-77.550732,
    "iso:country":"US",
    "sg:address":"8100 Three Chopt Rd",
    "sg:city":"Richmond",
    "sg:classifiers":[
        {
            "category":"Health Services",
            "subcategory":"Clinic",
            "type":"Services"
        },
        {
            "category":"Professional",
            "subcategory":"Employment Agencies",
            "type":"Services"
        }
    ],
    "sg:owner":"simplegeo",
    "sg:phone":"+1 804 673 6730",
    "sg:postcode":"23229",
    "sg:province":"VA",
    "sg:tags":[
        "home"
    ],
    "src:geom":"simplegeo",
    "wof:belongsto":[],
    "wof:breaches":[],
    "wof:concordances":{
        "sg:id":"SG_4c8C762V6GZQ8MqfPLOCpC_37.600812_-77.550732@1294252573"
    },
    "wof:country":"US",
    "wof:created":1461886075,
    "wof:geomhash":"a6520efc63843097a3c21313f0346a34",
    "wof:hierarchy":[],
    "wof:id":722653433,
    "wof:lastmodified":1461886075,
    "wof:name":"Options For Senior Amer Corp",
    "wof:parent_id":-1,
    "wof:placetype":"venue",
    "wof:superseded_by":[],
    "wof:supersedes":[],
    "wof:tags":[
        "home"
    ]
},
  "bbox": [
    -77.550732,
    37.600812,
    -77.550732,
    37.600812
],
  "geometry": {"coordinates":[-77.550732,37.600812],"type":"Point"}
}