{
  "id": 723034789,
  "type": "Feature",
  "properties": {
    "edtf:cessation":"uuuu",
    "edtf:inception":"uuuu",
    "geom:area":0.0,
    "geom:bbox":"-77.448371,38.867973,-77.448371,38.867973",
    "geom:latitude":38.867973,
    "geom:longitude":-77.448371,
    "iso:country":"US",
    "sg:address":"5095 Westfields Blvd",
    "sg:city":"Centreville",
    "sg:classifiers":[
        {
            "category":"Retail",
            "subcategory":"Veterinary Services",
            "type":"Services"
        }
    ],
    "sg:owner":"simplegeo",
    "sg:phone":"+1 703 378 3028",
    "sg:postcode":"20120",
    "sg:province":"VA",
    "src:geom":"simplegeo",
    "wof:belongsto":[],
    "wof:breaches":[],
    "wof:concordances":{
        "sg:id":"SG_355pTrCvkzFXcvU7iXDujD_38.867973_-77.448371@1294252573"
    },
    "wof:country":"US",
    "wof:created":1461893703,
    "wof:geomhash":"c1cd22e20b1cbd729786ce9fda1044fe",
    "wof:hierarchy":[],
    "wof:id":723034789,
    "wof:lastmodified":1461893703,
    "wof:name":"Calderwood Colleen",
    "wof:parent_id":-1,
    "wof:placetype":"venue",
    "wof:superseded_by":[],
    "wof:supersedes":[],
    "wof:tags":[]
},
  "bbox": [
    -77.448371,
    38.867973,
    -77.448371,
    38.867973
],
  "geometry": {"coordinates":[-77.44837099999999,38.867973],"type":"Point"}
}