{
  "id": 739324283,
  "type": "Feature",
  "properties": {
    "edtf:cessation":"uuuu",
    "edtf:inception":"uuuu",
    "geom:area":0.0,
    "geom:bbox":"-78.601208,36.99292,-78.601208,36.99292",
    "geom:latitude":36.99292,
    "geom:longitude":-78.601208,
    "iso:country":"US",
    "sg:address":"4871 Drakes Main St",
    "sg:city":"Drakes Branch",
    "sg:classifiers":[
        {
            "category":"Government",
            "subcategory":"Post Office",
            "type":"Public Place"
        }
    ],
    "sg:owner":"simplegeo",
    "sg:phone":"+1 434 568 4221",
    "sg:postcode":"23937",
    "sg:province":"VA",
    "src:geom":"simplegeo",
    "wof:belongsto":[],
    "wof:breaches":[],
    "wof:concordances":{
        "sg:id":"SG_3oIFCEn7qvPIrhZ5G4CpCV_36.992920_-78.601208@1294252573"
    },
    "wof:country":"US",
    "wof:created":1461905065,
    "wof:geomhash":"7b7f7edcbfd247ecc2ce6ae310eeaba2",
    "wof:hierarchy":[],
    "wof:id":739324283,
    "wof:lastmodified":1461905065,
    "wof:name":"US Post Office",
    "wof:parent_id":-1,
    "wof:placetype":"venue",
    "wof:superseded_by":[],
    "wof:supersedes":[],
    "wof:tags":[]
},
  "bbox": [
    -78.601208,
    36.99292,
    -78.601208,
    36.99292
],
  "geometry": {"coordinates":[-78.601208,36.99292],"type":"Point"}
}