{
  "id": 723330295,
  "type": "Feature",
  "properties": {
    "edtf:cessation":"uuuu",
    "edtf:inception":"uuuu",
    "geom:area":0.0,
    "geom:bbox":"-78.178691,39.160869,-78.178691,39.160869",
    "geom:latitude":39.160869,
    "geom:longitude":-78.178691,
    "iso:country":"US",
    "sg:address":"2220 Wilson Blvd",
    "sg:city":"Winchester",
    "sg:classifiers":[
        {
            "category":"Professional",
            "subcategory":"Accounting & Tax Preparation",
            "type":"Services"
        }
    ],
    "sg:owner":"simplegeo",
    "sg:phone":"+1 540 667 4188",
    "sg:postcode":"22601",
    "sg:province":"VA",
    "sg:tags":[
        "bookkeeping",
        "general"
    ],
    "src:geom":"simplegeo",
    "wof:belongsto":[],
    "wof:breaches":[],
    "wof:concordances":{
        "sg:id":"SG_0ZwRd8S23fumfccIhztGcA_39.160869_-78.178691@1294252573"
    },
    "wof:country":"US",
    "wof:created":1461899631,
    "wof:geomhash":"79684c4bcc06a3e42f0c1c72264692aa",
    "wof:hierarchy":[],
    "wof:id":723330295,
    "wof:lastmodified":1461899631,
    "wof:name":"G & C Business Svc Corp",
    "wof:parent_id":-1,
    "wof:placetype":"venue",
    "wof:superseded_by":[],
    "wof:supersedes":[],
    "wof:tags":[
        "bookkeeping",
        "general"
    ]
},
  "bbox": [
    -78.178691,
    39.160869,
    -78.178691,
    39.160869
],
  "geometry": {"coordinates":[-78.178691,39.160869],"type":"Point"}
}