{
  "id": 739626785,
  "type": "Feature",
  "properties": {
    "edtf:cessation":"uuuu",
    "edtf:inception":"uuuu",
    "geom:area":0.0,
    "geom:bbox":"-77.124496,38.852402,-77.124496,38.852402",
    "geom:latitude":38.852402,
    "geom:longitude":-77.124496,
    "iso:country":"US",
    "sg:address":"5651 Columbia Pike",
    "sg:city":"Falls Church",
    "sg:classifiers":[
        {
            "category":"Health Services",
            "subcategory":"Doctor",
            "type":"Services"
        }
    ],
    "sg:owner":"simplegeo",
    "sg:phone":"+1 703 933 0740",
    "sg:postcode":"22041",
    "sg:province":"VA",
    "src:geom":"simplegeo",
    "wof:belongsto":[],
    "wof:breaches":[],
    "wof:concordances":{
        "sg:id":"SG_3uI0DgzMy7lipRjh45T0p1_38.852402_-77.124496@1303262538"
    },
    "wof:country":"US",
    "wof:created":1461910970,
    "wof:geomhash":"d639e01f70c8a14d1ea53357e93dde1b",
    "wof:hierarchy":[],
    "wof:id":739626785,
    "wof:lastmodified":1461910970,
    "wof:name":"Rentia Sameera Nasser MD",
    "wof:parent_id":-1,
    "wof:placetype":"venue",
    "wof:superseded_by":[],
    "wof:supersedes":[],
    "wof:tags":[]
},
  "bbox": [
    -77.124496,
    38.852402,
    -77.124496,
    38.852402
],
  "geometry": {"coordinates":[-77.12449599999999,38.852402],"type":"Point"}
}