{
  "id": 739640239,
  "type": "Feature",
  "properties": {
    "edtf:cessation":"uuuu",
    "edtf:inception":"uuuu",
    "geom:area":0.0,
    "geom:bbox":"-77.198082,38.740929,-77.198082,38.740929",
    "geom:latitude":38.740929,
    "geom:longitude":-77.198082,
    "iso:country":"US",
    "sg:address":"7400 Fullerton Rd",
    "sg:city":"Springfield",
    "sg:classifiers":[
        {
            "category":"Government",
            "subcategory":"Police Station",
            "type":"Public Place"
        }
    ],
    "sg:owner":"simplegeo",
    "sg:phone":"+1 703 440 3055",
    "sg:postcode":"22153",
    "sg:province":"VA",
    "sg:tags":[
        "enforcement",
        "law",
        "agencies-government"
    ],
    "src:geom":"simplegeo",
    "wof:belongsto":[],
    "wof:breaches":[],
    "wof:concordances":{
        "sg:id":"SG_1yWt6uOIVuxaeadnlv8NNy_38.740929_-77.198082@1303262539"
    },
    "wof:country":"US",
    "wof:created":1461911263,
    "wof:geomhash":"21a39b588d9f65584742b8d28cc77877",
    "wof:hierarchy":[],
    "wof:id":739640239,
    "wof:lastmodified":1461911263,
    "wof:name":"Bureau Of Customs And Border Protection",
    "wof:parent_id":-1,
    "wof:placetype":"venue",
    "wof:superseded_by":[],
    "wof:supersedes":[],
    "wof:tags":[
        "enforcement",
        "law",
        "agencies-government"
    ]
},
  "bbox": [
    -77.198082,
    38.740929,
    -77.198082,
    38.740929
],
  "geometry": {"coordinates":[-77.198082,38.740929],"type":"Point"}
}