{
  "id": 722808641,
  "type": "Feature",
  "properties": {
    "edtf:cessation":"uuuu",
    "edtf:inception":"uuuu",
    "geom:area":0.0,
    "geom:bbox":"-77.06549,36.723164,-77.06549,36.723164",
    "geom:latitude":36.723164,
    "geom:longitude":-77.06549,
    "iso:country":"US",
    "sg:address":"22015 Aurora St",
    "sg:city":"Courtland",
    "sg:classifiers":[
        {
            "category":"Education",
            "subcategory":"School",
            "type":"Public Place"
        }
    ],
    "sg:owner":"simplegeo",
    "sg:phone":"+1 757 653 2422",
    "sg:postcode":"23837",
    "sg:province":"VA",
    "src:geom":"simplegeo",
    "wof:belongsto":[],
    "wof:breaches":[],
    "wof:concordances":{
        "sg:id":"SG_4weG2LvTs9cks1roCTS23D_36.723164_-77.065490@1294252573"
    },
    "wof:country":"US",
    "wof:created":1461889041,
    "wof:geomhash":"34927e929c833aa430ffb760927fc8d0",
    "wof:hierarchy":[],
    "wof:id":722808641,
    "wof:lastmodified":1461889041,
    "wof:name":"Courtland Elementary School",
    "wof:parent_id":-1,
    "wof:placetype":"venue",
    "wof:superseded_by":[],
    "wof:supersedes":[],
    "wof:tags":[]
},
  "bbox": [
    -77.06549,
    36.723164,
    -77.06549,
    36.723164
],
  "geometry": {"coordinates":[-77.06549,36.723164],"type":"Point"}
}