{
  "id": 722850775,
  "type": "Feature",
  "properties": {
    "edtf:cessation":"uuuu",
    "edtf:inception":"uuuu",
    "geom:area":0.0,
    "geom:bbox":"-77.428539,38.81107,-77.428539,38.81107",
    "geom:latitude":38.81107,
    "geom:longitude":-77.428539,
    "iso:country":"US",
    "sg:address":"13917 Stonefield Dr",
    "sg:city":"Clifton",
    "sg:classifiers":[
        {
            "category":"Professional",
            "subcategory":"",
            "type":"Services"
        }
    ],
    "sg:owner":"simplegeo",
    "sg:phone":"+1 703 222 2144",
    "sg:postcode":"20124",
    "sg:province":"VA",
    "src:geom":"simplegeo",
    "wof:belongsto":[],
    "wof:breaches":[],
    "wof:concordances":{
        "sg:id":"SG_2xmRK4TWZ55hw32lflDJwX_38.811070_-77.428539@1294252573"
    },
    "wof:country":"US",
    "wof:created":1461889838,
    "wof:geomhash":"e3ae855ef14bfb1623112f02b023d075",
    "wof:hierarchy":[],
    "wof:id":722850775,
    "wof:lastmodified":1461889838,
    "wof:name":"Frederic De Hais",
    "wof:parent_id":-1,
    "wof:placetype":"venue",
    "wof:superseded_by":[],
    "wof:supersedes":[],
    "wof:tags":[]
},
  "bbox": [
    -77.428539,
    38.81107,
    -77.428539,
    38.81107
],
  "geometry": {"coordinates":[-77.428539,38.81107],"type":"Point"}
}