{
  "id": 722803431,
  "type": "Feature",
  "properties": {
    "edtf:cessation":"uuuu",
    "edtf:inception":"uuuu",
    "geom:area":0.0,
    "geom:bbox":"-77.686123,37.409142,-77.686123,37.409142",
    "geom:latitude":37.409142,
    "geom:longitude":-77.686123,
    "iso:country":"US",
    "sg:address":"6522 Woodlake Village Ct",
    "sg:city":"Midlothian",
    "sg:classifiers":[
        {
            "category":"Building & Trades",
            "subcategory":"Construction",
            "type":"Services"
        }
    ],
    "sg:owner":"simplegeo",
    "sg:phone":"+1 804 639 0778",
    "sg:postcode":"23112",
    "sg:province":"VA",
    "sg:tags":[
        "house"
    ],
    "src:geom":"simplegeo",
    "wof:belongsto":[],
    "wof:breaches":[],
    "wof:concordances":{
        "sg:id":"SG_3KXEtmm4f1Yahrm2Zrw4x1_37.409142_-77.686123@1294252573"
    },
    "wof:country":"US",
    "wof:created":1461888948,
    "wof:geomhash":"4ce99a76dfd3ea3d7795a5b27813897b",
    "wof:hierarchy":[],
    "wof:id":722803431,
    "wof:lastmodified":1461888948,
    "wof:name":"McClellands Home Improvements",
    "wof:parent_id":-1,
    "wof:placetype":"venue",
    "wof:superseded_by":[],
    "wof:supersedes":[],
    "wof:tags":[
        "house"
    ]
},
  "bbox": [
    -77.686123,
    37.409142,
    -77.686123,
    37.409142
],
  "geometry": {"coordinates":[-77.68612299999999,37.409142],"type":"Point"}
}