{
  "id": 739494413,
  "type": "Feature",
  "properties": {
    "edtf:cessation":"uuuu",
    "edtf:inception":"uuuu",
    "geom:area":0.0,
    "geom:bbox":"-77.526079,37.777707,-77.526079,37.777707",
    "geom:latitude":37.777707,
    "geom:longitude":-77.526079,
    "iso:country":"US",
    "sg:address":"13485 Blanton Rd",
    "sg:city":"Ashland",
    "sg:classifiers":[
        {
            "category":"Organizations",
            "subcategory":"Membership Organization",
            "type":"Services"
        }
    ],
    "sg:owner":"simplegeo",
    "sg:phone":"+1 804 798 5318",
    "sg:postcode":"23005",
    "sg:province":"VA",
    "src:geom":"simplegeo",
    "wof:belongsto":[],
    "wof:breaches":[],
    "wof:concordances":{
        "sg:id":"SG_6kWu6NivfyoHCo1haZMJ4u_37.777707_-77.526079@1294252573"
    },
    "wof:country":"US",
    "wof:created":1461908333,
    "wof:geomhash":"c313a020f0eb1227166aaa2799576f04",
    "wof:hierarchy":[],
    "wof:id":739494413,
    "wof:lastmodified":1461908333,
    "wof:name":"Gfwc Ashcake Womans Club",
    "wof:parent_id":-1,
    "wof:placetype":"venue",
    "wof:superseded_by":[],
    "wof:supersedes":[],
    "wof:tags":[]
},
  "bbox": [
    -77.526079,
    37.777707,
    -77.526079,
    37.777707
],
  "geometry": {"coordinates":[-77.526079,37.777707],"type":"Point"}
}