{
  "id": 723464067,
  "type": "Feature",
  "properties": {
    "edtf:cessation":"uuuu",
    "edtf:inception":"uuuu",
    "geom:area":0.0,
    "geom:bbox":"-77.839349,38.271495,-77.839349,38.271495",
    "geom:latitude":38.271495,
    "geom:longitude":-77.839349,
    "iso:country":"US",
    "sg:address":"9717 Meadows Rd",
    "sg:city":"Locust Grove",
    "sg:classifiers":[
        {
            "category":"Building & Trades",
            "subcategory":"Plumbing",
            "type":"Services"
        }
    ],
    "sg:owner":"simplegeo",
    "sg:phone":"+1 540 854 5642",
    "sg:postcode":"22508",
    "sg:province":"VA",
    "sg:tags":[
        "contractor"
    ],
    "src:geom":"simplegeo",
    "wof:belongsto":[],
    "wof:breaches":[],
    "wof:concordances":{
        "sg:id":"SG_0No1onRU1NOvuW8cRpnaNJ_38.271495_-77.839349@1294252573"
    },
    "wof:country":"US",
    "wof:created":1461902209,
    "wof:geomhash":"328025e3da76e51d80003bd74234c5be",
    "wof:hierarchy":[],
    "wof:id":723464067,
    "wof:lastmodified":1461902209,
    "wof:name":"Turner AC Htg & Rfrgn",
    "wof:parent_id":-1,
    "wof:placetype":"venue",
    "wof:superseded_by":[],
    "wof:supersedes":[],
    "wof:tags":[
        "contractor"
    ]
},
  "bbox": [
    -77.839349,
    38.271495,
    -77.839349,
    38.271495
],
  "geometry": {"coordinates":[-77.839349,38.271495],"type":"Point"}
}