{
  "id": 739401225,
  "type": "Feature",
  "properties": {
    "edtf:cessation":"uuuu",
    "edtf:inception":"uuuu",
    "geom:area":0.0,
    "geom:bbox":"-77.483145,38.79318,-77.483145,38.79318",
    "geom:latitude":38.79318,
    "geom:longitude":-77.483145,
    "iso:country":"US",
    "sg:address":"9514 Covington Pl",
    "sg:city":"Manassas",
    "sg:classifiers":[
        {
            "category":"Professional",
            "subcategory":"",
            "type":"Services"
        }
    ],
    "sg:owner":"simplegeo",
    "sg:phone":"+1 703 346 1170",
    "sg:postcode":"20109",
    "sg:province":"VA",
    "src:geom":"simplegeo",
    "wof:belongsto":[],
    "wof:breaches":[],
    "wof:concordances":{
        "sg:id":"SG_4CoLFVmBGVOD7yPAGdU3TA_38.793180_-77.483145@1294252573"
    },
    "wof:country":"US",
    "wof:created":1461906602,
    "wof:geomhash":"28cb73e854efe44fd4cd8df0c040fae5",
    "wof:hierarchy":[],
    "wof:id":739401225,
    "wof:lastmodified":1461906602,
    "wof:name":"Lopez Gregorio Diaz",
    "wof:parent_id":-1,
    "wof:placetype":"venue",
    "wof:superseded_by":[],
    "wof:supersedes":[],
    "wof:tags":[]
},
  "bbox": [
    -77.483145,
    38.79318,
    -77.483145,
    38.79318
],
  "geometry": {"coordinates":[-77.48314499999999,38.79318],"type":"Point"}
}