{
  "id": 722682821,
  "type": "Feature",
  "properties": {
    "edtf:cessation":"uuuu",
    "edtf:inception":"uuuu",
    "geom:area":0.0,
    "geom:bbox":"-80.433435,37.150929,-80.433435,37.150929",
    "geom:latitude":37.150929,
    "geom:longitude":-80.433435,
    "iso:country":"US",
    "sg:address":"1105 Cambria St NW",
    "sg:city":"Christiansburg",
    "sg:classifiers":[
        {
            "category":"Organizations",
            "subcategory":"Membership Organization",
            "type":"Services"
        }
    ],
    "sg:owner":"simplegeo",
    "sg:phone":"+1 540 382 3218",
    "sg:postcode":"24073",
    "sg:province":"VA",
    "src:geom":"simplegeo",
    "wof:belongsto":[
        85688747,
        102191575,
        85633793,
        101728703,
        102087271,
        85854021
    ],
    "wof:breaches":[],
    "wof:concordances":{
        "sg:id":"SG_6GLlrDOdRKq7jclsmTsqZB_37.150929_-80.433435@1294252573"
    },
    "wof:country":"US",
    "wof:created":1461886639,
    "wof:geomhash":"185d5a2d4d2464046b6fde5cef6cb763",
    "wof:hierarchy":[
        {
            "continent_id":102191575,
            "country_id":85633793,
            "county_id":102087271,
            "locality_id":101728703,
            "neighbourhood_id":85854021,
            "region_id":85688747,
            "venue_id":722682821
        }
    ],
    "wof:id":722682821,
    "wof:lastmodified":1461886639,
    "wof:name":"Aid Assoc For Lutherans",
    "wof:parent_id":85854021,
    "wof:placetype":"venue",
    "wof:superseded_by":[],
    "wof:supersedes":[],
    "wof:tags":[]
},
  "bbox": [
    -80.433435,
    37.150929,
    -80.433435,
    37.150929
],
  "geometry": {"coordinates":[-80.433435,37.150929],"type":"Point"}
}