{
  "id": 723390287,
  "type": "Feature",
  "properties": {
    "edtf:cessation":"uuuu",
    "edtf:inception":"uuuu",
    "geom:area":0.0,
    "geom:bbox":"-77.27671,38.87116,-77.27671,38.87116",
    "geom:latitude":38.87116,
    "geom:longitude":-77.27671,
    "iso:country":"US",
    "sg:address":"9680 Lindenbrook St",
    "sg:city":"Fairfax",
    "sg:classifiers":[
        {
            "category":"Professional",
            "subcategory":"",
            "type":"Services"
        }
    ],
    "sg:owner":"simplegeo",
    "sg:phone":"+1 703 255 2567",
    "sg:postcode":"22031",
    "sg:province":"VA",
    "src:geom":"simplegeo",
    "wof:belongsto":[],
    "wof:breaches":[],
    "wof:concordances":{
        "sg:id":"SG_5x5cJPjDglBs3xtGaimA35_38.871160_-77.276710@1294252573"
    },
    "wof:country":"US",
    "wof:created":1461900773,
    "wof:geomhash":"cfe3731022becd67070cbd3f03189dcd",
    "wof:hierarchy":[],
    "wof:id":723390287,
    "wof:lastmodified":1461900773,
    "wof:name":"Sources Resources",
    "wof:parent_id":-1,
    "wof:placetype":"venue",
    "wof:superseded_by":[],
    "wof:supersedes":[],
    "wof:tags":[]
},
  "bbox": [
    -77.27671,
    38.87116,
    -77.27671,
    38.87116
],
  "geometry": {"coordinates":[-77.27670999999999,38.87116],"type":"Point"}
}