{
  "id": 739417543,
  "type": "Feature",
  "properties": {
    "edtf:cessation":"uuuu",
    "edtf:inception":"uuuu",
    "geom:area":0.0,
    "geom:bbox":"-77.512933,37.59774,-77.512933,37.59774",
    "geom:latitude":37.59774,
    "geom:longitude":-77.512933,
    "iso:country":"US",
    "sg:address":"6512 W Broad St",
    "sg:city":"Richmond",
    "sg:classifiers":[
        {
            "category":"Home & Garden",
            "subcategory":"Furniture",
            "type":"Retail Goods"
        }
    ],
    "sg:owner":"simplegeo",
    "sg:phone":"+1 804 282 1000",
    "sg:postcode":"23230",
    "sg:province":"VA",
    "src:geom":"simplegeo",
    "wof:belongsto":[],
    "wof:breaches":[],
    "wof:concordances":{
        "sg:id":"SG_1fswM4EyHUJfdJxTP3mfW2_37.597740_-77.512933@1294252573"
    },
    "wof:country":"US",
    "wof:created":1461906905,
    "wof:geomhash":"696cec62eb031379d7dbe215ff60b19d",
    "wof:hierarchy":[],
    "wof:id":739417543,
    "wof:lastmodified":1461906905,
    "wof:name":"Carriage House Furniture",
    "wof:parent_id":-1,
    "wof:placetype":"venue",
    "wof:superseded_by":[],
    "wof:supersedes":[],
    "wof:tags":[]
},
  "bbox": [
    -77.512933,
    37.59774,
    -77.512933,
    37.59774
],
  "geometry": {"coordinates":[-77.512933,37.59774],"type":"Point"}
}