{
  "id": 723332771,
  "type": "Feature",
  "properties": {
    "edtf:cessation":"uuuu",
    "edtf:inception":"uuuu",
    "geom:area":0.0,
    "geom:bbox":"-77.471778,39.071152,-77.471778,39.071152",
    "geom:latitude":39.071152,
    "geom:longitude":-77.471778,
    "iso:country":"US",
    "sg:address":"44045 Riverside Pkwy",
    "sg:city":"Leesburg",
    "sg:classifiers":[
        {
            "category":"Shopping",
            "subcategory":"Gifts & Souvenirs",
            "type":"Retail Goods"
        }
    ],
    "sg:owner":"simplegeo",
    "sg:phone":"+1 703 858 6663",
    "sg:postcode":"20176",
    "sg:province":"VA",
    "src:geom":"simplegeo",
    "wof:belongsto":[],
    "wof:breaches":[],
    "wof:concordances":{
        "sg:id":"SG_5xeb5HtdC8zricxCOajWkN_39.071152_-77.471778@1294252573"
    },
    "wof:country":"US",
    "wof:created":1461899676,
    "wof:geomhash":"5b74cd238f9c4c026c9ce3668ad04dba",
    "wof:hierarchy":[],
    "wof:id":723332771,
    "wof:lastmodified":1461899676,
    "wof:name":"Gift Shop Ladies Board",
    "wof:parent_id":-1,
    "wof:placetype":"venue",
    "wof:superseded_by":[],
    "wof:supersedes":[],
    "wof:tags":[]
},
  "bbox": [
    -77.471778,
    39.071152,
    -77.471778,
    39.071152
],
  "geometry": {"coordinates":[-77.471778,39.071152],"type":"Point"}
}