{
  "id": 739426835,
  "type": "Feature",
  "properties": {
    "edtf:cessation":"uuuu",
    "edtf:inception":"uuuu",
    "geom:area":0.0,
    "geom:bbox":"-77.264704,38.868059,-77.264704,38.868059",
    "geom:latitude":38.868059,
    "geom:longitude":-77.264704,
    "iso:country":"US",
    "sg:address":"9273 Bailey Ln",
    "sg:city":"Fairfax",
    "sg:classifiers":[
        {
            "category":"Travel",
            "subcategory":"Travel Agent",
            "type":"Entertainment"
        }
    ],
    "sg:owner":"simplegeo",
    "sg:phone":"+1 703 691 0022",
    "sg:postcode":"22031",
    "sg:province":"VA",
    "sg:tags":[
        "agency"
    ],
    "src:geom":"simplegeo",
    "wof:belongsto":[],
    "wof:breaches":[],
    "wof:concordances":{
        "sg:id":"SG_7epI09g6zPjfeCMBT9NBgp_38.868059_-77.264704@1294252573"
    },
    "wof:country":"US",
    "wof:created":1461907105,
    "wof:geomhash":"352dcf5b6fc787c55accfd43de3f843d",
    "wof:hierarchy":[],
    "wof:id":739426835,
    "wof:lastmodified":1461907105,
    "wof:name":"Total Travel Service Inc",
    "wof:parent_id":-1,
    "wof:placetype":"venue",
    "wof:superseded_by":[],
    "wof:supersedes":[],
    "wof:tags":[
        "agency"
    ]
},
  "bbox": [
    -77.264704,
    38.868059,
    -77.264704,
    38.868059
],
  "geometry": {"coordinates":[-77.26470399999999,38.868059],"type":"Point"}
}