{
  "id": 739491851,
  "type": "Feature",
  "properties": {
    "edtf:cessation":"uuuu",
    "edtf:inception":"uuuu",
    "geom:area":0.0,
    "geom:bbox":"-77.855665,36.693064,-77.855665,36.693064",
    "geom:latitude":36.693064,
    "geom:longitude":-77.855665,
    "iso:country":"US",
    "sg:address":"12449 Christanna Hwy",
    "sg:city":"Lawrenceville",
    "sg:classifiers":[
        {
            "category":"Professional",
            "subcategory":"Business Services",
            "type":"Services"
        }
    ],
    "sg:owner":"simplegeo",
    "sg:phone":"+1 434 848 4064",
    "sg:postcode":"23868",
    "sg:province":"VA",
    "src:geom":"simplegeo",
    "wof:belongsto":[],
    "wof:breaches":[],
    "wof:concordances":{
        "sg:id":"SG_3CKqtbQ8DlWufmeDb92fNQ_36.693064_-77.855665@1294252573"
    },
    "wof:country":"US",
    "wof:created":1461908283,
    "wof:geomhash":"f48234a571fb01895ba3aee79781e13a",
    "wof:hierarchy":[],
    "wof:id":739491851,
    "wof:lastmodified":1461908283,
    "wof:name":"Bask Creative Design",
    "wof:parent_id":-1,
    "wof:placetype":"venue",
    "wof:superseded_by":[],
    "wof:supersedes":[],
    "wof:tags":[]
},
  "bbox": [
    -77.855665,
    36.693064,
    -77.855665,
    36.693064
],
  "geometry": {"coordinates":[-77.855665,36.693064],"type":"Point"}
}