{
  "id": 722607911,
  "type": "Feature",
  "properties": {
    "edtf:cessation":"uuuu",
    "edtf:inception":"uuuu",
    "geom:area":0.0,
    "geom:bbox":"-77.287311,37.30279,-77.287311,37.30279",
    "geom:latitude":37.30279,
    "geom:longitude":-77.287311,
    "iso:country":"US",
    "sg:address":"204 N Main St",
    "sg:city":"Hopewell",
    "sg:classifiers":[
        {
            "category":"Professional",
            "subcategory":"Lawyer & Legal Services",
            "type":"Services"
        }
    ],
    "sg:owner":"simplegeo",
    "sg:phone":"+1 804 458 1677",
    "sg:postcode":"23860",
    "sg:province":"VA",
    "sg:tags":[
        "attorney"
    ],
    "src:geom":"simplegeo",
    "wof:belongsto":[],
    "wof:breaches":[],
    "wof:concordances":{
        "sg:id":"SG_1VHAOKydPlHF74Auam3YXn_37.302790_-77.287311@1294252573"
    },
    "wof:country":"US",
    "wof:created":1461885132,
    "wof:geomhash":"03342ca5769ffe3c0f3aea47d265969a",
    "wof:hierarchy":[],
    "wof:id":722607911,
    "wof:lastmodified":1461885132,
    "wof:name":"Bridgette P Hopson Law Offices",
    "wof:parent_id":-1,
    "wof:placetype":"venue",
    "wof:superseded_by":[],
    "wof:supersedes":[],
    "wof:tags":[
        "attorney"
    ]
},
  "bbox": [
    -77.287311,
    37.30279,
    -77.287311,
    37.30279
],
  "geometry": {"coordinates":[-77.287311,37.30279],"type":"Point"}
}