{
  "id": 722644509,
  "type": "Feature",
  "properties": {
    "edtf:cessation":"uuuu",
    "edtf:inception":"uuuu",
    "geom:area":0.0,
    "geom:bbox":"-80.800954,36.713998,-80.800954,36.713998",
    "geom:latitude":36.713998,
    "geom:longitude":-80.800954,
    "iso:country":"US",
    "sg:address":"345 Breezy Ridge Rd",
    "sg:city":"Woodlawn",
    "sg:classifiers":[
        {
            "category":"Professional",
            "subcategory":"Accounting & Tax Preparation",
            "type":"Services"
        }
    ],
    "sg:owner":"simplegeo",
    "sg:phone":"+1 276 236 0064",
    "sg:postcode":"24381",
    "sg:province":"VA",
    "sg:tags":[
        "return"
    ],
    "src:geom":"simplegeo",
    "wof:belongsto":[],
    "wof:breaches":[],
    "wof:concordances":{
        "sg:id":"SG_18cV4rXZMuJgNsanG33BTF_36.713998_-80.800954@1294252573"
    },
    "wof:country":"US",
    "wof:created":1461885919,
    "wof:geomhash":"e8d6436d06413a882fda51ed6b6345ba",
    "wof:hierarchy":[],
    "wof:id":722644509,
    "wof:lastmodified":1461885919,
    "wof:name":"Bht Ventures Inc",
    "wof:parent_id":-1,
    "wof:placetype":"venue",
    "wof:superseded_by":[],
    "wof:supersedes":[],
    "wof:tags":[
        "return"
    ]
},
  "bbox": [
    -80.800954,
    36.713998,
    -80.800954,
    36.713998
],
  "geometry": {"coordinates":[-80.800954,36.713998],"type":"Point"}
}