{
  "id": 739452355,
  "type": "Feature",
  "properties": {
    "edtf:cessation":"uuuu",
    "edtf:inception":"uuuu",
    "geom:area":0.0,
    "geom:bbox":"-77.377273,36.872051,-77.377273,36.872051",
    "geom:latitude":36.872051,
    "geom:longitude":-77.377273,
    "iso:country":"US",
    "sg:address":"14217 Comans Well Rd",
    "sg:city":"Stony Creek",
    "sg:classifiers":[
        {
            "category":"Food & Beverages",
            "subcategory":"Groceries & Convenience Stores",
            "type":"Retail Goods"
        }
    ],
    "sg:owner":"simplegeo",
    "sg:phone":"+1 434 246 8088",
    "sg:postcode":"23882",
    "sg:province":"VA",
    "sg:tags":[
        "grocer"
    ],
    "src:geom":"simplegeo",
    "wof:belongsto":[],
    "wof:breaches":[],
    "wof:concordances":{
        "sg:id":"SG_3HFy6lM1SARImPlkRvPELT_36.872051_-77.377273@1294252573"
    },
    "wof:country":"US",
    "wof:created":1461907584,
    "wof:geomhash":"26c297895c20fa417f1fbf4c31280ae4",
    "wof:hierarchy":[],
    "wof:id":739452355,
    "wof:lastmodified":1461907584,
    "wof:name":"Smith's Country Store",
    "wof:parent_id":-1,
    "wof:placetype":"venue",
    "wof:superseded_by":[],
    "wof:supersedes":[],
    "wof:tags":[
        "grocer"
    ]
},
  "bbox": [
    -77.377273,
    36.872051,
    -77.377273,
    36.872051
],
  "geometry": {"coordinates":[-77.377273,36.872051],"type":"Point"}
}