{
  "id": 722672281,
  "type": "Feature",
  "properties": {
    "edtf:cessation":"uuuu",
    "edtf:inception":"uuuu",
    "geom:area":0.0,
    "geom:bbox":"-77.080163,38.812532,-77.080163,38.812532",
    "geom:latitude":38.812532,
    "geom:longitude":-77.080163,
    "iso:country":"US",
    "sg:address":"812 Vassar Rd",
    "sg:city":"Alexandria",
    "sg:classifiers":[
        {
            "category":"Personal",
            "subcategory":"Barber",
            "type":"Services"
        }
    ],
    "sg:owner":"simplegeo",
    "sg:phone":"+1 703 751 5529",
    "sg:postcode":"22314",
    "sg:province":"VA",
    "sg:tags":[
        "shop"
    ],
    "src:geom":"simplegeo",
    "wof:belongsto":[],
    "wof:breaches":[],
    "wof:concordances":{
        "sg:id":"SG_1K9xBEe20QtVBJkOyCjL0W_38.812532_-77.080163@1294252573"
    },
    "wof:country":"US",
    "wof:created":1461886438,
    "wof:geomhash":"e61a0badd0e8701379ac20073dee33fb",
    "wof:hierarchy":[],
    "wof:id":722672281,
    "wof:lastmodified":1461886438,
    "wof:name":"Sylvia S Barber Inc",
    "wof:parent_id":-1,
    "wof:placetype":"venue",
    "wof:superseded_by":[],
    "wof:supersedes":[],
    "wof:tags":[
        "shop"
    ]
},
  "bbox": [
    -77.080163,
    38.812532,
    -77.080163,
    38.812532
],
  "geometry": {"coordinates":[-77.080163,38.812532],"type":"Point"}
}