{
  "id": 739332015,
  "type": "Feature",
  "properties": {
    "edtf:cessation":"uuuu",
    "edtf:inception":"uuuu",
    "geom:area":0.0,
    "geom:bbox":"-79.953615,37.273655,-79.953615,37.273655",
    "geom:latitude":37.273655,
    "geom:longitude":-79.953615,
    "iso:country":"US",
    "sg:address":"614 Norfolk Ave SW",
    "sg:city":"Roanoke",
    "sg:classifiers":[
        {
            "category":"Manufacturing",
            "subcategory":"Glass & Minerals",
            "type":"Manufacturing & Wholesale Goods"
        }
    ],
    "sg:owner":"simplegeo",
    "sg:phone":"+1 540 344 9261",
    "sg:postcode":"24016",
    "sg:province":"VA",
    "sg:tags":[
        "ready",
        "concrete",
        "product",
        "mfg"
    ],
    "src:geom":"simplegeo",
    "wof:belongsto":[],
    "wof:breaches":[],
    "wof:concordances":{
        "sg:id":"SG_4nyNgb65i3cSjxHAj4CFJj_37.273655_-79.953615@1294252573"
    },
    "wof:country":"US",
    "wof:created":1461905216,
    "wof:geomhash":"a75b82b6b46da823827ec36cf49d604b",
    "wof:hierarchy":[],
    "wof:id":739332015,
    "wof:lastmodified":1461905216,
    "wof:name":"Chandler Concrete Of Virginia",
    "wof:parent_id":-1,
    "wof:placetype":"venue",
    "wof:superseded_by":[],
    "wof:supersedes":[],
    "wof:tags":[
        "ready",
        "concrete",
        "product",
        "mfg"
    ]
},
  "bbox": [
    -79.953615,
    37.273655,
    -79.953615,
    37.273655
],
  "geometry": {"coordinates":[-79.953615,37.273655],"type":"Point"}
}