{
  "id": 739334185,
  "type": "Feature",
  "properties": {
    "edtf:cessation":"uuuu",
    "edtf:inception":"uuuu",
    "geom:area":0.0,
    "geom:bbox":"-77.560632,37.610564,-77.560632,37.610564",
    "geom:latitude":37.610564,
    "geom:longitude":-77.560632,
    "iso:country":"US",
    "sg:address":"8421 Zell Ln",
    "sg:city":"Richmond",
    "sg:classifiers":[
        {
            "category":"Professional",
            "subcategory":"Business Services",
            "type":"Services"
        }
    ],
    "sg:owner":"simplegeo",
    "sg:phone":"+1 804 282 6844",
    "sg:postcode":"23229",
    "sg:province":"VA",
    "src:geom":"simplegeo",
    "wof:belongsto":[],
    "wof:breaches":[],
    "wof:concordances":{
        "sg:id":"SG_20GdVADZ1tQO3mEhiShpRg_37.610564_-77.560632@1294252573"
    },
    "wof:country":"US",
    "wof:created":1461905258,
    "wof:geomhash":"11cbb969e620a2914a5ba54b497e6e84",
    "wof:hierarchy":[],
    "wof:id":739334185,
    "wof:lastmodified":1461905258,
    "wof:name":"Jdr & Associates LLC",
    "wof:parent_id":-1,
    "wof:placetype":"venue",
    "wof:superseded_by":[],
    "wof:supersedes":[],
    "wof:tags":[]
},
  "bbox": [
    -77.560632,
    37.610564,
    -77.560632,
    37.610564
],
  "geometry": {"coordinates":[-77.560632,37.610564],"type":"Point"}
}