{
  "id": 722994113,
  "type": "Feature",
  "properties": {
    "edtf:cessation":"uuuu",
    "edtf:inception":"uuuu",
    "geom:area":0.0,
    "geom:bbox":"-77.264641,38.868062,-77.264641,38.868062",
    "geom:latitude":38.868062,
    "geom:longitude":-77.264641,
    "iso:country":"US",
    "sg:address":"9271 Bailey Ln",
    "sg:city":"Fairfax",
    "sg:classifiers":[
        {
            "category":"Restaurant",
            "subcategory":"",
            "type":"Food & Drink"
        }
    ],
    "sg:owner":"simplegeo",
    "sg:phone":"+1 703 385 8103",
    "sg:postcode":"22031",
    "sg:province":"VA",
    "sg:tags":[
        "eating"
    ],
    "src:geom":"simplegeo",
    "wof:belongsto":[],
    "wof:breaches":[],
    "wof:concordances":{
        "sg:id":"SG_13Bkf2sTC8C9sJMne3Dm2F_38.868062_-77.264641@1294252573"
    },
    "wof:country":"US",
    "wof:created":1461892769,
    "wof:geomhash":"e629f67f6e52bcd56412a468a861c011",
    "wof:hierarchy":[],
    "wof:id":722994113,
    "wof:lastmodified":1461892769,
    "wof:name":"Java Nova Coffee Co",
    "wof:parent_id":-1,
    "wof:placetype":"venue",
    "wof:superseded_by":[],
    "wof:supersedes":[],
    "wof:tags":[
        "eating"
    ]
},
  "bbox": [
    -77.264641,
    38.868062,
    -77.264641,
    38.868062
],
  "geometry": {"coordinates":[-77.264641,38.868062],"type":"Point"}
}