{
  "id": 722744569,
  "type": "Feature",
  "properties": {
    "edtf:cessation":"uuuu",
    "edtf:inception":"uuuu",
    "geom:area":0.0,
    "geom:bbox":"-78.393924,37.298286,-78.393924,37.298286",
    "geom:latitude":37.298286,
    "geom:longitude":-78.393924,
    "iso:country":"US",
    "sg:address":"308 S Main St",
    "sg:city":"Farmville",
    "sg:classifiers":[
        {
            "category":"Shopping",
            "subcategory":"Clothing, Apparel, & Fashions",
            "type":"Retail Goods"
        }
    ],
    "sg:owner":"simplegeo",
    "sg:phone":"+1 434 392 6308",
    "sg:postcode":"23901",
    "sg:province":"VA",
    "sg:tags":[
        "merchandise"
    ],
    "src:geom":"simplegeo",
    "wof:belongsto":[],
    "wof:breaches":[],
    "wof:concordances":{
        "sg:id":"SG_5ElQAlYtjDHxLbMEIVpejk_37.298286_-78.393924@1294252573"
    },
    "wof:country":"US",
    "wof:created":1461887834,
    "wof:geomhash":"7f38655253ae610633597d5a0bed9008",
    "wof:hierarchy":[],
    "wof:id":722744569,
    "wof:lastmodified":1461887834,
    "wof:name":"O K Fashion & Beauty Supply",
    "wof:parent_id":-1,
    "wof:placetype":"venue",
    "wof:superseded_by":[],
    "wof:supersedes":[],
    "wof:tags":[
        "merchandise"
    ]
},
  "bbox": [
    -78.393924,
    37.298286,
    -78.393924,
    37.298286
],
  "geometry": {"coordinates":[-78.393924,37.298286],"type":"Point"}
}