{
  "id": 739434977,
  "type": "Feature",
  "properties": {
    "edtf:cessation":"uuuu",
    "edtf:inception":"uuuu",
    "geom:area":0.0,
    "geom:bbox":"-77.544916,37.239617,-77.544916,37.239617",
    "geom:latitude":37.239617,
    "geom:longitude":-77.544916,
    "iso:country":"US",
    "sg:address":"9430 River Rd",
    "sg:city":"Petersburg",
    "sg:classifiers":[
        {
            "category":"Recreation",
            "subcategory":"",
            "type":"Entertainment"
        }
    ],
    "sg:owner":"simplegeo",
    "sg:phone":"+1 804 590 9479",
    "sg:postcode":"23803",
    "sg:province":"VA",
    "src:geom":"simplegeo",
    "wof:belongsto":[],
    "wof:breaches":[],
    "wof:concordances":{
        "sg:id":"SG_725K2MJyDGFBbfR11GFKPw_37.239617_-77.544916@1294252573"
    },
    "wof:country":"US",
    "wof:created":1461907262,
    "wof:geomhash":"3e4a9899dee466e7af2c5511582bd42d",
    "wof:hierarchy":[],
    "wof:id":739434977,
    "wof:lastmodified":1461907262,
    "wof:name":"Muler Undrwatr Divrs",
    "wof:parent_id":-1,
    "wof:placetype":"venue",
    "wof:superseded_by":[],
    "wof:supersedes":[],
    "wof:tags":[]
},
  "bbox": [
    -77.544916,
    37.239617,
    -77.544916,
    37.239617
],
  "geometry": {"coordinates":[-77.544916,37.239617],"type":"Point"}
}