{
  "id": 723158943,
  "type": "Feature",
  "properties": {
    "edtf:cessation":"uuuu",
    "edtf:inception":"uuuu",
    "geom:area":0.0,
    "geom:bbox":"-77.278432,36.811622,-77.278432,36.811622",
    "geom:latitude":36.811622,
    "geom:longitude":-77.278432,
    "iso:country":"US",
    "sg:address":"20230 Peters Bridge Rd",
    "sg:city":"Yale",
    "sg:classifiers":[
        {
            "category":"Organizations",
            "subcategory":"Religious Organization",
            "type":"Services"
        }
    ],
    "sg:owner":"simplegeo",
    "sg:phone":"+1 434 535 8164",
    "sg:postcode":"23897",
    "sg:province":"VA",
    "src:geom":"simplegeo",
    "wof:belongsto":[],
    "wof:breaches":[],
    "wof:concordances":{
        "sg:id":"SG_4LY45HHYrji0KY6kvgnWa7_36.811622_-77.278432@1294252573"
    },
    "wof:country":"US",
    "wof:created":1461896269,
    "wof:geomhash":"0d8c42946dc80e438acbd37aa1c36969",
    "wof:hierarchy":[],
    "wof:id":723158943,
    "wof:lastmodified":1461896269,
    "wof:name":"Antioch Baptist Church",
    "wof:parent_id":-1,
    "wof:placetype":"venue",
    "wof:superseded_by":[],
    "wof:supersedes":[],
    "wof:tags":[]
},
  "bbox": [
    -77.278432,
    36.811622,
    -77.278432,
    36.811622
],
  "geometry": {"coordinates":[-77.278432,36.811622],"type":"Point"}
}