{
  "id": 739719321,
  "type": "Feature",
  "properties": {
    "edtf:cessation":"uuuu",
    "edtf:inception":"uuuu",
    "geom:area":0.0,
    "geom:bbox":"-77.424484,37.601337,-77.424484,37.601337",
    "geom:latitude":37.601337,
    "geom:longitude":-77.424484,
    "iso:country":"US",
    "sg:address":"5108 Richmond Henrico Tpke",
    "sg:city":"Richmond",
    "sg:classifiers":[
        {
            "category":"Place Of Worship",
            "subcategory":"Church",
            "type":"Public Place"
        },
        {
            "category":"Place Of Worship",
            "subcategory":"",
            "type":"Public Place"
        }
    ],
    "sg:owner":"simplegeo",
    "sg:phone":"+1 804 497 7357",
    "sg:postcode":"23227",
    "sg:province":"VA",
    "sg:tags":[
        "churches-interdenominational",
        "churches-various",
        "denomination"
    ],
    "src:geom":"simplegeo",
    "wof:belongsto":[],
    "wof:breaches":[],
    "wof:concordances":{
        "sg:id":"SG_35qFl0XwNlcIyzqNhy91nr_37.601337_-77.424484@1303262550"
    },
    "wof:country":"US",
    "wof:created":1461912978,
    "wof:geomhash":"b06ecaf7fed144dc9d7b9a9ca296e8ba",
    "wof:hierarchy":[],
    "wof:id":739719321,
    "wof:lastmodified":1461912978,
    "wof:name":"Living Water Chnstian Fellowsh",
    "wof:parent_id":-1,
    "wof:placetype":"venue",
    "wof:superseded_by":[],
    "wof:supersedes":[],
    "wof:tags":[
        "churches-interdenominational",
        "churches-various",
        "denomination"
    ]
},
  "bbox": [
    -77.424484,
    37.601337,
    -77.424484,
    37.601337
],
  "geometry": {"coordinates":[-77.42448400000001,37.601337],"type":"Point"}
}