{
  "id": 722951417,
  "type": "Feature",
  "properties": {
    "edtf:cessation":"uuuu",
    "edtf:inception":"uuuu",
    "geom:area":0.0,
    "geom:bbox":"-77.375981,37.537041,-77.375981,37.537041",
    "geom:latitude":37.537041,
    "geom:longitude":-77.375981,
    "iso:country":"US",
    "sg:address":"307 Masonic Ln",
    "sg:city":"Richmond",
    "sg:classifiers":[
        {
            "category":"Food & Beverages",
            "subcategory":"Groceries & Convenience Stores",
            "type":"Retail Goods"
        }
    ],
    "sg:owner":"simplegeo",
    "sg:phone":"+1 804 321 2972",
    "sg:postcode":"23223",
    "sg:province":"VA",
    "sg:tags":[
        "product"
    ],
    "src:geom":"simplegeo",
    "wof:belongsto":[],
    "wof:breaches":[],
    "wof:concordances":{
        "sg:id":"SG_541sRsPW6WPi8PxChUYVhY_37.537041_-77.375981@1294252573"
    },
    "wof:country":"US",
    "wof:created":1461891849,
    "wof:geomhash":"5fb6a014d5afa4b2504265eec6014042",
    "wof:hierarchy":[],
    "wof:id":722951417,
    "wof:lastmodified":1461891849,
    "wof:name":"Al's House Of Fine Food",
    "wof:parent_id":-1,
    "wof:placetype":"venue",
    "wof:superseded_by":[],
    "wof:supersedes":[],
    "wof:tags":[
        "product"
    ]
},
  "bbox": [
    -77.375981,
    37.537041,
    -77.375981,
    37.537041
],
  "geometry": {"coordinates":[-77.375981,37.537041],"type":"Point"}
}