{
  "id": 739348957,
  "type": "Feature",
  "properties": {
    "edtf:cessation":"uuuu",
    "edtf:inception":"uuuu",
    "geom:area":0.0,
    "geom:bbox":"-76.643359,37.388848,-76.643359,37.388848",
    "geom:latitude":37.388848,
    "geom:longitude":-76.643359,
    "iso:country":"US",
    "sg:address":"6496 Allmondsville Rd",
    "sg:city":"Gloucester",
    "sg:classifiers":[
        {
            "category":"Professional",
            "subcategory":"Business Services",
            "type":"Services"
        }
    ],
    "sg:owner":"simplegeo",
    "sg:phone":"+1 804 693 2645",
    "sg:postcode":"23061",
    "sg:province":"VA",
    "sg:tags":[
        "convention",
        "meeting",
        "facility"
    ],
    "src:geom":"simplegeo",
    "wof:belongsto":[],
    "wof:breaches":[],
    "wof:concordances":{
        "sg:id":"SG_4xxJ2m6dyJIL8FbXbxBXvk_37.388848_-76.643359@1294252573"
    },
    "wof:country":"US",
    "wof:created":1461905587,
    "wof:geomhash":"80ed7f17ee4c5cba1991f025a1322a59",
    "wof:hierarchy":[],
    "wof:id":739348957,
    "wof:lastmodified":1461905587,
    "wof:name":"Moton Conference Ctr",
    "wof:parent_id":-1,
    "wof:placetype":"venue",
    "wof:superseded_by":[],
    "wof:supersedes":[],
    "wof:tags":[
        "convention",
        "meeting",
        "facility"
    ]
},
  "bbox": [
    -76.643359,
    37.388848,
    -76.643359,
    37.388848
],
  "geometry": {"coordinates":[-76.643359,37.388848],"type":"Point"}
}