{
  "id": 739695189,
  "type": "Feature",
  "properties": {
    "edtf:cessation":"uuuu",
    "edtf:inception":"uuuu",
    "geom:area":0.0,
    "geom:bbox":"-77.968194,38.25028,-77.968194,38.25028",
    "geom:latitude":38.25028,
    "geom:longitude":-77.968194,
    "iso:country":"US",
    "sg:address":"11535 Marquis Rd",
    "sg:city":"Unionville",
    "sg:classifiers":[
        {
            "category":"Building & Trades",
            "subcategory":"Landscaping Services",
            "type":"Services"
        }
    ],
    "sg:owner":"simplegeo",
    "sg:phone":"+1 540 854 5696",
    "sg:postcode":"22567",
    "sg:province":"VA",
    "sg:tags":[
        "lawn",
        "maintenance"
    ],
    "src:geom":"simplegeo",
    "wof:belongsto":[],
    "wof:breaches":[],
    "wof:concordances":{
        "sg:id":"SG_7bvjpKaGNAGF3DZWwx4NvV_38.250280_-77.968194@1303262547"
    },
    "wof:country":"US",
    "wof:created":1461912448,
    "wof:geomhash":"dcab1ee1288eb3bf984c94806c9654af",
    "wof:hierarchy":[],
    "wof:id":739695189,
    "wof:lastmodified":1461912448,
    "wof:name":"Dave's Lawncare",
    "wof:parent_id":-1,
    "wof:placetype":"venue",
    "wof:superseded_by":[],
    "wof:supersedes":[],
    "wof:tags":[
        "lawn",
        "maintenance"
    ]
},
  "bbox": [
    -77.968194,
    38.25028,
    -77.968194,
    38.25028
],
  "geometry": {"coordinates":[-77.968194,38.25028],"type":"Point"}
}