{
  "id": 739368959,
  "type": "Feature",
  "properties": {
    "edtf:cessation":"uuuu",
    "edtf:inception":"uuuu",
    "geom:area":0.0,
    "geom:bbox":"-77.434324,38.807661,-77.434324,38.807661",
    "geom:latitude":38.807661,
    "geom:longitude":-77.434324,
    "iso:country":"US",
    "sg:address":"6849 Compton Heights Cir",
    "sg:city":"Clifton",
    "sg:classifiers":[
        {
            "category":"Professional",
            "subcategory":"Management & Consulting",
            "type":"Services"
        }
    ],
    "sg:owner":"simplegeo",
    "sg:phone":"+1 703 818 7481",
    "sg:postcode":"20124",
    "sg:province":"VA",
    "src:geom":"simplegeo",
    "wof:belongsto":[],
    "wof:breaches":[],
    "wof:concordances":{
        "sg:id":"SG_1sbBG8fPAECfkeZCEoxI5y_38.807661_-77.434324@1294252573"
    },
    "wof:country":"US",
    "wof:created":1461905978,
    "wof:geomhash":"40074e0763612c688e68e58307ffd863",
    "wof:hierarchy":[],
    "wof:id":739368959,
    "wof:lastmodified":1461905978,
    "wof:name":"Select Inc",
    "wof:parent_id":-1,
    "wof:placetype":"venue",
    "wof:superseded_by":[],
    "wof:supersedes":[],
    "wof:tags":[]
},
  "bbox": [
    -77.434324,
    38.807661,
    -77.434324,
    38.807661
],
  "geometry": {"coordinates":[-77.434324,38.807661],"type":"Point"}
}