{
  "id": 739551389,
  "type": "Feature",
  "properties": {
    "edtf:cessation":"uuuu",
    "edtf:inception":"uuuu",
    "geom:area":0.0,
    "geom:bbox":"-77.513254,37.457893,-77.513254,37.457893",
    "geom:latitude":37.457893,
    "geom:longitude":-77.513254,
    "iso:country":"US",
    "sg:address":"3936 Bridget Ct",
    "sg:city":"Richmond",
    "sg:classifiers":[
        {
            "category":"Building & Trades",
            "subcategory":"Plumbing",
            "type":"Services"
        }
    ],
    "sg:owner":"simplegeo",
    "sg:phone":"+1 804 745 0343",
    "sg:postcode":"23234",
    "sg:province":"VA",
    "sg:tags":[
        "plumbing",
        "work",
        "mechanical"
    ],
    "src:geom":"simplegeo",
    "wof:belongsto":[],
    "wof:breaches":[],
    "wof:concordances":{
        "sg:id":"SG_3wtiSN0lmKtumolroYBAaW_37.457893_-77.513254@1294252573"
    },
    "wof:country":"US",
    "wof:created":1461909379,
    "wof:geomhash":"025b088dbaf83c523a12a88301d33ba2",
    "wof:hierarchy":[],
    "wof:id":739551389,
    "wof:lastmodified":1461909379,
    "wof:name":"Plumbing Ann Heating Elec",
    "wof:parent_id":420546613,
    "wof:placetype":"venue",
    "wof:superseded_by":[],
    "wof:supersedes":[],
    "wof:tags":[
        "plumbing",
        "work",
        "mechanical"
    ]
},
  "bbox": [
    -77.513254,
    37.457893,
    -77.513254,
    37.457893
],
  "geometry": {"coordinates":[-77.513254,37.457893],"type":"Point"}
}