{
  "id": 723236417,
  "type": "Feature",
  "properties": {
    "edtf:cessation":"uuuu",
    "edtf:inception":"uuuu",
    "geom:area":0.0,
    "geom:bbox":"-79.383583,37.73504,-79.383583,37.73504",
    "geom:latitude":37.73504,
    "geom:longitude":-79.383583,
    "iso:country":"US",
    "sg:address":"9 Mayflower Ln",
    "sg:city":"Lexington",
    "sg:classifiers":[
        {
            "category":"Building & Trades",
            "subcategory":"Construction",
            "type":"Services"
        }
    ],
    "sg:owner":"simplegeo",
    "sg:phone":"+1 540 261 6360",
    "sg:postcode":"24450",
    "sg:province":"VA",
    "sg:tags":[
        "house",
        "contractor"
    ],
    "src:geom":"simplegeo",
    "wof:belongsto":[],
    "wof:breaches":[],
    "wof:concordances":{
        "sg:id":"SG_1PuxbnCkpwONvw2WGMOad3_37.735040_-79.383583@1294252573"
    },
    "wof:country":"US",
    "wof:created":1461897834,
    "wof:geomhash":"7a43e6ef5aa40f49b049fcab003252f3",
    "wof:hierarchy":[],
    "wof:id":723236417,
    "wof:lastmodified":1461897834,
    "wof:name":"R A Mason Construction & Plmbg",
    "wof:parent_id":-1,
    "wof:placetype":"venue",
    "wof:superseded_by":[],
    "wof:supersedes":[],
    "wof:tags":[
        "house",
        "contractor"
    ]
},
  "bbox": [
    -79.383583,
    37.73504,
    -79.383583,
    37.73504
],
  "geometry": {"coordinates":[-79.383583,37.73504],"type":"Point"}
}