{
  "id": 723275925,
  "type": "Feature",
  "properties": {
    "edtf:cessation":"uuuu",
    "edtf:inception":"uuuu",
    "geom:area":0.0,
    "geom:bbox":"-77.427461,37.68352,-77.427461,37.68352",
    "geom:latitude":37.68352,
    "geom:longitude":-77.427461,
    "iso:country":"US",
    "sg:address":"9342 Guenevere Pl",
    "sg:city":"Mechanicsville",
    "sg:classifiers":[
        {
            "category":"Building & Trades",
            "subcategory":"Construction",
            "type":"Services"
        }
    ],
    "sg:owner":"simplegeo",
    "sg:phone":"+1 804 730 1843",
    "sg:postcode":"23116",
    "sg:province":"VA",
    "sg:tags":[
        "carpentry",
        "contractor"
    ],
    "src:geom":"simplegeo",
    "wof:belongsto":[],
    "wof:breaches":[],
    "wof:concordances":{
        "sg:id":"SG_4HIz9suOe28oYusJFEaB7R_37.683520_-77.427461@1294252573"
    },
    "wof:country":"US",
    "wof:created":1461898607,
    "wof:geomhash":"89daf88e59dd50249284b0a676e44bf5",
    "wof:hierarchy":[],
    "wof:id":723275925,
    "wof:lastmodified":1461898607,
    "wof:name":"Jl Perreault Co Inc",
    "wof:parent_id":-1,
    "wof:placetype":"venue",
    "wof:superseded_by":[],
    "wof:supersedes":[],
    "wof:tags":[
        "carpentry",
        "contractor"
    ]
},
  "bbox": [
    -77.427461,
    37.68352,
    -77.427461,
    37.68352
],
  "geometry": {"coordinates":[-77.42746099999999,37.68352],"type":"Point"}
}