{
  "id": 722611507,
  "type": "Feature",
  "properties": {
    "edtf:cessation":"uuuu",
    "edtf:inception":"uuuu",
    "geom:area":0.0,
    "geom:bbox":"-78.868952,38.448287,-78.868952,38.448287",
    "geom:latitude":38.448287,
    "geom:longitude":-78.868952,
    "iso:country":"US",
    "sg:address":"107 S Main St",
    "sg:city":"Harrisonburg",
    "sg:classifiers":[
        {
            "category":"Professional",
            "subcategory":"Art Services",
            "type":"Services"
        }
    ],
    "sg:owner":"simplegeo",
    "sg:phone":"+1 540 437 0190",
    "sg:postcode":"22801",
    "sg:province":"VA",
    "sg:tags":[
        "graphic",
        "designer"
    ],
    "src:geom":"simplegeo",
    "wof:belongsto":[],
    "wof:breaches":[],
    "wof:concordances":{
        "sg:id":"SG_6FA7N7FIYaOVYnVspSQott_38.448287_-78.868952@1294252573"
    },
    "wof:country":"US",
    "wof:created":1461885199,
    "wof:geomhash":"a754436d8237377b0e969f6b17546bc1",
    "wof:hierarchy":[],
    "wof:id":722611507,
    "wof:lastmodified":1461885199,
    "wof:name":"Trae Turner",
    "wof:parent_id":-1,
    "wof:placetype":"venue",
    "wof:superseded_by":[],
    "wof:supersedes":[],
    "wof:tags":[
        "graphic",
        "designer"
    ]
},
  "bbox": [
    -78.868952,
    38.448287,
    -78.868952,
    38.448287
],
  "geometry": {"coordinates":[-78.86895199999999,38.448287],"type":"Point"}
}