{
  "id": 722726105,
  "type": "Feature",
  "properties": {
    "edtf:cessation":"uuuu",
    "edtf:inception":"uuuu",
    "geom:area":0.0,
    "geom:bbox":"-77.169554,38.262655,-77.169554,38.262655",
    "geom:latitude":38.262655,
    "geom:longitude":-77.169554,
    "iso:country":"US",
    "sg:address":"10210 Kings Hwy",
    "sg:city":"King George",
    "sg:classifiers":[
        {
            "category":"Health Services",
            "subcategory":"Hospital",
            "type":"Services"
        }
    ],
    "sg:owner":"simplegeo",
    "sg:phone":"+1 540 775 9879",
    "sg:postcode":"22485",
    "sg:province":"VA",
    "sg:tags":[
        "mental"
    ],
    "sg:website":"www.racsb.state.va.us",
    "src:geom":"simplegeo",
    "wof:belongsto":[],
    "wof:breaches":[],
    "wof:concordances":{
        "sg:id":"SG_3qyo2L8r1m14f2c6O8vMJW_38.262655_-77.169554@1294252573"
    },
    "wof:country":"US",
    "wof:created":1461887453,
    "wof:geomhash":"9f061cf330d06054f5b04e7e08f178e7",
    "wof:hierarchy":[],
    "wof:id":722726105,
    "wof:lastmodified":1461887453,
    "wof:name":"Rappahannock Area CSB",
    "wof:parent_id":-1,
    "wof:placetype":"venue",
    "wof:superseded_by":[],
    "wof:supersedes":[],
    "wof:tags":[
        "mental"
    ]
},
  "bbox": [
    -77.169554,
    38.262655,
    -77.169554,
    38.262655
],
  "geometry": {"coordinates":[-77.16955400000001,38.262655],"type":"Point"}
}