{
  "id": 723073295,
  "type": "Feature",
  "properties": {
    "edtf:cessation":"uuuu",
    "edtf:inception":"uuuu",
    "geom:area":0.0,
    "geom:bbox":"-77.525154,38.25085,-77.525154,38.25085",
    "geom:latitude":38.25085,
    "geom:longitude":-77.525154,
    "iso:country":"US",
    "sg:address":"10635 Lovett Dr",
    "sg:city":"Fredericksburg",
    "sg:classifiers":[
        {
            "category":"Building & Trades",
            "subcategory":"Landscaping Services",
            "type":"Services"
        }
    ],
    "sg:owner":"simplegeo",
    "sg:phone":"+1 540 710 7537",
    "sg:postcode":"22407",
    "sg:province":"VA",
    "src:geom":"simplegeo",
    "wof:belongsto":[],
    "wof:breaches":[],
    "wof:concordances":{
        "sg:id":"SG_1uwgoiIsjYll8FAq48kkMm_38.250850_-77.525154@1294252573"
    },
    "wof:country":"US",
    "wof:created":1461894544,
    "wof:geomhash":"b02fe05e6f04f7ba764f7bebdb790b5f",
    "wof:hierarchy":[],
    "wof:id":723073295,
    "wof:lastmodified":1461894544,
    "wof:name":"Shelton Landscaping",
    "wof:parent_id":-1,
    "wof:placetype":"venue",
    "wof:superseded_by":[],
    "wof:supersedes":[],
    "wof:tags":[]
},
  "bbox": [
    -77.525154,
    38.25085,
    -77.525154,
    38.25085
],
  "geometry": {"coordinates":[-77.525154,38.25085],"type":"Point"}
}