{
  "id": 723333031,
  "type": "Feature",
  "properties": {
    "edtf:cessation":"uuuu",
    "edtf:inception":"uuuu",
    "geom:area":0.0,
    "geom:bbox":"-77.375967,37.604325,-77.375967,37.604325",
    "geom:latitude":37.604325,
    "geom:longitude":-77.375967,
    "iso:country":"US",
    "sg:address":"7308 Hanover Green Dr",
    "sg:city":"Mechanicsville",
    "sg:classifiers":[
        {
            "category":"Professional",
            "subcategory":"Management & Consulting",
            "type":"Services"
        }
    ],
    "sg:owner":"simplegeo",
    "sg:phone":"+1 804 512 5846",
    "sg:postcode":"23111",
    "sg:province":"VA",
    "sg:tags":[
        "engineering"
    ],
    "src:geom":"simplegeo",
    "wof:belongsto":[],
    "wof:breaches":[],
    "wof:concordances":{
        "sg:id":"SG_1V5xlFXAifWbezefVy7scv_37.604325_-77.375967@1294252573"
    },
    "wof:country":"US",
    "wof:created":1461899682,
    "wof:geomhash":"10268a712d1208b4de83d9e63ffa81e1",
    "wof:hierarchy":[],
    "wof:id":723333031,
    "wof:lastmodified":1461899682,
    "wof:name":"Spectel LLC",
    "wof:parent_id":-1,
    "wof:placetype":"venue",
    "wof:superseded_by":[],
    "wof:supersedes":[],
    "wof:tags":[
        "engineering"
    ]
},
  "bbox": [
    -77.375967,
    37.604325,
    -77.375967,
    37.604325
],
  "geometry": {"coordinates":[-77.375967,37.604325],"type":"Point"}
}