{
  "id": 723203663,
  "type": "Feature",
  "properties": {
    "edtf:cessation":"uuuu",
    "edtf:inception":"uuuu",
    "geom:area":0.0,
    "geom:bbox":"-77.512826,38.297834,-77.512826,38.297834",
    "geom:latitude":38.297834,
    "geom:longitude":-77.512826,
    "iso:country":"US",
    "sg:address":"1140 Carl D Silver Pkwy",
    "sg:city":"Fredericksburg",
    "sg:classifiers":[
        {
            "category":"Food & Beverages",
            "subcategory":"Groceries & Convenience Stores",
            "type":"Retail Goods"
        }
    ],
    "sg:owner":"simplegeo",
    "sg:phone":"+1 540 785 3438",
    "sg:postcode":"22401",
    "sg:province":"VA",
    "src:geom":"simplegeo",
    "wof:belongsto":[],
    "wof:breaches":[],
    "wof:concordances":{
        "sg:id":"SG_3lOYiG7LWYoMpyfC7ZBkrF_38.297834_-77.512826@1294252573"
    },
    "wof:country":"US",
    "wof:created":1461897147,
    "wof:geomhash":"a2580ca3204145c27aac23c539d4c537",
    "wof:hierarchy":[],
    "wof:id":723203663,
    "wof:lastmodified":1461897147,
    "wof:name":"Wawa 660",
    "wof:parent_id":-1,
    "wof:placetype":"venue",
    "wof:superseded_by":[],
    "wof:supersedes":[],
    "wof:tags":[]
},
  "bbox": [
    -77.512826,
    38.297834,
    -77.512826,
    38.297834
],
  "geometry": {"coordinates":[-77.512826,38.297834],"type":"Point"}
}