{
  "id": 723100583,
  "type": "Feature",
  "properties": {
    "edtf:cessation":"uuuu",
    "edtf:inception":"uuuu",
    "geom:area":0.0,
    "geom:bbox":"-77.415641,38.858243,-77.415641,38.858243",
    "geom:latitude":38.858243,
    "geom:longitude":-77.415641,
    "iso:country":"US",
    "sg:address":"5005 Selby Bay Ct",
    "sg:city":"Chantilly",
    "sg:classifiers":[
        {
            "category":"Professional",
            "subcategory":"Management & Consulting",
            "type":"Services"
        }
    ],
    "sg:owner":"simplegeo",
    "sg:phone":"+1 703 222 2993",
    "sg:postcode":"20151",
    "sg:province":"VA",
    "src:geom":"simplegeo",
    "wof:belongsto":[],
    "wof:breaches":[],
    "wof:concordances":{
        "sg:id":"SG_2juBH0SSZ7hE3HLOzj9dUR_38.858243_-77.415641@1294252573"
    },
    "wof:country":"US",
    "wof:created":1461895136,
    "wof:geomhash":"4e135e9e0ead6a6bba552f812ceda545",
    "wof:hierarchy":[],
    "wof:id":723100583,
    "wof:lastmodified":1461895136,
    "wof:name":"Seacar Sales Consulting LLC",
    "wof:parent_id":-1,
    "wof:placetype":"venue",
    "wof:superseded_by":[],
    "wof:supersedes":[],
    "wof:tags":[]
},
  "bbox": [
    -77.415641,
    38.858243,
    -77.415641,
    38.858243
],
  "geometry": {"coordinates":[-77.41564099999999,38.858243],"type":"Point"}
}