{
  "id": 739369245,
  "type": "Feature",
  "properties": {
    "edtf:cessation":"uuuu",
    "edtf:inception":"uuuu",
    "geom:area":0.0,
    "geom:bbox":"-77.429748,38.820342,-77.429748,38.820342",
    "geom:latitude":38.820342,
    "geom:longitude":-77.429748,
    "iso:country":"US",
    "sg:address":"13916 Green Trails Ct",
    "sg:city":"Centreville",
    "sg:classifiers":[
        {
            "category":"Building & Trades",
            "subcategory":"Construction",
            "type":"Services"
        }
    ],
    "sg:owner":"simplegeo",
    "sg:phone":"+1 703 814 5576",
    "sg:postcode":"20121",
    "sg:province":"VA",
    "sg:tags":[
        "home",
        "improvement"
    ],
    "src:geom":"simplegeo",
    "wof:belongsto":[],
    "wof:breaches":[],
    "wof:concordances":{
        "sg:id":"SG_6XDgD17TfGqZmsofzSpnMD_38.820342_-77.429748@1294252573"
    },
    "wof:country":"US",
    "wof:created":1461905984,
    "wof:geomhash":"8163d35281ed16a86ce77ff60fed18a4",
    "wof:hierarchy":[],
    "wof:id":739369245,
    "wof:lastmodified":1461905984,
    "wof:name":"Helping Hands Home Improvement",
    "wof:parent_id":-1,
    "wof:placetype":"venue",
    "wof:superseded_by":[],
    "wof:supersedes":[],
    "wof:tags":[
        "home",
        "improvement"
    ]
},
  "bbox": [
    -77.429748,
    38.820342,
    -77.429748,
    38.820342
],
  "geometry": {"coordinates":[-77.429748,38.820342],"type":"Point"}
}