{
  "id": 739480933,
  "type": "Feature",
  "properties": {
    "edtf:cessation":"uuuu",
    "edtf:inception":"uuuu",
    "geom:area":0.0,
    "geom:bbox":"-76.553338,37.321492,-76.553338,37.321492",
    "geom:latitude":37.321492,
    "geom:longitude":-76.553338,
    "iso:country":"US",
    "sg:address":"5858 Horsley Rd",
    "sg:city":"Hayes",
    "sg:classifiers":[
        {
            "category":"Retail",
            "subcategory":"Animal Services",
            "type":"Services"
        }
    ],
    "sg:owner":"simplegeo",
    "sg:phone":"+1 804 642 4585",
    "sg:postcode":"23072",
    "sg:province":"VA",
    "src:geom":"simplegeo",
    "wof:belongsto":[],
    "wof:breaches":[],
    "wof:concordances":{
        "sg:id":"SG_3x8RVWmHM5Z0GspYxHFZVg_37.321492_-76.553338@1294252573"
    },
    "wof:country":"US",
    "wof:created":1461908088,
    "wof:geomhash":"61bc01a8b1851bad7fd256efd1806bae",
    "wof:hierarchy":[],
    "wof:id":739480933,
    "wof:lastmodified":1461908088,
    "wof:name":"Canine Care Consulting",
    "wof:parent_id":-1,
    "wof:placetype":"venue",
    "wof:superseded_by":[],
    "wof:supersedes":[],
    "wof:tags":[]
},
  "bbox": [
    -76.553338,
    37.321492,
    -76.553338,
    37.321492
],
  "geometry": {"coordinates":[-76.553338,37.321492],"type":"Point"}
}