{
  "id": 722607967,
  "type": "Feature",
  "properties": {
    "edtf:cessation":"uuuu",
    "edtf:inception":"uuuu",
    "geom:area":0.0,
    "geom:bbox":"-79.450414,37.060479,-79.450414,37.060479",
    "geom:latitude":37.060479,
    "geom:longitude":-79.450414,
    "iso:country":"US",
    "sg:address":"2195 Terrapin Creek Rd",
    "sg:city":"Lynch Station",
    "sg:classifiers":[
        {
            "category":"Organizations",
            "subcategory":"Professional Association",
            "type":"Services"
        }
    ],
    "sg:owner":"simplegeo",
    "sg:phone":"+1 434 309 1727",
    "sg:postcode":"24571",
    "sg:province":"VA",
    "src:geom":"simplegeo",
    "wof:belongsto":[],
    "wof:breaches":[],
    "wof:concordances":{
        "sg:id":"SG_366qGTA9XYVQtAmszpfRd4_37.060479_-79.450414@1294252573"
    },
    "wof:country":"US",
    "wof:created":1461885133,
    "wof:geomhash":"cd5b2be6067df354778b0a5034bbb3ee",
    "wof:hierarchy":[],
    "wof:id":722607967,
    "wof:lastmodified":1461885133,
    "wof:name":"Runaway Bay Homeowners Assn",
    "wof:parent_id":-1,
    "wof:placetype":"venue",
    "wof:superseded_by":[],
    "wof:supersedes":[],
    "wof:tags":[]
},
  "bbox": [
    -79.450414,
    37.060479,
    -79.450414,
    37.060479
],
  "geometry": {"coordinates":[-79.45041399999999,37.060479],"type":"Point"}
}