{
  "id": 723028011,
  "type": "Feature",
  "properties": {
    "edtf:cessation":"uuuu",
    "edtf:inception":"uuuu",
    "geom:area":0.0,
    "geom:bbox":"-77.515318,38.806119,-77.515318,38.806119",
    "geom:latitude":38.806119,
    "geom:longitude":-77.515318,
    "iso:country":"US",
    "sg:address":"10376 Battleview Pkwy",
    "sg:city":"Manassas",
    "sg:classifiers":[
        {
            "category":"Real Estate",
            "subcategory":"Real Estate Agent",
            "type":"Services"
        }
    ],
    "sg:owner":"simplegeo",
    "sg:phone":"+1 703 368 8663",
    "sg:postcode":"20109",
    "sg:province":"VA",
    "src:geom":"simplegeo",
    "wof:belongsto":[],
    "wof:breaches":[],
    "wof:concordances":{
        "sg:id":"SG_73rl9fNaEWARyGfkIIs3D3_38.806119_-77.515318@1294252573"
    },
    "wof:country":"US",
    "wof:created":1461893560,
    "wof:geomhash":"04f0f346fb464b67e615448a146372c9",
    "wof:hierarchy":[],
    "wof:id":723028011,
    "wof:lastmodified":1461893560,
    "wof:name":"Linden-Battlefield LLC",
    "wof:parent_id":-1,
    "wof:placetype":"venue",
    "wof:superseded_by":[],
    "wof:supersedes":[],
    "wof:tags":[]
},
  "bbox": [
    -77.515318,
    38.806119,
    -77.515318,
    38.806119
],
  "geometry": {"coordinates":[-77.51531799999999,38.806119],"type":"Point"}
}