{
  "id": 722779619,
  "type": "Feature",
  "properties": {
    "edtf:cessation":"uuuu",
    "edtf:inception":"uuuu",
    "geom:area":0.0,
    "geom:bbox":"-77.928308,38.273754,-77.928308,38.273754",
    "geom:latitude":38.273754,
    "geom:longitude":-77.928308,
    "iso:country":"US",
    "sg:address":"9297 Black Walnut Run Rd",
    "sg:city":"Rhoadesville",
    "sg:classifiers":[
        {
            "category":"Building & Trades",
            "subcategory":"Landscaping Services",
            "type":"Services"
        }
    ],
    "sg:owner":"simplegeo",
    "sg:phone":"+1 540 854 0415",
    "sg:postcode":"22542",
    "sg:province":"VA",
    "sg:tags":[
        "lawn",
        "maintenance",
        "grounds"
    ],
    "src:geom":"simplegeo",
    "wof:belongsto":[],
    "wof:breaches":[],
    "wof:concordances":{
        "sg:id":"SG_3vb47bOq9Neb22WCVp1Nie_38.273754_-77.928308@1294252573"
    },
    "wof:country":"US",
    "wof:created":1461888493,
    "wof:geomhash":"76dac9e83582ba3f3f43f35de933face",
    "wof:hierarchy":[],
    "wof:id":722779619,
    "wof:lastmodified":1461888493,
    "wof:name":"M & K Lawn Care",
    "wof:parent_id":-1,
    "wof:placetype":"venue",
    "wof:superseded_by":[],
    "wof:supersedes":[],
    "wof:tags":[
        "lawn",
        "maintenance",
        "grounds"
    ]
},
  "bbox": [
    -77.928308,
    38.273754,
    -77.928308,
    38.273754
],
  "geometry": {"coordinates":[-77.928308,38.273754],"type":"Point"}
}