{
  "id": 723128929,
  "type": "Feature",
  "properties": {
    "edtf:cessation":"uuuu",
    "edtf:inception":"uuuu",
    "geom:area":0.0,
    "geom:bbox":"-79.985978,37.249051,-79.985978,37.249051",
    "geom:latitude":37.249051,
    "geom:longitude":-79.985978,
    "iso:country":"US",
    "sg:address":"2430 Oregon Ave SW",
    "sg:city":"Roanoke",
    "sg:classifiers":[
        {
            "category":"Professional",
            "subcategory":"",
            "type":"Services"
        }
    ],
    "sg:owner":"simplegeo",
    "sg:phone":"+1 540 774 1633",
    "sg:postcode":"24015",
    "sg:province":"VA",
    "sg:tags":[
        "establishment"
    ],
    "src:geom":"simplegeo",
    "wof:belongsto":[],
    "wof:breaches":[],
    "wof:concordances":{
        "sg:id":"SG_7BsJDQmu1l8KSbvLLEulDL_37.249051_-79.985978@1294252573"
    },
    "wof:country":"US",
    "wof:created":1461895677,
    "wof:geomhash":"683afe451b83289581550bb577a93fc0",
    "wof:hierarchy":[],
    "wof:id":723128929,
    "wof:lastmodified":1461895677,
    "wof:name":"Bush & Bush",
    "wof:parent_id":-1,
    "wof:placetype":"venue",
    "wof:superseded_by":[],
    "wof:supersedes":[],
    "wof:tags":[
        "establishment"
    ]
},
  "bbox": [
    -79.985978,
    37.249051,
    -79.985978,
    37.249051
],
  "geometry": {"coordinates":[-79.985978,37.249051],"type":"Point"}
}