{
  "id": 722704457,
  "type": "Feature",
  "properties": {
    "edtf:cessation":"uuuu",
    "edtf:inception":"uuuu",
    "geom:area":0.0,
    "geom:bbox":"-77.511134,38.796333,-77.511134,38.796333",
    "geom:latitude":38.796333,
    "geom:longitude":-77.511134,
    "iso:country":"US",
    "sg:address":"10519 Lariat Ln",
    "sg:city":"Manassas",
    "sg:classifiers":[
        {
            "category":"Real Estate",
            "subcategory":"Real Estate Operator",
            "type":"Services"
        }
    ],
    "sg:owner":"simplegeo",
    "sg:phone":"+1 703 631 7388",
    "sg:postcode":"20109",
    "sg:province":"VA",
    "sg:tags":[
        "building",
        "apartment"
    ],
    "src:geom":"simplegeo",
    "wof:belongsto":[],
    "wof:breaches":[],
    "wof:concordances":{
        "sg:id":"SG_5DeDNChbhgVmPUW0Yvca0M_38.796333_-77.511134@1294252573"
    },
    "wof:country":"US",
    "wof:created":1461887052,
    "wof:geomhash":"c2cb936f82d0ab499153b0ee95a45bf4",
    "wof:hierarchy":[],
    "wof:id":722704457,
    "wof:lastmodified":1461887052,
    "wof:name":"Carlyle Station",
    "wof:parent_id":-1,
    "wof:placetype":"venue",
    "wof:superseded_by":[],
    "wof:supersedes":[],
    "wof:tags":[
        "building",
        "apartment"
    ]
},
  "bbox": [
    -77.511134,
    38.796333,
    -77.511134,
    38.796333
],
  "geometry": {"coordinates":[-77.511134,38.796333],"type":"Point"}
}