{
  "id": 722679085,
  "type": "Feature",
  "properties": {
    "edtf:cessation":"uuuu",
    "edtf:inception":"uuuu",
    "geom:area":0.0,
    "geom:bbox":"-77.403836,37.23012,-77.403836,37.23012",
    "geom:latitude":37.23012,
    "geom:longitude":-77.403836,
    "iso:country":"US",
    "sg:address":"20 E Tabb St",
    "sg:city":"Petersburg",
    "sg:classifiers":[
        {
            "category":"Wholesale",
            "subcategory":"Construction Materials",
            "type":"Manufacturing & Wholesale Goods"
        }
    ],
    "sg:owner":"simplegeo",
    "sg:phone":"+1 804 732 6824",
    "sg:postcode":"23803",
    "sg:province":"VA",
    "sg:tags":[
        "lumber"
    ],
    "src:geom":"simplegeo",
    "wof:belongsto":[],
    "wof:breaches":[],
    "wof:concordances":{
        "sg:id":"SG_1CKCKTPZjmvDa52DlGEI55_37.230120_-77.403836@1294252573"
    },
    "wof:country":"US",
    "wof:created":1461886564,
    "wof:geomhash":"2de3619b9fffb4fa8e475417feb766b4",
    "wof:hierarchy":[],
    "wof:id":722679085,
    "wof:lastmodified":1461886564,
    "wof:name":"Payne & Gunderson Lumber Co",
    "wof:parent_id":-1,
    "wof:placetype":"venue",
    "wof:superseded_by":[],
    "wof:supersedes":[],
    "wof:tags":[
        "lumber"
    ]
},
  "bbox": [
    -77.403836,
    37.23012,
    -77.403836,
    37.23012
],
  "geometry": {"coordinates":[-77.403836,37.23012],"type":"Point"}
}