{
  "id": 723034579,
  "type": "Feature",
  "properties": {
    "edtf:cessation":"uuuu",
    "edtf:inception":"uuuu",
    "geom:area":0.0,
    "geom:bbox":"-77.522543,38.800834,-77.522543,38.800834",
    "geom:latitude":38.800834,
    "geom:longitude":-77.522543,
    "iso:country":"US",
    "sg:address":"10953 Lute Ct",
    "sg:city":"Manassas",
    "sg:classifiers":[
        {
            "category":"Manufacturing",
            "subcategory":"Food",
            "type":"Manufacturing & Wholesale Goods"
        }
    ],
    "sg:owner":"simplegeo",
    "sg:phone":"+1 703 368 1249",
    "sg:postcode":"20109",
    "sg:province":"VA",
    "sg:tags":[
        "preparation",
        "mfg"
    ],
    "src:geom":"simplegeo",
    "wof:belongsto":[],
    "wof:breaches":[],
    "wof:concordances":{
        "sg:id":"SG_5tJBrXTjwCdgvKDNIgnETi_38.800834_-77.522543@1294252573"
    },
    "wof:country":"US",
    "wof:created":1461893697,
    "wof:geomhash":"d426f5f0ec67096dcbbc8bfbb2e8448c",
    "wof:hierarchy":[],
    "wof:id":723034579,
    "wof:lastmodified":1461893697,
    "wof:name":"Riveras Tortillas",
    "wof:parent_id":-1,
    "wof:placetype":"venue",
    "wof:superseded_by":[],
    "wof:supersedes":[],
    "wof:tags":[
        "preparation",
        "mfg"
    ]
},
  "bbox": [
    -77.522543,
    38.800834,
    -77.522543,
    38.800834
],
  "geometry": {"coordinates":[-77.522543,38.800834],"type":"Point"}
}