{
  "id": 722916107,
  "type": "Feature",
  "properties": {
    "edtf:cessation":"uuuu",
    "edtf:inception":"uuuu",
    "geom:area":0.0,
    "geom:bbox":"-77.441935,37.693676,-77.441935,37.693676",
    "geom:latitude":37.693676,
    "geom:longitude":-77.441935,
    "iso:country":"US",
    "sg:address":"10403 Leadbetter Rd",
    "sg:city":"Ashland",
    "sg:classifiers":[
        {
            "category":"Insurance",
            "subcategory":"Insurance Agent",
            "type":"Services"
        }
    ],
    "sg:owner":"simplegeo",
    "sg:phone":"+1 804 550 5624",
    "sg:postcode":"23005",
    "sg:province":"VA",
    "src:geom":"simplegeo",
    "wof:belongsto":[],
    "wof:breaches":[],
    "wof:concordances":{
        "sg:id":"SG_38ttxBdjPA0wAHCcd0ImnJ_37.693676_-77.441935@1294252573"
    },
    "wof:country":"US",
    "wof:created":1461891103,
    "wof:geomhash":"fe37684b9c9a14659373925ffaebc274",
    "wof:hierarchy":[],
    "wof:id":722916107,
    "wof:lastmodified":1461891103,
    "wof:name":"Insurance Doctor",
    "wof:parent_id":-1,
    "wof:placetype":"venue",
    "wof:superseded_by":[],
    "wof:supersedes":[],
    "wof:tags":[]
},
  "bbox": [
    -77.441935,
    37.693676,
    -77.441935,
    37.693676
],
  "geometry": {"coordinates":[-77.441935,37.693676],"type":"Point"}
}