{
  "id": 722955889,
  "type": "Feature",
  "properties": {
    "edtf:cessation":"uuuu",
    "edtf:inception":"uuuu",
    "geom:area":0.0,
    "geom:bbox":"-77.35172,38.300834,-77.35172,38.300834",
    "geom:latitude":38.300834,
    "geom:longitude":-77.35172,
    "iso:country":"US",
    "sg:address":"53 Hoe Cake Ln",
    "sg:city":"Fredericksburg",
    "sg:classifiers":[
        {
            "category":"Building & Trades",
            "subcategory":"Construction",
            "type":"Services"
        }
    ],
    "sg:owner":"simplegeo",
    "sg:phone":"+1 540 371 0789",
    "sg:postcode":"22405",
    "sg:province":"VA",
    "sg:tags":[
        "contractor"
    ],
    "src:geom":"simplegeo",
    "wof:belongsto":[],
    "wof:breaches":[],
    "wof:concordances":{
        "sg:id":"SG_3KhW23AW3XvbpYDo8qBwrI_38.300834_-77.351720@1294252573"
    },
    "wof:country":"US",
    "wof:created":1461891941,
    "wof:geomhash":"ccf8352d79bec3d91064764c84e37f94",
    "wof:hierarchy":[],
    "wof:id":722955889,
    "wof:lastmodified":1461891941,
    "wof:name":"Harris Phillip A Con & Cnstr",
    "wof:parent_id":-1,
    "wof:placetype":"venue",
    "wof:superseded_by":[],
    "wof:supersedes":[],
    "wof:tags":[
        "contractor"
    ]
},
  "bbox": [
    -77.35172,
    38.300834,
    -77.35172,
    38.300834
],
  "geometry": {"coordinates":[-77.35172,38.300834],"type":"Point"}
}