{
  "id": 723010153,
  "type": "Feature",
  "properties": {
    "edtf:cessation":"uuuu",
    "edtf:inception":"uuuu",
    "geom:area":0.0,
    "geom:bbox":"-77.438674,38.770253,-77.438674,38.770253",
    "geom:latitude":38.770253,
    "geom:longitude":-77.438674,
    "iso:country":"US",
    "sg:address":"9206 Venture Ct",
    "sg:city":"Manassas Park",
    "sg:classifiers":[
        {
            "category":"Retail",
            "subcategory":"Auto Repair",
            "type":"Services"
        }
    ],
    "sg:owner":"simplegeo",
    "sg:phone":"+1 703 368 6741",
    "sg:postcode":"20111",
    "sg:province":"VA",
    "sg:tags":[
        "transmission"
    ],
    "src:geom":"simplegeo",
    "wof:belongsto":[],
    "wof:breaches":[],
    "wof:concordances":{
        "sg:id":"SG_77xxv0SrVmgudFhamdNxzL_38.770253_-77.438674@1294252573"
    },
    "wof:country":"US",
    "wof:created":1461893145,
    "wof:geomhash":"0301653a1b6e8f5b95925a989d3f0510",
    "wof:hierarchy":[],
    "wof:id":723010153,
    "wof:lastmodified":1461893145,
    "wof:name":"Victor & Son Auto Repair Inc",
    "wof:parent_id":-1,
    "wof:placetype":"venue",
    "wof:superseded_by":[],
    "wof:supersedes":[],
    "wof:tags":[
        "transmission"
    ]
},
  "bbox": [
    -77.438674,
    38.770253,
    -77.438674,
    38.770253
],
  "geometry": {"coordinates":[-77.43867400000001,38.770253],"type":"Point"}
}