{
  "id": 723263955,
  "type": "Feature",
  "properties": {
    "edtf:cessation":"uuuu",
    "edtf:inception":"uuuu",
    "geom:area":0.0,
    "geom:bbox":"-78.142811,39.187586,-78.142811,39.187586",
    "geom:latitude":39.187586,
    "geom:longitude":-78.142811,
    "iso:country":"US",
    "sg:address":"707 Fort Collier Rd",
    "sg:city":"Winchester",
    "sg:classifiers":[
        {
            "category":"Food & Beverages",
            "subcategory":"Groceries & Convenience Stores",
            "type":"Retail Goods"
        }
    ],
    "sg:owner":"simplegeo",
    "sg:phone":"+1 540 665 3047",
    "sg:postcode":"22601",
    "sg:province":"VA",
    "sg:tags":[
        "supermarket",
        "chain"
    ],
    "src:geom":"simplegeo",
    "wof:belongsto":[],
    "wof:breaches":[],
    "wof:concordances":{
        "sg:id":"SG_7REzfxdWUBiEbM4ECdoChn_39.187586_-78.142811@1294252573"
    },
    "wof:country":"US",
    "wof:created":1461898378,
    "wof:geomhash":"2cb2019813fd0de8a5ba5503f2572aa8",
    "wof:hierarchy":[],
    "wof:id":723263955,
    "wof:lastmodified":1461898378,
    "wof:name":"Food Lion Store 362",
    "wof:parent_id":-1,
    "wof:placetype":"venue",
    "wof:superseded_by":[],
    "wof:supersedes":[],
    "wof:tags":[
        "supermarket",
        "chain"
    ]
},
  "bbox": [
    -78.142811,
    39.187586,
    -78.142811,
    39.187586
],
  "geometry": {"coordinates":[-78.14281099999999,39.187586],"type":"Point"}
}