{
  "id": 739582979,
  "type": "Feature",
  "properties": {
    "edtf:cessation":"uuuu",
    "edtf:inception":"uuuu",
    "geom:area":0.0,
    "geom:bbox":"-77.509007,38.304605,-77.509007,38.304605",
    "geom:latitude":38.304605,
    "geom:longitude":-77.509007,
    "iso:country":"US",
    "sg:address":"1672 Carl D Silver Pkwy",
    "sg:city":"Fredericksburg",
    "sg:classifiers":[
        {
            "category":"Restaurant",
            "subcategory":"",
            "type":"Food & Drink"
        }
    ],
    "sg:menulink":"http://www.allmenus.com/va/fredericksburg/116332-quiznos-sub/menu/",
    "sg:owner":"simplegeo",
    "sg:phone":"+1 540 548 4484",
    "sg:postcode":"22401",
    "sg:province":"VA",
    "sg:tags":[
        "wrap",
        "american",
        "sandwich"
    ],
    "src:geom":"simplegeo",
    "wof:belongsto":[],
    "wof:breaches":[],
    "wof:concordances":{
        "sg:id":"SG_0L2hEBakfiXVic4yUsb1dI_38.304605_-77.509007@1299784598"
    },
    "wof:country":"US",
    "wof:created":1461910065,
    "wof:geomhash":"e6cda27cfad8c4441f630bde08347e63",
    "wof:hierarchy":[],
    "wof:id":739582979,
    "wof:lastmodified":1461910065,
    "wof:name":"Quiznos Sub",
    "wof:parent_id":-1,
    "wof:placetype":"venue",
    "wof:superseded_by":[],
    "wof:supersedes":[],
    "wof:tags":[
        "wrap",
        "american",
        "sandwich"
    ]
},
  "bbox": [
    -77.509007,
    38.304605,
    -77.509007,
    38.304605
],
  "geometry": {"coordinates":[-77.509007,38.304605],"type":"Point"}
}