{
  "id": 723388531,
  "type": "Feature",
  "properties": {
    "edtf:cessation":"uuuu",
    "edtf:inception":"uuuu",
    "geom:area":0.0,
    "geom:bbox":"-78.17204,39.174034,-78.17204,39.174034",
    "geom:latitude":39.174034,
    "geom:longitude":-78.17204,
    "iso:country":"US",
    "sg:address":"108 W Southwerk St",
    "sg:city":"Winchester",
    "sg:classifiers":[
        {
            "category":"Professional",
            "subcategory":"",
            "type":"Services"
        }
    ],
    "sg:owner":"simplegeo",
    "sg:phone":"+1 540 665 1856",
    "sg:postcode":"22601",
    "sg:province":"VA",
    "src:geom":"simplegeo",
    "wof:belongsto":[],
    "wof:breaches":[],
    "wof:concordances":{
        "sg:id":"SG_1lKSuVzS0ugsDowou25JjZ_39.174034_-78.172040@1294252573"
    },
    "wof:country":"US",
    "wof:created":1461900740,
    "wof:geomhash":"c903f0039ef793fcd900c6ec5db46998",
    "wof:hierarchy":[],
    "wof:id":723388531,
    "wof:lastmodified":1461900740,
    "wof:name":"Chris Moats",
    "wof:parent_id":-1,
    "wof:placetype":"venue",
    "wof:superseded_by":[],
    "wof:supersedes":[],
    "wof:tags":[]
},
  "bbox": [
    -78.17204,
    39.174034,
    -78.17204,
    39.174034
],
  "geometry": {"coordinates":[-78.17204,39.174034],"type":"Point"}
}