{
  "id": 723309457,
  "type": "Feature",
  "properties": {
    "edtf:cessation":"uuuu",
    "edtf:inception":"uuuu",
    "geom:area":0.0,
    "geom:bbox":"-77.46755,37.605809,-77.46755,37.605809",
    "geom:latitude":37.605809,
    "geom:longitude":-77.46755,
    "iso:country":"US",
    "sg:address":"5515 Lakeside Ave",
    "sg:city":"Richmond",
    "sg:classifiers":[
        {
            "category":"Autos & Motor Vehicles",
            "subcategory":"Fuel & Gas Station",
            "type":"Retail Goods"
        }
    ],
    "sg:owner":"simplegeo",
    "sg:phone":"+1 804 266 3574",
    "sg:postcode":"23228",
    "sg:province":"VA",
    "sg:tags":[
        "repair",
        "station",
        "gasoline",
        "general"
    ],
    "src:geom":"simplegeo",
    "wof:belongsto":[],
    "wof:breaches":[],
    "wof:concordances":{
        "sg:id":"SG_4UGgUaNWA8Jsvyrmo1Ag0l_37.605809_-77.467550@1294252573"
    },
    "wof:country":"US",
    "wof:created":1461899253,
    "wof:geomhash":"b7e6af7e2f6af44e5f5054adf27c3545",
    "wof:hierarchy":[],
    "wof:id":723309457,
    "wof:lastmodified":1461899253,
    "wof:name":"Axselles Auto Service Inc",
    "wof:parent_id":-1,
    "wof:placetype":"venue",
    "wof:superseded_by":[],
    "wof:supersedes":[],
    "wof:tags":[
        "repair",
        "station",
        "gasoline",
        "general"
    ]
},
  "bbox": [
    -77.46755,
    37.605809,
    -77.46755,
    37.605809
],
  "geometry": {"coordinates":[-77.46755,37.605809],"type":"Point"}
}