{
  "id": 723304425,
  "type": "Feature",
  "properties": {
    "edtf:cessation":"uuuu",
    "edtf:inception":"uuuu",
    "geom:area":0.0,
    "geom:bbox":"-77.391042,37.974786,-77.391042,37.974786",
    "geom:latitude":37.974786,
    "geom:longitude":-77.391042,
    "iso:country":"US",
    "sg:address":"21328 Penola Rd",
    "sg:city":"Ruther Glen",
    "sg:classifiers":[
        {
            "category":"Manufacturing",
            "subcategory":"Metals",
            "type":"Manufacturing & Wholesale Goods"
        },
        {
            "category":"Shopping",
            "subcategory":"Bicycles & Sporting Goods",
            "type":"Retail Goods"
        }
    ],
    "sg:owner":"simplegeo",
    "sg:phone":"+1 804 632 1111",
    "sg:postcode":"22546",
    "sg:province":"VA",
    "sg:tags":[
        "small",
        "mfg",
        "arms",
        "gun",
        "gunsmith"
    ],
    "src:geom":"simplegeo",
    "wof:belongsto":[],
    "wof:breaches":[],
    "wof:concordances":{
        "sg:id":"SG_78Qk35lSlOCx2ZKUAuBlDM_37.974786_-77.391042@1294252573"
    },
    "wof:country":"US",
    "wof:created":1461899150,
    "wof:geomhash":"ad6143af5978600b3e42d1e7389e43c0",
    "wof:hierarchy":[],
    "wof:id":723304425,
    "wof:lastmodified":1461899150,
    "wof:name":"Conring Precision Weapon Systs",
    "wof:parent_id":-1,
    "wof:placetype":"venue",
    "wof:superseded_by":[],
    "wof:supersedes":[],
    "wof:tags":[
        "small",
        "mfg",
        "arms",
        "gun",
        "gunsmith"
    ]
},
  "bbox": [
    -77.391042,
    37.974786,
    -77.391042,
    37.974786
],
  "geometry": {"coordinates":[-77.391042,37.974786],"type":"Point"}
}