{
  "id": 723439967,
  "type": "Feature",
  "properties": {
    "edtf:cessation":"uuuu",
    "edtf:inception":"uuuu",
    "geom:area":0.0,
    "geom:bbox":"-77.416447,38.82859,-77.416447,38.82859",
    "geom:latitude":38.82859,
    "geom:longitude":-77.416447,
    "iso:country":"US",
    "sg:address":"13680 Wildflower Ln",
    "sg:city":"Clifton",
    "sg:classifiers":[
        {
            "category":"Professional",
            "subcategory":"",
            "type":"Services"
        }
    ],
    "sg:owner":"simplegeo",
    "sg:phone":"+1 703 250 0117",
    "sg:postcode":"20124",
    "sg:province":"VA",
    "src:geom":"simplegeo",
    "wof:belongsto":[],
    "wof:breaches":[],
    "wof:concordances":{
        "sg:id":"SG_32n8WJZyJruumBF9DEEv63_38.828590_-77.416447@1294252573"
    },
    "wof:country":"US",
    "wof:created":1461901762,
    "wof:geomhash":"a5510396251be5835a697c373b1474ef",
    "wof:hierarchy":[],
    "wof:id":723439967,
    "wof:lastmodified":1461901762,
    "wof:name":"CJ Brules Inc",
    "wof:parent_id":-1,
    "wof:placetype":"venue",
    "wof:superseded_by":[],
    "wof:supersedes":[],
    "wof:tags":[]
},
  "bbox": [
    -77.416447,
    38.82859,
    -77.416447,
    38.82859
],
  "geometry": {"coordinates":[-77.41644700000001,38.82859],"type":"Point"}
}