{
  "id": 722605499,
  "type": "Feature",
  "properties": {
    "edtf:cessation":"uuuu",
    "edtf:inception":"uuuu",
    "geom:area":0.0,
    "geom:bbox":"-78.526815,36.83983,-78.526815,36.83983",
    "geom:latitude":36.83983,
    "geom:longitude":-78.526815,
    "iso:country":"US",
    "sg:address":"737 Estes Rd",
    "sg:city":"Chase City",
    "sg:classifiers":[
        {
            "category":"Manufacturing",
            "subcategory":"Apparel",
            "type":"Manufacturing & Wholesale Goods"
        }
    ],
    "sg:owner":"simplegeo",
    "sg:phone":"+1 434 372 0729",
    "sg:postcode":"23924",
    "sg:province":"VA",
    "src:geom":"simplegeo",
    "wof:belongsto":[],
    "wof:breaches":[],
    "wof:concordances":{
        "sg:id":"SG_5MsjLv40REaZim5w3sJODF_36.839830_-78.526815@1294252573"
    },
    "wof:country":"US",
    "wof:created":1461885087,
    "wof:geomhash":"cf2107adfa6cd85feb8d1d28b89ba0f6",
    "wof:hierarchy":[],
    "wof:id":722605499,
    "wof:lastmodified":1461885087,
    "wof:name":"Country Patches",
    "wof:parent_id":-1,
    "wof:placetype":"venue",
    "wof:superseded_by":[],
    "wof:supersedes":[],
    "wof:tags":[]
},
  "bbox": [
    -78.526815,
    36.83983,
    -78.526815,
    36.83983
],
  "geometry": {"coordinates":[-78.526815,36.83983],"type":"Point"}
}