{
  "id": 722746633,
  "type": "Feature",
  "properties": {
    "edtf:cessation":"uuuu",
    "edtf:inception":"uuuu",
    "geom:area":0.0,
    "geom:bbox":"-80.877713,37.297607,-80.877713,37.297607",
    "geom:latitude":37.297607,
    "geom:longitude":-80.877713,
    "iso:country":"US",
    "sg:address":"142 Penvir Rd",
    "sg:city":"Narrows",
    "sg:classifiers":[
        {
            "category":"Organizations",
            "subcategory":"Professional Association",
            "type":"Services"
        }
    ],
    "sg:owner":"simplegeo",
    "sg:phone":"+1 540 726 3870",
    "sg:postcode":"24124",
    "sg:province":"VA",
    "sg:tags":[
        "business",
        "trade"
    ],
    "src:geom":"simplegeo",
    "wof:belongsto":[],
    "wof:breaches":[],
    "wof:concordances":{
        "sg:id":"SG_43JmhwycSkaNP9KqAfMWkm_37.297607_-80.877713@1294252573"
    },
    "wof:country":"US",
    "wof:created":1461887875,
    "wof:geomhash":"1cde2948337c8e5e04cf9349436e8df3",
    "wof:hierarchy":[],
    "wof:id":722746633,
    "wof:lastmodified":1461887875,
    "wof:name":"Wolfcreek Puritan Club",
    "wof:parent_id":-1,
    "wof:placetype":"venue",
    "wof:superseded_by":[],
    "wof:supersedes":[],
    "wof:tags":[
        "business",
        "trade"
    ]
},
  "bbox": [
    -80.877713,
    37.297607,
    -80.877713,
    37.297607
],
  "geometry": {"coordinates":[-80.877713,37.297607],"type":"Point"}
}