{
  "id": 739297291,
  "type": "Feature",
  "properties": {
    "edtf:cessation":"uuuu",
    "edtf:inception":"uuuu",
    "geom:area":0.0,
    "geom:bbox":"-79.965332,37.238894,-79.965332,37.238894",
    "geom:latitude":37.238894,
    "geom:longitude":-79.965332,
    "iso:country":"US",
    "sg:address":"3318 Avenham Ave SW",
    "sg:city":"Roanoke",
    "sg:classifiers":[
        {
            "category":"Real Estate",
            "subcategory":"Real Estate Operator",
            "type":"Services"
        }
    ],
    "sg:owner":"simplegeo",
    "sg:phone":"+1 540 343 9078",
    "sg:postcode":"24014",
    "sg:province":"VA",
    "sg:tags":[
        "building",
        "nonresidential"
    ],
    "src:geom":"simplegeo",
    "wof:belongsto":[],
    "wof:breaches":[],
    "wof:concordances":{
        "sg:id":"SG_5wWvSjnGYAA2G2z4ZivGsc_37.238894_-79.965332@1294252573"
    },
    "wof:country":"US",
    "wof:created":1461904506,
    "wof:geomhash":"058f0ab0fa966c42321b9c6974e9de4e",
    "wof:hierarchy":[],
    "wof:id":739297291,
    "wof:lastmodified":1461904506,
    "wof:name":"Hugh C Fisher and Associates",
    "wof:parent_id":-1,
    "wof:placetype":"venue",
    "wof:superseded_by":[],
    "wof:supersedes":[],
    "wof:tags":[
        "building",
        "nonresidential"
    ]
},
  "bbox": [
    -79.965332,
    37.238894,
    -79.965332,
    37.238894
],
  "geometry": {"coordinates":[-79.965332,37.238894],"type":"Point"}
}