{
  "id": 739502231,
  "type": "Feature",
  "properties": {
    "edtf:cessation":"uuuu",
    "edtf:inception":"uuuu",
    "geom:area":0.0,
    "geom:bbox":"-77.488551,38.248824,-77.488551,38.248824",
    "geom:latitude":38.248824,
    "geom:longitude":-77.488551,
    "iso:country":"US",
    "sg:address":"10621 S Ann Davis Dr",
    "sg:city":"Fredericksburg",
    "sg:classifiers":[
        {
            "category":"Home & Garden",
            "subcategory":"Garden Supply",
            "type":"Retail Goods"
        }
    ],
    "sg:owner":"simplegeo",
    "sg:phone":"+1 540 898 7602",
    "sg:postcode":"22408",
    "sg:province":"VA",
    "src:geom":"simplegeo",
    "wof:belongsto":[],
    "wof:breaches":[],
    "wof:concordances":{
        "sg:id":"SG_2XTjhkTXU0mAlL3f9JjPyW_38.248824_-77.488551@1294252573"
    },
    "wof:country":"US",
    "wof:created":1461908470,
    "wof:geomhash":"d36df5f9df8ec02caf80fb21b8ae8dca",
    "wof:hierarchy":[],
    "wof:id":739502231,
    "wof:lastmodified":1461908470,
    "wof:name":"Massaponax Gardens Inc",
    "wof:parent_id":-1,
    "wof:placetype":"venue",
    "wof:superseded_by":[],
    "wof:supersedes":[],
    "wof:tags":[]
},
  "bbox": [
    -77.488551,
    38.248824,
    -77.488551,
    38.248824
],
  "geometry": {"coordinates":[-77.488551,38.248824],"type":"Point"}
}