{
  "id": 723367099,
  "type": "Feature",
  "properties": {
    "edtf:cessation":"uuuu",
    "edtf:inception":"uuuu",
    "geom:area":0.0,
    "geom:bbox":"-77.293448,37.640612,-77.293448,37.640612",
    "geom:latitude":37.640612,
    "geom:longitude":-77.293448,
    "iso:country":"US",
    "sg:address":"5431 Pole Green Rd",
    "sg:city":"Mechanicsville",
    "sg:classifiers":[
        {
            "category":"Retail",
            "subcategory":"Auto Repair",
            "type":"Services"
        }
    ],
    "sg:owner":"simplegeo",
    "sg:phone":"+1 804 779 2096",
    "sg:postcode":"23116",
    "sg:province":"VA",
    "sg:tags":[
        "general"
    ],
    "src:geom":"simplegeo",
    "wof:belongsto":[],
    "wof:breaches":[],
    "wof:concordances":{
        "sg:id":"SG_6DKqpxQfjTA63mHUQCV4pA_37.640612_-77.293448@1294252573"
    },
    "wof:country":"US",
    "wof:created":1461900323,
    "wof:geomhash":"044c507a45611a7dfe2eaece5e26ed2b",
    "wof:hierarchy":[],
    "wof:id":723367099,
    "wof:lastmodified":1461900323,
    "wof:name":"Smithcraft",
    "wof:parent_id":-1,
    "wof:placetype":"venue",
    "wof:superseded_by":[],
    "wof:supersedes":[],
    "wof:tags":[
        "general"
    ]
},
  "bbox": [
    -77.293448,
    37.640612,
    -77.293448,
    37.640612
],
  "geometry": {"coordinates":[-77.293448,37.640612],"type":"Point"}
}