{
  "id": 722627555,
  "type": "Feature",
  "properties": {
    "edtf:cessation":"uuuu",
    "edtf:inception":"uuuu",
    "geom:area":0.0,
    "geom:bbox":"-82.047798,36.604909,-82.047798,36.604909",
    "geom:latitude":36.604909,
    "geom:longitude":-82.047798,
    "iso:country":"US",
    "sg:address":"24907 Gentry Pl",
    "sg:city":"Abingdon",
    "sg:classifiers":[
        {
            "category":"Retail",
            "subcategory":"Auto Repair",
            "type":"Services"
        }
    ],
    "sg:owner":"simplegeo",
    "sg:phone":"+1 276 669 6363",
    "sg:postcode":"24211",
    "sg:province":"VA",
    "sg:tags":[
        "body"
    ],
    "src:geom":"simplegeo",
    "wof:belongsto":[],
    "wof:breaches":[],
    "wof:concordances":{
        "sg:id":"SG_3n66isoIZHJxyr0lXzB4Yd_36.604909_-82.047798@1294252573"
    },
    "wof:country":"US",
    "wof:created":1461885546,
    "wof:geomhash":"e33da060eef43478891d398bcc9c4848",
    "wof:hierarchy":[],
    "wof:id":722627555,
    "wof:lastmodified":1461885546,
    "wof:name":"Gentry Stephen",
    "wof:parent_id":-1,
    "wof:placetype":"venue",
    "wof:superseded_by":[],
    "wof:supersedes":[],
    "wof:tags":[
        "body"
    ]
},
  "bbox": [
    -82.047798,
    36.604909,
    -82.047798,
    36.604909
],
  "geometry": {"coordinates":[-82.047798,36.604909],"type":"Point"}
}