{
  "id": 722697915,
  "type": "Feature",
  "properties": {
    "edtf:cessation":"uuuu",
    "edtf:inception":"uuuu",
    "geom:area":0.0,
    "geom:bbox":"-77.431826,37.425062,-77.431826,37.425062",
    "geom:latitude":37.425062,
    "geom:longitude":-77.431826,
    "iso:country":"US",
    "sg:address":"2556 Elliham Ave",
    "sg:city":"Richmond",
    "sg:classifiers":[
        {
            "category":"Retail",
            "subcategory":"Repair Shop",
            "type":"Services"
        }
    ],
    "sg:owner":"simplegeo",
    "sg:phone":"+1 804 743 4617",
    "sg:postcode":"23237",
    "sg:province":"VA",
    "sg:tags":[
        "taxidermist"
    ],
    "src:geom":"simplegeo",
    "wof:belongsto":[],
    "wof:breaches":[],
    "wof:concordances":{
        "sg:id":"SG_0Mh2sqblyJHw989CIZbDvN_37.425062_-77.431826@1294252573"
    },
    "wof:country":"US",
    "wof:created":1461886932,
    "wof:geomhash":"381d2cfc56cf387159d4c364547db834",
    "wof:hierarchy":[],
    "wof:id":722697915,
    "wof:lastmodified":1461886932,
    "wof:name":"Aquatics Creations Taxidermy",
    "wof:parent_id":-1,
    "wof:placetype":"venue",
    "wof:superseded_by":[],
    "wof:supersedes":[],
    "wof:tags":[
        "taxidermist"
    ]
},
  "bbox": [
    -77.431826,
    37.425062,
    -77.431826,
    37.425062
],
  "geometry": {"coordinates":[-77.431826,37.425062],"type":"Point"}
}