{
  "id": 739358745,
  "type": "Feature",
  "properties": {
    "edtf:cessation":"uuuu",
    "edtf:inception":"uuuu",
    "geom:area":0.0,
    "geom:bbox":"-77.261518,37.295054,-77.261518,37.295054",
    "geom:latitude":37.295054,
    "geom:longitude":-77.261518,
    "iso:country":"US",
    "sg:address":"201 Hummel Ross Rd",
    "sg:city":"Hopewell",
    "sg:classifiers":[
        {
            "category":"Retail",
            "subcategory":"Auto Repair",
            "type":"Services"
        }
    ],
    "sg:owner":"simplegeo",
    "sg:phone":"+1 804 541 0018",
    "sg:postcode":"23860",
    "sg:province":"VA",
    "sg:tags":[
        "bus"
    ],
    "src:geom":"simplegeo",
    "wof:belongsto":[],
    "wof:breaches":[],
    "wof:concordances":{
        "sg:id":"SG_0LpQSjIXPRKke7ZIJppy80_37.295054_-77.261518@1294252573"
    },
    "wof:country":"US",
    "wof:created":1461905789,
    "wof:geomhash":"b4e75e1a6b75320b5159b759b143fc97",
    "wof:hierarchy":[],
    "wof:id":739358745,
    "wof:lastmodified":1461905789,
    "wof:name":"Commonwealth Coach",
    "wof:parent_id":-1,
    "wof:placetype":"venue",
    "wof:superseded_by":[],
    "wof:supersedes":[],
    "wof:tags":[
        "bus"
    ]
},
  "bbox": [
    -77.261518,
    37.295054,
    -77.261518,
    37.295054
],
  "geometry": {"coordinates":[-77.261518,37.295054],"type":"Point"}
}