{
  "id": 739629731,
  "type": "Feature",
  "properties": {
    "edtf:cessation":"uuuu",
    "edtf:inception":"uuuu",
    "geom:area":0.0,
    "geom:bbox":"-77.22567,38.675301,-77.22567,38.675301",
    "geom:latitude":38.675301,
    "geom:longitude":-77.22567,
    "iso:country":"US",
    "sg:address":"10400 Old Colchester Rd",
    "sg:city":"Lorton",
    "sg:classifiers":[
        {
            "category":"Restaurant",
            "subcategory":"",
            "type":"Food & Drink"
        }
    ],
    "sg:owner":"simplegeo",
    "sg:phone":"+1 703 593 2223",
    "sg:postcode":"22079",
    "sg:province":"VA",
    "src:geom":"simplegeo",
    "wof:belongsto":[],
    "wof:breaches":[],
    "wof:concordances":{
        "sg:id":"SG_0guFeBMpQyGStKtGe6vI0t_38.675301_-77.225670@1303262538"
    },
    "wof:country":"US",
    "wof:created":1461911021,
    "wof:geomhash":"c9945bd3a049143d2de0ab26af657bb8",
    "wof:hierarchy":[],
    "wof:id":739629731,
    "wof:lastmodified":1461911021,
    "wof:name":"Champ Grill",
    "wof:parent_id":-1,
    "wof:placetype":"venue",
    "wof:superseded_by":[],
    "wof:supersedes":[],
    "wof:tags":[]
},
  "bbox": [
    -77.22567,
    38.675301,
    -77.22567,
    38.675301
],
  "geometry": {"coordinates":[-77.22566999999999,38.675301],"type":"Point"}
}