{
  "id": 723445243,
  "type": "Feature",
  "properties": {
    "edtf:cessation":"uuuu",
    "edtf:inception":"uuuu",
    "geom:area":0.0,
    "geom:bbox":"-77.327017,37.545379,-77.327017,37.545379",
    "geom:latitude":37.545379,
    "geom:longitude":-77.327017,
    "iso:country":"US",
    "sg:address":"2 E Nine Mile Rd",
    "sg:city":"Highland Springs",
    "sg:classifiers":[
        {
            "category":"Freight",
            "subcategory":"",
            "type":"Transportation"
        }
    ],
    "sg:owner":"simplegeo",
    "sg:phone":"+1 804 737 2788",
    "sg:postcode":"23075",
    "sg:province":"VA",
    "sg:tags":[
        "broker",
        "customs"
    ],
    "src:geom":"simplegeo",
    "wof:belongsto":[],
    "wof:breaches":[],
    "wof:concordances":{
        "sg:id":"SG_6B6HIuYRku2UbGgExq3usG_37.545379_-77.327017@1294252573"
    },
    "wof:country":"US",
    "wof:created":1461901856,
    "wof:geomhash":"dd8d8256e9ce97decf48345b0a37fbe6",
    "wof:hierarchy":[],
    "wof:id":723445243,
    "wof:lastmodified":1461901856,
    "wof:name":"Gary G Flower Customs Brokers",
    "wof:parent_id":-1,
    "wof:placetype":"venue",
    "wof:superseded_by":[],
    "wof:supersedes":[],
    "wof:tags":[
        "broker",
        "customs"
    ]
},
  "bbox": [
    -77.327017,
    37.545379,
    -77.327017,
    37.545379
],
  "geometry": {"coordinates":[-77.327017,37.545379],"type":"Point"}
}