{
  "id": 723096307,
  "type": "Feature",
  "properties": {
    "edtf:cessation":"uuuu",
    "edtf:inception":"uuuu",
    "geom:area":0.0,
    "geom:bbox":"-77.472212,37.490505,-77.472212,37.490505",
    "geom:latitude":37.490505,
    "geom:longitude":-77.472212,
    "iso:country":"US",
    "sg:address":"1800 Broad Rock Blvd",
    "sg:city":"Richmond",
    "sg:classifiers":[
        {
            "category":"Restaurant",
            "subcategory":"",
            "type":"Food & Drink"
        }
    ],
    "sg:owner":"simplegeo",
    "sg:phone":"+1 804 233 2005",
    "sg:postcode":"23224",
    "sg:province":"VA",
    "sg:tags":[
        "eating"
    ],
    "src:geom":"simplegeo",
    "wof:belongsto":[],
    "wof:breaches":[],
    "wof:concordances":{
        "sg:id":"SG_30DlNxUTgkZgECW8jHIppR_37.490505_-77.472212@1294252573"
    },
    "wof:country":"US",
    "wof:created":1461895046,
    "wof:geomhash":"3443d98fa56b5d889ebbec182d40a0f3",
    "wof:hierarchy":[],
    "wof:id":723096307,
    "wof:lastmodified":1461895046,
    "wof:name":"China Garden Restaurant",
    "wof:parent_id":-1,
    "wof:placetype":"venue",
    "wof:superseded_by":[],
    "wof:supersedes":[],
    "wof:tags":[
        "eating"
    ]
},
  "bbox": [
    -77.472212,
    37.490505,
    -77.472212,
    37.490505
],
  "geometry": {"coordinates":[-77.472212,37.490505],"type":"Point"}
}