{
  "id": 722680655,
  "type": "Feature",
  "properties": {
    "edtf:cessation":"uuuu",
    "edtf:inception":"uuuu",
    "geom:area":0.0,
    "geom:bbox":"-77.400707,37.232803,-77.400707,37.232803",
    "geom:latitude":37.232803,
    "geom:longitude":-77.400707,
    "iso:country":"US",
    "sg:address":"201 Bollingbrook St",
    "sg:city":"Petersburg",
    "sg:classifiers":[
        {
            "category":"Wholesale",
            "subcategory":"Farm Supplies",
            "type":"Manufacturing & Wholesale Goods"
        }
    ],
    "sg:owner":"simplegeo",
    "sg:phone":"+1 804 733 4861",
    "sg:postcode":"23803",
    "sg:province":"VA",
    "sg:tags":[
        "merchandise"
    ],
    "src:geom":"simplegeo",
    "wof:belongsto":[],
    "wof:breaches":[],
    "wof:concordances":{
        "sg:id":"SG_10mbKjIapsemTR1dehHeUr_37.232803_-77.400707@1294252573"
    },
    "wof:country":"US",
    "wof:created":1461886591,
    "wof:geomhash":"78969abfd2ed983c15cc824884f87888",
    "wof:hierarchy":[],
    "wof:id":722680655,
    "wof:lastmodified":1461886591,
    "wof:name":"Heretick Feed & Seed Co",
    "wof:parent_id":-1,
    "wof:placetype":"venue",
    "wof:superseded_by":[],
    "wof:supersedes":[],
    "wof:tags":[
        "merchandise"
    ]
},
  "bbox": [
    -77.400707,
    37.232803,
    -77.400707,
    37.232803
],
  "geometry": {"coordinates":[-77.400707,37.232803],"type":"Point"}
}