{
  "id": 723327625,
  "type": "Feature",
  "properties": {
    "edtf:cessation":"uuuu",
    "edtf:inception":"uuuu",
    "geom:area":0.0,
    "geom:bbox":"-77.879254,37.317929,-77.879254,37.317929",
    "geom:latitude":37.317929,
    "geom:longitude":-77.879254,
    "iso:country":"US",
    "sg:address":"11500 Bevils Bridge Rd",
    "sg:city":"Amelia Court House",
    "sg:classifiers":[
        {
            "category":"Building & Trades",
            "subcategory":"Construction",
            "type":"Services"
        }
    ],
    "sg:owner":"simplegeo",
    "sg:phone":"+1 804 561 4159",
    "sg:postcode":"23002",
    "sg:province":"VA",
    "sg:tags":[
        "home",
        "family"
    ],
    "src:geom":"simplegeo",
    "wof:belongsto":[],
    "wof:breaches":[],
    "wof:concordances":{
        "sg:id":"SG_2NnRR6pCzVjE874HatGrZR_37.317929_-77.879254@1294252573"
    },
    "wof:country":"US",
    "wof:created":1461899585,
    "wof:geomhash":"65a2130c113be1ea106e586d0998c787",
    "wof:hierarchy":[],
    "wof:id":723327625,
    "wof:lastmodified":1461899585,
    "wof:name":"Town & Country Construction",
    "wof:parent_id":-1,
    "wof:placetype":"venue",
    "wof:superseded_by":[],
    "wof:supersedes":[],
    "wof:tags":[
        "home",
        "family"
    ]
},
  "bbox": [
    -77.879254,
    37.317929,
    -77.879254,
    37.317929
],
  "geometry": {"coordinates":[-77.879254,37.317929],"type":"Point"}
}