{
  "id": 722587789,
  "type": "Feature",
  "properties": {
    "edtf:cessation":"uuuu",
    "edtf:inception":"uuuu",
    "geom:area":0.0,
    "geom:bbox":"-77.564647,37.493602,-77.564647,37.493602",
    "geom:latitude":37.493602,
    "geom:longitude":-77.564647,
    "iso:country":"US",
    "sg:address":"300 Arboretum Pl",
    "sg:city":"Richmond",
    "sg:classifiers":[
        {
            "category":"Banks & Credit Unions",
            "subcategory":"Investment Brokerage",
            "type":"Services"
        }
    ],
    "sg:owner":"simplegeo",
    "sg:phone":"+1 804 323 8120",
    "sg:postcode":"23236",
    "sg:province":"VA",
    "sg:tags":[
        "advisory",
        "security",
        "financial"
    ],
    "src:geom":"simplegeo",
    "wof:belongsto":[],
    "wof:breaches":[],
    "wof:concordances":{
        "sg:id":"SG_21EtpSvE6u8JOgGuPHKCLv_37.493602_-77.564647@1294252573"
    },
    "wof:country":"US",
    "wof:created":1461884752,
    "wof:geomhash":"3f51779e95b73f0187c99f824bbaee3b",
    "wof:hierarchy":[],
    "wof:id":722587789,
    "wof:lastmodified":1461884752,
    "wof:name":"Fidelity Investments Instnl",
    "wof:parent_id":-1,
    "wof:placetype":"venue",
    "wof:superseded_by":[],
    "wof:supersedes":[],
    "wof:tags":[
        "advisory",
        "security",
        "financial"
    ]
},
  "bbox": [
    -77.564647,
    37.493602,
    -77.564647,
    37.493602
],
  "geometry": {"coordinates":[-77.56464699999999,37.493602],"type":"Point"}
}