{
  "id": 739720273,
  "type": "Feature",
  "properties": {
    "edtf:cessation":"uuuu",
    "edtf:inception":"uuuu",
    "geom:area":0.0,
    "geom:bbox":"-77.567352,37.603748,-77.567352,37.603748",
    "geom:latitude":37.603748,
    "geom:longitude":-77.567352,
    "iso:country":"US",
    "sg:address":"8700 Quioccasin Rd",
    "sg:city":"Henrico",
    "sg:classifiers":[
        {
            "category":"Shopping",
            "subcategory":"Hobbies, Toys, & Games",
            "type":"Retail Goods"
        },
        {
            "category":"Shopping",
            "subcategory":"Crafts & Fabrics",
            "type":"Retail Goods"
        }
    ],
    "sg:owner":"simplegeo",
    "sg:phone":"+1 804 740 6116",
    "sg:postcode":"23229",
    "sg:province":"VA",
    "sg:tags":[
        "toy",
        "art",
        "store",
        "supply"
    ],
    "sg:website":"http://www.toysrus.com",
    "src:geom":"simplegeo",
    "wof:belongsto":[],
    "wof:breaches":[],
    "wof:concordances":{
        "sg:id":"SG_2AOtdHzp1eLAdKI3hshO8R_37.603748_-77.567352@1303262550"
    },
    "wof:country":"US",
    "wof:created":1461913001,
    "wof:geomhash":"cb8aacbd86e994d31efad21ef0ee7cce",
    "wof:hierarchy":[],
    "wof:id":739720273,
    "wof:lastmodified":1461913001,
    "wof:name":"Toys \"R\" Us",
    "wof:parent_id":-1,
    "wof:placetype":"venue",
    "wof:superseded_by":[],
    "wof:supersedes":[],
    "wof:tags":[
        "toy",
        "art",
        "store",
        "supply"
    ]
},
  "bbox": [
    -77.567352,
    37.603748,
    -77.567352,
    37.603748
],
  "geometry": {"coordinates":[-77.567352,37.603748],"type":"Point"}
}