{
  "id": 739422871,
  "type": "Feature",
  "properties": {
    "edtf:cessation":"uuuu",
    "edtf:inception":"uuuu",
    "geom:area":0.0,
    "geom:bbox":"-77.434634,38.807444,-77.434634,38.807444",
    "geom:latitude":38.807444,
    "geom:longitude":-77.434634,
    "iso:country":"US",
    "sg:address":"6855 Compton Heights Cir",
    "sg:city":"Clifton",
    "sg:classifiers":[
        {
            "category":"Insurance",
            "subcategory":"Insurance Agent",
            "type":"Services"
        }
    ],
    "sg:owner":"simplegeo",
    "sg:phone":"+1 703 818 2502",
    "sg:postcode":"20124",
    "sg:province":"VA",
    "sg:website":"www.weidercompany.com",
    "src:geom":"simplegeo",
    "wof:belongsto":[],
    "wof:breaches":[],
    "wof:concordances":{
        "sg:id":"SG_1xWv0UM7lIxpJ19vspOsew_38.807444_-77.434634@1294252573"
    },
    "wof:country":"US",
    "wof:created":1461907024,
    "wof:geomhash":"8b35831e2de6d0ad849b60226add3d57",
    "wof:hierarchy":[],
    "wof:id":739422871,
    "wof:lastmodified":1461907024,
    "wof:name":"Weider & Co",
    "wof:parent_id":-1,
    "wof:placetype":"venue",
    "wof:superseded_by":[],
    "wof:supersedes":[],
    "wof:tags":[]
},
  "bbox": [
    -77.434634,
    38.807444,
    -77.434634,
    38.807444
],
  "geometry": {"coordinates":[-77.434634,38.807444],"type":"Point"}
}