{
  "id": 723259785,
  "type": "Feature",
  "properties": {
    "edtf:cessation":"uuuu",
    "edtf:inception":"uuuu",
    "geom:area":0.0,
    "geom:bbox":"-78.130881,36.724583,-78.130881,36.724583",
    "geom:latitude":36.724583,
    "geom:longitude":-78.130881,
    "iso:country":"US",
    "sg:address":"118 S Hill Ave",
    "sg:city":"South Hill",
    "sg:classifiers":[
        {
            "category":"Shopping",
            "subcategory":"Clothing, Apparel, & Fashions",
            "type":"Retail Goods"
        }
    ],
    "sg:owner":"simplegeo",
    "sg:phone":"+1 434 447 2228",
    "sg:postcode":"23970",
    "sg:province":"VA",
    "src:geom":"simplegeo",
    "wof:belongsto":[],
    "wof:breaches":[],
    "wof:concordances":{
        "sg:id":"SG_3zKf5XKFRe3W0LY43aI1XQ_36.724583_-78.130881@1294252573"
    },
    "wof:country":"US",
    "wof:created":1461898301,
    "wof:geomhash":"1f998e88375e58d940e9b2859def1861",
    "wof:hierarchy":[],
    "wof:id":723259785,
    "wof:lastmodified":1461898301,
    "wof:name":"East Coast Fashion",
    "wof:parent_id":-1,
    "wof:placetype":"venue",
    "wof:superseded_by":[],
    "wof:supersedes":[],
    "wof:tags":[]
},
  "bbox": [
    -78.130881,
    36.724583,
    -78.130881,
    36.724583
],
  "geometry": {"coordinates":[-78.130881,36.724583],"type":"Point"}
}