{
  "id": 723431609,
  "type": "Feature",
  "properties": {
    "edtf:cessation":"uuuu",
    "edtf:inception":"uuuu",
    "geom:area":0.0,
    "geom:bbox":"-77.276451,38.871156,-77.276451,38.871156",
    "geom:latitude":38.871156,
    "geom:longitude":-77.276451,
    "iso:country":"US",
    "sg:address":"9615 Lindenbrook St",
    "sg:city":"Fairfax",
    "sg:classifiers":[
        {
            "category":"Building & Trades",
            "subcategory":"Construction",
            "type":"Services"
        }
    ],
    "sg:owner":"simplegeo",
    "sg:phone":"+1 703 255 2644",
    "sg:postcode":"22031",
    "sg:province":"VA",
    "sg:tags":[
        "house"
    ],
    "src:geom":"simplegeo",
    "wof:belongsto":[],
    "wof:breaches":[],
    "wof:concordances":{
        "sg:id":"SG_7UeDAghCYvdxbGUCsUeAcq_38.871156_-77.276451@1294252573"
    },
    "wof:country":"US",
    "wof:created":1461901596,
    "wof:geomhash":"e4dffa77d78449e05fcff552808f2ebc",
    "wof:hierarchy":[],
    "wof:id":723431609,
    "wof:lastmodified":1461901596,
    "wof:name":"James Cobb Construction Inc",
    "wof:parent_id":-1,
    "wof:placetype":"venue",
    "wof:superseded_by":[],
    "wof:supersedes":[],
    "wof:tags":[
        "house"
    ]
},
  "bbox": [
    -77.276451,
    38.871156,
    -77.276451,
    38.871156
],
  "geometry": {"coordinates":[-77.27645099999999,38.871156],"type":"Point"}
}