{
  "id": 739695097,
  "type": "Feature",
  "properties": {
    "edtf:cessation":"uuuu",
    "edtf:inception":"uuuu",
    "geom:area":0.0,
    "geom:bbox":"-77.446533,38.474419,-77.446533,38.474419",
    "geom:latitude":38.474419,
    "geom:longitude":-77.446533,
    "iso:country":"US",
    "sg:address":"100 Lark Ln",
    "sg:city":"Stafford",
    "sg:classifiers":[],
    "sg:owner":"simplegeo",
    "sg:phone":"+1 540 318 5346",
    "sg:postcode":"22556",
    "sg:province":"VA",
    "src:geom":"simplegeo",
    "wof:belongsto":[],
    "wof:breaches":[],
    "wof:concordances":{
        "sg:id":"SG_1kzbqvKZUoIceob5BWiJqv_38.474419_-77.446533@1303262547"
    },
    "wof:country":"US",
    "wof:created":1461912446,
    "wof:geomhash":"0e45d44660493dbf532e86a33f9118b4",
    "wof:hierarchy":[],
    "wof:id":739695097,
    "wof:lastmodified":1461912446,
    "wof:name":"610 Taxi",
    "wof:parent_id":420547099,
    "wof:placetype":"venue",
    "wof:superseded_by":[],
    "wof:supersedes":[],
    "wof:tags":[]
},
  "bbox": [
    -77.446533,
    38.474419,
    -77.446533,
    38.474419
],
  "geometry": {"coordinates":[-77.446533,38.474419],"type":"Point"}
}