{
  "id": 722696917,
  "type": "Feature",
  "properties": {
    "edtf:cessation":"uuuu",
    "edtf:inception":"uuuu",
    "geom:area":0.0,
    "geom:bbox":"-78.165206,39.186518,-78.165206,39.186518",
    "geom:latitude":39.186518,
    "geom:longitude":-78.165206,
    "iso:country":"US",
    "sg:address":"28 W Piccadilly St",
    "sg:city":"Winchester",
    "sg:classifiers":[
        {
            "category":"Travel",
            "subcategory":"Hotels & Motels",
            "type":"Entertainment"
        }
    ],
    "sg:owner":"simplegeo",
    "sg:phone":"+1 540 723 6723",
    "sg:postcode":"22601",
    "sg:province":"VA",
    "src:geom":"simplegeo",
    "wof:belongsto":[],
    "wof:breaches":[],
    "wof:concordances":{
        "sg:id":"SG_4Ta4Kg7ZljTBwPMyVPu21P_39.186518_-78.165206@1294252573"
    },
    "wof:country":"US",
    "wof:created":1461886913,
    "wof:geomhash":"ffbe6bd2ca19f921aa373ad0f94dcc96",
    "wof:hierarchy":[],
    "wof:id":722696917,
    "wof:lastmodified":1461886913,
    "wof:name":"Old Taylor Hotel",
    "wof:parent_id":-1,
    "wof:placetype":"venue",
    "wof:superseded_by":[],
    "wof:supersedes":[],
    "wof:tags":[]
},
  "bbox": [
    -78.165206,
    39.186518,
    -78.165206,
    39.186518
],
  "geometry": {"coordinates":[-78.165206,39.186518],"type":"Point"}
}