{
  "id": 739417849,
  "type": "Feature",
  "properties": {
    "edtf:cessation":"uuuu",
    "edtf:inception":"uuuu",
    "geom:area":0.0,
    "geom:bbox":"-76.495863,37.267305,-76.495863,37.267305",
    "geom:latitude":37.267305,
    "geom:longitude":-76.495863,
    "iso:country":"US",
    "sg:address":"2118 Hayes Rd",
    "sg:city":"Hayes",
    "sg:classifiers":[
        {
            "category":"Building & Trades",
            "subcategory":"Construction",
            "type":"Services"
        }
    ],
    "sg:owner":"simplegeo",
    "sg:phone":"+1 804 642 2419",
    "sg:postcode":"23072",
    "sg:province":"VA",
    "sg:tags":[
        "house"
    ],
    "src:geom":"simplegeo",
    "wof:belongsto":[],
    "wof:breaches":[],
    "wof:concordances":{
        "sg:id":"SG_6GfUMb1MfO15Y7tMRIeURX_37.267305_-76.495863@1294252573"
    },
    "wof:country":"US",
    "wof:created":1461906910,
    "wof:geomhash":"88d17c82e85874684c7cd974220d5d2b",
    "wof:hierarchy":[],
    "wof:id":739417849,
    "wof:lastmodified":1461906910,
    "wof:name":"Kathys Home Improvements Inc",
    "wof:parent_id":-1,
    "wof:placetype":"venue",
    "wof:superseded_by":[],
    "wof:supersedes":[],
    "wof:tags":[
        "house"
    ]
},
  "bbox": [
    -76.495863,
    37.267305,
    -76.495863,
    37.267305
],
  "geometry": {"coordinates":[-76.495863,37.267305],"type":"Point"}
}