{
  "id": 723177255,
  "type": "Feature",
  "properties": {
    "edtf:cessation":"uuuu",
    "edtf:inception":"uuuu",
    "geom:area":0.0,
    "geom:bbox":"-77.494769,38.248051,-77.494769,38.248051",
    "geom:latitude":38.248051,
    "geom:longitude":-77.494769,
    "iso:country":"US",
    "sg:address":"10703 Spotsylvania Ave",
    "sg:city":"Fredericksburg",
    "sg:classifiers":[
        {
            "category":"Health Services",
            "subcategory":"Doctor",
            "type":"Services"
        }
    ],
    "sg:owner":"simplegeo",
    "sg:phone":"+1 540 891 7379",
    "sg:postcode":"22408",
    "sg:province":"VA",
    "sg:tags":[
        "clinic",
        "medical"
    ],
    "src:geom":"simplegeo",
    "wof:belongsto":[],
    "wof:breaches":[],
    "wof:concordances":{
        "sg:id":"SG_0vWlBt8vLCE9r5np3fQPWc_38.248051_-77.494769@1294252573"
    },
    "wof:country":"US",
    "wof:created":1461896628,
    "wof:geomhash":"029d2ce55e8c5e69257e5b41bc819dee",
    "wof:hierarchy":[],
    "wof:id":723177255,
    "wof:lastmodified":1461896628,
    "wof:name":"Day Jeffrey DDS PC",
    "wof:parent_id":-1,
    "wof:placetype":"venue",
    "wof:superseded_by":[],
    "wof:supersedes":[],
    "wof:tags":[
        "clinic",
        "medical"
    ]
},
  "bbox": [
    -77.494769,
    38.248051,
    -77.494769,
    38.248051
],
  "geometry": {"coordinates":[-77.49476900000001,38.248051],"type":"Point"}
}