{
  "id": 723141619,
  "type": "Feature",
  "properties": {
    "edtf:cessation":"uuuu",
    "edtf:inception":"uuuu",
    "geom:area":0.0,
    "geom:bbox":"-76.291569,36.569417,-76.291569,36.569417",
    "geom:latitude":36.569417,
    "geom:longitude":-76.291569,
    "iso:country":"US",
    "sg:address":"3856 Campbell Rd",
    "sg:city":"Chesapeake",
    "sg:classifiers":[
        {
            "category":"Retail",
            "subcategory":"Repair Shop",
            "type":"Services"
        }
    ],
    "sg:owner":"simplegeo",
    "sg:phone":"+1 757 421 7388",
    "sg:postcode":"23322",
    "sg:province":"VA",
    "src:geom":"simplegeo",
    "wof:belongsto":[],
    "wof:breaches":[],
    "wof:concordances":{
        "sg:id":"SG_4rNBuSqCusGSH8BlXhmdBS_36.569417_-76.291569@1294252573"
    },
    "wof:country":"US",
    "wof:created":1461895929,
    "wof:geomhash":"6609e1766524a875f987c0294cf02145",
    "wof:hierarchy":[],
    "wof:id":723141619,
    "wof:lastmodified":1461895929,
    "wof:name":"Temple Equipment Services Inc",
    "wof:parent_id":-1,
    "wof:placetype":"venue",
    "wof:superseded_by":[],
    "wof:supersedes":[],
    "wof:tags":[]
},
  "bbox": [
    -76.291569,
    36.569417,
    -76.291569,
    36.569417
],
  "geometry": {"coordinates":[-76.291569,36.569417],"type":"Point"}
}