{
  "id": 739391153,
  "type": "Feature",
  "properties": {
    "edtf:cessation":"uuuu",
    "edtf:inception":"uuuu",
    "geom:area":0.0,
    "geom:bbox":"-76.362994,37.554772,-76.362994,37.554772",
    "geom:latitude":37.554772,
    "geom:longitude":-76.362994,
    "iso:country":"US",
    "sg:address":"15924 General Puller Hwy",
    "sg:city":"Deltaville",
    "sg:classifiers":[
        {
            "category":"Organizations",
            "subcategory":"Religious Organization",
            "type":"Services"
        }
    ],
    "sg:owner":"simplegeo",
    "sg:phone":"+1 804 776 6060",
    "sg:postcode":"23043",
    "sg:province":"VA",
    "sg:tags":[
        "church"
    ],
    "src:geom":"simplegeo",
    "wof:belongsto":[],
    "wof:breaches":[],
    "wof:concordances":{
        "sg:id":"SG_6d3EWb8PC7llNZkSJhHuay_37.554772_-76.362994@1294252573"
    },
    "wof:country":"US",
    "wof:created":1461906408,
    "wof:geomhash":"f0798fa3839e0967c52f569823263060",
    "wof:hierarchy":[],
    "wof:id":739391153,
    "wof:lastmodified":1461906408,
    "wof:name":"Clarksbury United Methodist",
    "wof:parent_id":-1,
    "wof:placetype":"venue",
    "wof:superseded_by":[],
    "wof:supersedes":[],
    "wof:tags":[
        "church"
    ]
},
  "bbox": [
    -76.362994,
    37.554772,
    -76.362994,
    37.554772
],
  "geometry": {"coordinates":[-76.362994,37.554772],"type":"Point"}
}