{
  "id": 739332093,
  "type": "Feature",
  "properties": {
    "edtf:cessation":"uuuu",
    "edtf:inception":"uuuu",
    "geom:area":0.0,
    "geom:bbox":"-77.511719,39.213059,-77.511719,39.213059",
    "geom:latitude":39.213059,
    "geom:longitude":-77.511719,
    "iso:country":"US",
    "sg:address":"14526 Chapel Ln",
    "sg:city":"Leesburg",
    "sg:classifiers":[
        {
            "category":"Recreation",
            "subcategory":"",
            "type":"Entertainment"
        }
    ],
    "sg:owner":"simplegeo",
    "sg:phone":"+1 703 737 6903",
    "sg:postcode":"20176",
    "sg:province":"VA",
    "src:geom":"simplegeo",
    "wof:belongsto":[],
    "wof:breaches":[],
    "wof:concordances":{
        "sg:id":"SG_0K9TSVcwWLdHEqkzotaqku_39.213059_-77.511719@1294252573"
    },
    "wof:country":"US",
    "wof:created":1461905218,
    "wof:geomhash":"3faf9dcf84e1032087c670aab0ca68cc",
    "wof:hierarchy":[],
    "wof:id":739332093,
    "wof:lastmodified":1461905218,
    "wof:name":"Desiderata Farm",
    "wof:parent_id":-1,
    "wof:placetype":"venue",
    "wof:superseded_by":[],
    "wof:supersedes":[],
    "wof:tags":[]
},
  "bbox": [
    -77.511719,
    39.213059,
    -77.511719,
    39.213059
],
  "geometry": {"coordinates":[-77.511719,39.213059],"type":"Point"}
}