{
  "id": 739387717,
  "type": "Feature",
  "properties": {
    "edtf:cessation":"uuuu",
    "edtf:inception":"uuuu",
    "geom:area":0.0,
    "geom:bbox":"-78.984424,38.10682,-78.984424,38.10682",
    "geom:latitude":38.10682,
    "geom:longitude":-78.984424,
    "iso:country":"US",
    "sg:address":"1595 Jefferson Hwy",
    "sg:city":"Fishersville",
    "sg:classifiers":[
        {
            "category":"Government",
            "subcategory":"Post Office",
            "type":"Public Place"
        }
    ],
    "sg:owner":"simplegeo",
    "sg:phone":"+1 540 942 7310",
    "sg:postcode":"22939",
    "sg:province":"VA",
    "sg:website":"www.usps.com",
    "src:geom":"simplegeo",
    "wof:belongsto":[],
    "wof:breaches":[],
    "wof:concordances":{
        "sg:id":"SG_3odpJc5tccDz1Bwz7xsL1u_38.106820_-78.984424@1294252573"
    },
    "wof:country":"US",
    "wof:created":1461906352,
    "wof:geomhash":"8523586001196ef75393d0c2da7e6435",
    "wof:hierarchy":[],
    "wof:id":739387717,
    "wof:lastmodified":1461906352,
    "wof:name":"US Post Office",
    "wof:parent_id":-1,
    "wof:placetype":"venue",
    "wof:superseded_by":[],
    "wof:supersedes":[],
    "wof:tags":[]
},
  "bbox": [
    -78.984424,
    38.10682,
    -78.984424,
    38.10682
],
  "geometry": {"coordinates":[-78.984424,38.10682],"type":"Point"}
}