{
  "id": 723303859,
  "type": "Feature",
  "properties": {
    "edtf:cessation":"uuuu",
    "edtf:inception":"uuuu",
    "geom:area":0.0,
    "geom:bbox":"-79.889869,36.992196,-79.889869,36.992196",
    "geom:latitude":36.992196,
    "geom:longitude":-79.889869,
    "iso:country":"US",
    "sg:address":"620 S Main St",
    "sg:city":"Rocky Mount",
    "sg:classifiers":[
        {
            "category":"Insurance",
            "subcategory":"Insurance Agent",
            "type":"Services"
        }
    ],
    "sg:owner":"simplegeo",
    "sg:phone":"+1 540 483 5121",
    "sg:postcode":"24151",
    "sg:province":"VA",
    "src:geom":"simplegeo",
    "wof:belongsto":[],
    "wof:breaches":[],
    "wof:concordances":{
        "sg:id":"SG_7L53HO2n1FvTxhZcQrrC5V_36.992196_-79.889869@1294252573"
    },
    "wof:country":"US",
    "wof:created":1461899133,
    "wof:geomhash":"ac806a1ebb97d796d6d6ac90db5f3183",
    "wof:hierarchy":[],
    "wof:id":723303859,
    "wof:lastmodified":1461899133,
    "wof:name":"Hogue Insurance",
    "wof:parent_id":-1,
    "wof:placetype":"venue",
    "wof:superseded_by":[],
    "wof:supersedes":[],
    "wof:tags":[]
},
  "bbox": [
    -79.889869,
    36.992196,
    -79.889869,
    36.992196
],
  "geometry": {"coordinates":[-79.889869,36.992196],"type":"Point"}
}