{
  "id": 722705875,
  "type": "Feature",
  "properties": {
    "edtf:cessation":"uuuu",
    "edtf:inception":"uuuu",
    "geom:area":0.0,
    "geom:bbox":"-81.522191,37.1258,-81.522191,37.1258",
    "geom:latitude":37.1258,
    "geom:longitude":-81.522191,
    "iso:country":"US",
    "sg:address":"727 Tazewell Ave",
    "sg:city":"North Tazewell",
    "sg:classifiers":[
        {
            "category":"Food & Beverages",
            "subcategory":"Groceries & Convenience Stores",
            "type":"Retail Goods"
        }
    ],
    "sg:owner":"simplegeo",
    "sg:phone":"+1 276 988 8086",
    "sg:postcode":"24630",
    "sg:province":"VA",
    "src:geom":"simplegeo",
    "wof:belongsto":[],
    "wof:breaches":[],
    "wof:concordances":{
        "sg:id":"SG_0vfDCeIrpjqL66ciXvftO8_37.125800_-81.522191@1294252573"
    },
    "wof:country":"US",
    "wof:created":1461887075,
    "wof:geomhash":"c3932efa32e3d551a088bd4314bce199",
    "wof:hierarchy":[],
    "wof:id":722705875,
    "wof:lastmodified":1461887075,
    "wof:name":"Ron's Quick Stop",
    "wof:parent_id":420547299,
    "wof:placetype":"venue",
    "wof:superseded_by":[],
    "wof:supersedes":[],
    "wof:tags":[]
},
  "bbox": [
    -81.522191,
    37.1258,
    -81.522191,
    37.1258
],
  "geometry": {"coordinates":[-81.52219100000001,37.1258],"type":"Point"}
}