{
  "id": 723335095,
  "type": "Feature",
  "properties": {
    "edtf:cessation":"uuuu",
    "edtf:inception":"uuuu",
    "geom:area":0.0,
    "geom:bbox":"-77.863828,36.768979,-77.863828,36.768979",
    "geom:latitude":36.768979,
    "geom:longitude":-77.863828,
    "iso:country":"US",
    "sg:address":"18585 Christanna Hwy",
    "sg:city":"Lawrenceville",
    "sg:classifiers":[
        {
            "category":"Organizations",
            "subcategory":"Religious Organization",
            "type":"Services"
        }
    ],
    "sg:owner":"simplegeo",
    "sg:phone":"+1 434 848 4446",
    "sg:postcode":"23868",
    "sg:province":"VA",
    "src:geom":"simplegeo",
    "wof:belongsto":[],
    "wof:breaches":[],
    "wof:concordances":{
        "sg:id":"SG_1CBNTWAE5r5mXXlY4yAkp8_36.768979_-77.863828@1294252573"
    },
    "wof:country":"US",
    "wof:created":1461899717,
    "wof:geomhash":"f66c1584f9d747c306e99aefcd2461e0",
    "wof:hierarchy":[],
    "wof:id":723335095,
    "wof:lastmodified":1461899717,
    "wof:name":"First Baptist Church",
    "wof:parent_id":-1,
    "wof:placetype":"venue",
    "wof:superseded_by":[],
    "wof:supersedes":[],
    "wof:tags":[]
},
  "bbox": [
    -77.863828,
    36.768979,
    -77.863828,
    36.768979
],
  "geometry": {"coordinates":[-77.863828,36.768979],"type":"Point"}
}