{
  "id": 739335487,
  "type": "Feature",
  "properties": {
    "edtf:cessation":"uuuu",
    "edtf:inception":"uuuu",
    "geom:area":0.0,
    "geom:bbox":"-76.42516,37.903894,-76.42516,37.903894",
    "geom:latitude":37.903894,
    "geom:longitude":-76.42516,
    "iso:country":"US",
    "sg:address":"9200 Northumberland Hwy",
    "sg:city":"Heathsville",
    "sg:classifiers":[
        {
            "category":"Building & Trades",
            "subcategory":"Construction",
            "type":"Services"
        }
    ],
    "sg:owner":"simplegeo",
    "sg:phone":"+1 804 580 5440",
    "sg:postcode":"22473",
    "sg:province":"VA",
    "sg:tags":[
        "handyman"
    ],
    "src:geom":"simplegeo",
    "wof:belongsto":[],
    "wof:breaches":[],
    "wof:concordances":{
        "sg:id":"SG_67De6YG5ioS2UtwtdAiUFz_37.903894_-76.425160@1294252573"
    },
    "wof:country":"US",
    "wof:created":1461905281,
    "wof:geomhash":"6ee075866cfddd8188af830039e209d0",
    "wof:hierarchy":[],
    "wof:id":739335487,
    "wof:lastmodified":1461905281,
    "wof:name":"Troy's Handyman Svc",
    "wof:parent_id":-1,
    "wof:placetype":"venue",
    "wof:superseded_by":[],
    "wof:supersedes":[],
    "wof:tags":[
        "handyman"
    ]
},
  "bbox": [
    -76.42516,
    37.903894,
    -76.42516,
    37.903894
],
  "geometry": {"coordinates":[-76.42516000000001,37.903894],"type":"Point"}
}