{
  "id": 722651069,
  "type": "Feature",
  "properties": {
    "edtf:cessation":"uuuu",
    "edtf:inception":"uuuu",
    "geom:area":0.0,
    "geom:bbox":"-77.594062,37.68839,-77.594062,37.68839",
    "geom:latitude":37.68839,
    "geom:longitude":-77.594062,
    "iso:country":"US",
    "sg:address":"11551 Nuckols Rd",
    "sg:city":"Glen Allen",
    "sg:classifiers":[
        {
            "category":"Professional",
            "subcategory":"",
            "type":"Services"
        }
    ],
    "sg:owner":"simplegeo",
    "sg:phone":"+1 804 377 2207",
    "sg:postcode":"23059",
    "sg:province":"VA",
    "src:geom":"simplegeo",
    "wof:belongsto":[],
    "wof:breaches":[],
    "wof:concordances":{
        "sg:id":"SG_0vC2hG1yr2JPnDgr83ESLR_37.688390_-77.594062@1294252573"
    },
    "wof:country":"US",
    "wof:created":1461886036,
    "wof:geomhash":"90e61c195b4d62dde28145fd4ae6399d",
    "wof:hierarchy":[],
    "wof:id":722651069,
    "wof:lastmodified":1461886036,
    "wof:name":"Jan-Pro of Richmond",
    "wof:parent_id":-1,
    "wof:placetype":"venue",
    "wof:superseded_by":[],
    "wof:supersedes":[],
    "wof:tags":[]
},
  "bbox": [
    -77.594062,
    37.68839,
    -77.594062,
    37.68839
],
  "geometry": {"coordinates":[-77.59406199999999,37.68839],"type":"Point"}
}