{
  "id": 723207019,
  "type": "Feature",
  "properties": {
    "edtf:cessation":"uuuu",
    "edtf:inception":"uuuu",
    "geom:area":0.0,
    "geom:bbox":"-77.691434,36.763682,-77.691434,36.763682",
    "geom:latitude":36.763682,
    "geom:longitude":-77.691434,
    "iso:country":"US",
    "sg:address":"21243 Governor Harrison Pkwy",
    "sg:city":"Freeman",
    "sg:classifiers":[
        {
            "category":"Manufacturing",
            "subcategory":"Lumber",
            "type":"Manufacturing & Wholesale Goods"
        }
    ],
    "sg:owner":"simplegeo",
    "sg:phone":"+1 434 634 4726",
    "sg:postcode":"23856",
    "sg:province":"VA",
    "sg:tags":[
        "logging"
    ],
    "src:geom":"simplegeo",
    "wof:belongsto":[],
    "wof:breaches":[],
    "wof:concordances":{
        "sg:id":"SG_4gxA69VjaqVbL9SC9Hbv8a_36.763682_-77.691434@1294252573"
    },
    "wof:country":"US",
    "wof:created":1461897204,
    "wof:geomhash":"cc96e6bb398b255cbef8305437ae5de7",
    "wof:hierarchy":[],
    "wof:id":723207019,
    "wof:lastmodified":1461897204,
    "wof:name":"Willie Trusty Logging",
    "wof:parent_id":-1,
    "wof:placetype":"venue",
    "wof:superseded_by":[],
    "wof:supersedes":[],
    "wof:tags":[
        "logging"
    ]
},
  "bbox": [
    -77.691434,
    36.763682,
    -77.691434,
    36.763682
],
  "geometry": {"coordinates":[-77.691434,36.763682],"type":"Point"}
}