{
  "id": 739337847,
  "type": "Feature",
  "properties": {
    "edtf:cessation":"uuuu",
    "edtf:inception":"uuuu",
    "geom:area":0.0,
    "geom:bbox":"-76.519905,37.399618,-76.519905,37.399618",
    "geom:latitude":37.399618,
    "geom:longitude":-76.519905,
    "iso:country":"US",
    "sg:address":"6815 Enfield Rd",
    "sg:city":"Gloucester",
    "sg:classifiers":[
        {
            "category":"Shopping",
            "subcategory":"",
            "type":"Retail Goods"
        }
    ],
    "sg:owner":"simplegeo",
    "sg:phone":"+1 804 693 5026",
    "sg:postcode":"23061",
    "sg:province":"VA",
    "sg:tags":[
        "merchandise"
    ],
    "src:geom":"simplegeo",
    "wof:belongsto":[],
    "wof:breaches":[],
    "wof:concordances":{
        "sg:id":"SG_5XtF7mvo2rlJpk2RrUQKum_37.399618_-76.519905@1294252573"
    },
    "wof:country":"US",
    "wof:created":1461905340,
    "wof:geomhash":"2c3f6aee9ae470c758b269087809fa38",
    "wof:hierarchy":[],
    "wof:id":739337847,
    "wof:lastmodified":1461905340,
    "wof:name":"Tolley Bill & Else",
    "wof:parent_id":-1,
    "wof:placetype":"venue",
    "wof:superseded_by":[],
    "wof:supersedes":[],
    "wof:tags":[
        "merchandise"
    ]
},
  "bbox": [
    -76.519905,
    37.399618,
    -76.519905,
    37.399618
],
  "geometry": {"coordinates":[-76.51990499999999,37.399618],"type":"Point"}
}