{
  "id": 739351667,
  "type": "Feature",
  "properties": {
    "edtf:cessation":"uuuu",
    "edtf:inception":"uuuu",
    "geom:area":0.0,
    "geom:bbox":"-77.377993,37.51768,-77.377993,37.51768",
    "geom:latitude":37.51768,
    "geom:longitude":-77.377993,
    "iso:country":"US",
    "sg:address":"2035 Charles City Rd",
    "sg:city":"Richmond",
    "sg:classifiers":[
        {
            "category":"Retail",
            "subcategory":"Auto Repair",
            "type":"Services"
        }
    ],
    "sg:owner":"simplegeo",
    "sg:phone":"+1 804 652 1700",
    "sg:postcode":"23231",
    "sg:province":"VA",
    "sg:tags":[
        "automotive"
    ],
    "src:geom":"simplegeo",
    "wof:belongsto":[],
    "wof:breaches":[],
    "wof:concordances":{
        "sg:id":"SG_2qyPpBzRA0cjFxqfFKHVL2_37.517680_-77.377993@1294252573"
    },
    "wof:country":"US",
    "wof:created":1461905645,
    "wof:geomhash":"8a032562dbf2291674c019e6983c0b08",
    "wof:hierarchy":[],
    "wof:id":739351667,
    "wof:lastmodified":1461905645,
    "wof:name":"Coastal Radiators",
    "wof:parent_id":-1,
    "wof:placetype":"venue",
    "wof:superseded_by":[],
    "wof:supersedes":[],
    "wof:tags":[
        "automotive"
    ]
},
  "bbox": [
    -77.377993,
    37.51768,
    -77.377993,
    37.51768
],
  "geometry": {"coordinates":[-77.377993,37.51768],"type":"Point"}
}