{
  "id": 739607957,
  "type": "Feature",
  "properties": {
    "edtf:cessation":"uuuu",
    "edtf:inception":"uuuu",
    "geom:area":0.0,
    "geom:bbox":"-77.422561,38.902384,-77.422561,38.902384",
    "geom:latitude":38.902384,
    "geom:longitude":-77.422561,
    "iso:country":"US",
    "sg:address":"13729 Rosetree Ct",
    "sg:city":"Chantilly",
    "sg:classifiers":[
        {
            "category":"Professional",
            "subcategory":"Business Services",
            "type":"Services"
        }
    ],
    "sg:owner":"simplegeo",
    "sg:phone":"+1 703 437 8303",
    "sg:postcode":"20151",
    "sg:province":"VA",
    "sg:tags":[
        "consultant",
        "coach"
    ],
    "src:geom":"simplegeo",
    "wof:belongsto":[],
    "wof:breaches":[],
    "wof:concordances":{
        "sg:id":"SG_3bQfXAk8X7q09dVMreVUQG_38.902384_-77.422561@1303262496"
    },
    "wof:country":"US",
    "wof:created":1461910566,
    "wof:geomhash":"ecb871cad958ab68bea131bb0b704cb5",
    "wof:hierarchy":[],
    "wof:id":739607957,
    "wof:lastmodified":1461910566,
    "wof:name":"Ms Ott Consulting",
    "wof:parent_id":-1,
    "wof:placetype":"venue",
    "wof:superseded_by":[],
    "wof:supersedes":[],
    "wof:tags":[
        "consultant",
        "coach"
    ]
},
  "bbox": [
    -77.422561,
    38.902384,
    -77.422561,
    38.902384
],
  "geometry": {"coordinates":[-77.422561,38.902384],"type":"Point"}
}