{
  "id": 723023713,
  "type": "Feature",
  "properties": {
    "edtf:cessation":"uuuu",
    "edtf:inception":"uuuu",
    "geom:area":0.0,
    "geom:bbox":"-77.564502,39.115321,-77.564502,39.115321",
    "geom:latitude":39.115321,
    "geom:longitude":-77.564502,
    "iso:country":"US",
    "sg:address":"10 S King St",
    "sg:city":"Leesburg",
    "sg:classifiers":[
        {
            "category":"Organizations",
            "subcategory":"Non-profit Organization",
            "type":"Services"
        }
    ],
    "sg:owner":"simplegeo",
    "sg:phone":"+1 703 777 3920",
    "sg:postcode":"20175",
    "sg:province":"VA",
    "sg:tags":[
        "social"
    ],
    "src:geom":"simplegeo",
    "wof:belongsto":[],
    "wof:breaches":[],
    "wof:concordances":{
        "sg:id":"SG_3978rDlDaykBxS5zs87mjF_39.115321_-77.564502@1294252573"
    },
    "wof:country":"US",
    "wof:created":1461893460,
    "wof:geomhash":"fdd27392c325182cee9726c79c7cdd81",
    "wof:hierarchy":[],
    "wof:id":723023713,
    "wof:lastmodified":1461893460,
    "wof:name":"Loudoun Untd Way Loudoun Cnty",
    "wof:parent_id":-1,
    "wof:placetype":"venue",
    "wof:superseded_by":[],
    "wof:supersedes":[],
    "wof:tags":[
        "social"
    ]
},
  "bbox": [
    -77.564502,
    39.115321,
    -77.564502,
    39.115321
],
  "geometry": {"coordinates":[-77.564502,39.115321],"type":"Point"}
}