{
  "id": 722717331,
  "type": "Feature",
  "properties": {
    "edtf:cessation":"uuuu",
    "edtf:inception":"uuuu",
    "geom:area":0.0,
    "geom:bbox":"-76.7948,37.528712,-76.7948,37.528712",
    "geom:latitude":37.528712,
    "geom:longitude":-76.7948,
    "iso:country":"US",
    "sg:address":"320 Main St",
    "sg:city":"Mathews",
    "sg:classifiers":[
        {
            "category":"Shopping",
            "subcategory":"Used Merchandise",
            "type":"Retail Goods"
        }
    ],
    "sg:owner":"simplegeo",
    "sg:phone":"+1 804 725 3110",
    "sg:postcode":"23181",
    "sg:province":"VA",
    "sg:tags":[
        "shop",
        "thrift"
    ],
    "src:geom":"simplegeo",
    "wof:belongsto":[],
    "wof:breaches":[],
    "wof:concordances":{
        "sg:id":"SG_2zmp6C2bYBWyFS3nSVFtvT_37.528712_-76.794800@1294252573"
    },
    "wof:country":"US",
    "wof:created":1461887294,
    "wof:geomhash":"eded2433fd6ca9f897cf7a08d12b60df",
    "wof:hierarchy":[],
    "wof:id":722717331,
    "wof:lastmodified":1461887294,
    "wof:name":"NBTS Boutique",
    "wof:parent_id":-1,
    "wof:placetype":"venue",
    "wof:superseded_by":[],
    "wof:supersedes":[],
    "wof:tags":[
        "shop",
        "thrift"
    ]
},
  "bbox": [
    -76.7948,
    37.528712,
    -76.7948,
    37.528712
],
  "geometry": {"coordinates":[-76.7948,37.528712],"type":"Point"}
}