{
  "id": 739602745,
  "type": "Feature",
  "properties": {
    "edtf:cessation":"uuuu",
    "edtf:inception":"uuuu",
    "geom:area":0.0,
    "geom:bbox":"-77.554396,38.778095,-77.554396,38.778095",
    "geom:latitude":38.778095,
    "geom:longitude":-77.554396,
    "iso:country":"US",
    "sg:address":"12066 Cadet Ct",
    "sg:city":"Manassas",
    "sg:classifiers":[
        {
            "category":"Building & Trades",
            "subcategory":"Locksmith",
            "type":"Services"
        }
    ],
    "sg:owner":"simplegeo",
    "sg:phone":"+1 703 656 9890",
    "sg:postcode":"20109",
    "sg:province":"VA",
    "sg:tags":[
        "key"
    ],
    "src:geom":"simplegeo",
    "wof:belongsto":[],
    "wof:breaches":[],
    "wof:concordances":{
        "sg:id":"SG_5JlPpJ2P5EWjDpr370SdPz_38.778095_-77.554396@1303262495"
    },
    "wof:country":"US",
    "wof:created":1461910468,
    "wof:geomhash":"708cf7d777bd549ff9e82b57be8ef151",
    "wof:hierarchy":[],
    "wof:id":739602745,
    "wof:lastmodified":1461910468,
    "wof:name":"Available Locksmith",
    "wof:parent_id":-1,
    "wof:placetype":"venue",
    "wof:superseded_by":[],
    "wof:supersedes":[],
    "wof:tags":[
        "key"
    ]
},
  "bbox": [
    -77.554396,
    38.778095,
    -77.554396,
    38.778095
],
  "geometry": {"coordinates":[-77.554396,38.778095],"type":"Point"}
}