{
  "id": 739687899,
  "type": "Feature",
  "properties": {
    "edtf:cessation":"uuuu",
    "edtf:inception":"uuuu",
    "geom:area":0.0,
    "geom:bbox":"-77.055779,38.803822,-77.055779,38.803822",
    "geom:latitude":38.803822,
    "geom:longitude":-77.055779,
    "iso:country":"US",
    "sg:address":"1416 Duke St",
    "sg:city":"Alexandria",
    "sg:classifiers":[
        {
            "category":"Government",
            "subcategory":"Office",
            "type":"Public Place"
        }
    ],
    "sg:owner":"simplegeo",
    "sg:phone":"+1 703 683 6330",
    "sg:postcode":"22314",
    "sg:province":"VA",
    "sg:tags":[
        "township",
        "government-city",
        "village"
    ],
    "sg:website":"http://www.alexcu.org",
    "src:geom":"simplegeo",
    "wof:belongsto":[],
    "wof:breaches":[],
    "wof:concordances":{
        "sg:id":"SG_2J23vPWdUOV5NOGt1sq3ni_38.803822_-77.055779@1303262546"
    },
    "wof:country":"US",
    "wof:created":1461912298,
    "wof:geomhash":"49cfad03f9ffa3df62938fd5d1673286",
    "wof:hierarchy":[],
    "wof:id":739687899,
    "wof:lastmodified":1461912298,
    "wof:name":"City Alxndria Employees Cr Uni",
    "wof:parent_id":-1,
    "wof:placetype":"venue",
    "wof:superseded_by":[],
    "wof:supersedes":[],
    "wof:tags":[
        "township",
        "government-city",
        "village"
    ]
},
  "bbox": [
    -77.055779,
    38.803822,
    -77.055779,
    38.803822
],
  "geometry": {"coordinates":[-77.055779,38.803822],"type":"Point"}
}