{
  "id": 739355541,
  "type": "Feature",
  "properties": {
    "edtf:cessation":"uuuu",
    "edtf:inception":"uuuu",
    "geom:area":0.0,
    "geom:bbox":"-77.387501,37.637223,-77.387501,37.637223",
    "geom:latitude":37.637223,
    "geom:longitude":-77.387501,
    "iso:country":"US",
    "sg:address":"8414 Atlee Rd",
    "sg:city":"Mechanicsville",
    "sg:classifiers":[
        {
            "category":"Building & Trades",
            "subcategory":"Plumbing",
            "type":"Services"
        }
    ],
    "sg:owner":"simplegeo",
    "sg:phone":"+1 804 730 5074",
    "sg:postcode":"23116",
    "sg:province":"VA",
    "sg:tags":[
        "contractor"
    ],
    "src:geom":"simplegeo",
    "wof:belongsto":[],
    "wof:breaches":[],
    "wof:concordances":{
        "sg:id":"SG_6NkGTDGEIgihRoEixW4DJN_37.637223_-77.387501@1294252573"
    },
    "wof:country":"US",
    "wof:created":1461905728,
    "wof:geomhash":"c197b9c3aee331ca4fc1e35dbd35b686",
    "wof:hierarchy":[],
    "wof:id":739355541,
    "wof:lastmodified":1461905728,
    "wof:name":"Atlee Heating and Air",
    "wof:parent_id":-1,
    "wof:placetype":"venue",
    "wof:superseded_by":[],
    "wof:supersedes":[],
    "wof:tags":[
        "contractor"
    ]
},
  "bbox": [
    -77.387501,
    37.637223,
    -77.387501,
    37.637223
],
  "geometry": {"coordinates":[-77.387501,37.637223],"type":"Point"}
}