{
  "id": 739580273,
  "type": "Feature",
  "properties": {
    "edtf:cessation":"uuuu",
    "edtf:inception":"uuuu",
    "geom:area":0.0,
    "geom:bbox":"-77.151054,38.866202,-77.151054,38.866202",
    "geom:latitude":38.866202,
    "geom:longitude":-77.151054,
    "iso:country":"US",
    "sg:address":"6208 Leesburg Pike",
    "sg:city":"Falls Church",
    "sg:classifiers":[
        {
            "category":"Restaurant",
            "subcategory":"",
            "type":"Food & Drink"
        }
    ],
    "sg:menulink":"http://www.allmenus.com/va/mason/83417-papa-johns-pizza/menu/",
    "sg:owner":"simplegeo",
    "sg:phone":"+1 703 532 6262",
    "sg:postcode":"22044",
    "sg:province":"VA",
    "sg:tags":[
        "american",
        "pizza"
    ],
    "src:geom":"simplegeo",
    "wof:belongsto":[],
    "wof:breaches":[],
    "wof:concordances":{
        "sg:id":"SG_5WV4Hx0l9ROBi9lPZjLaT6_38.866202_-77.151054@1299784598"
    },
    "wof:country":"US",
    "wof:created":1461910014,
    "wof:geomhash":"624376d916d900433fdd66145f1aa890",
    "wof:hierarchy":[],
    "wof:id":739580273,
    "wof:lastmodified":1461910014,
    "wof:name":"Papa John's Pizza",
    "wof:parent_id":-1,
    "wof:placetype":"venue",
    "wof:superseded_by":[],
    "wof:supersedes":[],
    "wof:tags":[
        "american",
        "pizza"
    ]
},
  "bbox": [
    -77.151054,
    38.866202,
    -77.151054,
    38.866202
],
  "geometry": {"coordinates":[-77.151054,38.866202],"type":"Point"}
}