{
  "id": 739710515,
  "type": "Feature",
  "properties": {
    "edtf:cessation":"uuuu",
    "edtf:inception":"uuuu",
    "geom:area":0.0,
    "geom:bbox":"-77.673943,37.544022,-77.673943,37.544022",
    "geom:latitude":37.544022,
    "geom:longitude":-77.673943,
    "iso:country":"US",
    "sg:address":"3401 Crossings Way Cir",
    "sg:city":"Midlothian",
    "sg:classifiers":[
        {
            "category":"Restaurant",
            "subcategory":"",
            "type":"Food & Drink"
        }
    ],
    "sg:owner":"simplegeo",
    "sg:phone":"+1 804 378 9009",
    "sg:postcode":"23113",
    "sg:province":"VA",
    "src:geom":"simplegeo",
    "wof:belongsto":[],
    "wof:breaches":[],
    "wof:concordances":{
        "sg:id":"SG_7X4yyZSLXh17gTH4zQ65nB_37.544022_-77.673943@1303262549"
    },
    "wof:country":"US",
    "wof:created":1461912793,
    "wof:geomhash":"4f8ef1866517923c9831efb3c41fb21e",
    "wof:hierarchy":[],
    "wof:id":739710515,
    "wof:lastmodified":1461912793,
    "wof:name":"Stir The Pot",
    "wof:parent_id":-1,
    "wof:placetype":"venue",
    "wof:superseded_by":[],
    "wof:supersedes":[],
    "wof:tags":[]
},
  "bbox": [
    -77.673943,
    37.544022,
    -77.673943,
    37.544022
],
  "geometry": {"coordinates":[-77.67394299999999,37.544022],"type":"Point"}
}