{
  "id": 722902979,
  "type": "Feature",
  "properties": {
    "edtf:cessation":"uuuu",
    "edtf:inception":"uuuu",
    "geom:area":0.0,
    "geom:bbox":"-77.414987,38.838099,-77.414987,38.838099",
    "geom:latitude":38.838099,
    "geom:longitude":-77.414987,
    "iso:country":"US",
    "sg:address":"13522 Gray Bill Ct",
    "sg:city":"Clifton",
    "sg:classifiers":[
        {
            "category":"Food & Beverages",
            "subcategory":"Groceries & Convenience Stores",
            "type":"Retail Goods"
        }
    ],
    "sg:owner":"simplegeo",
    "sg:phone":"+1 703 830 1143",
    "sg:postcode":"20124",
    "sg:province":"VA",
    "src:geom":"simplegeo",
    "wof:belongsto":[],
    "wof:breaches":[],
    "wof:concordances":{
        "sg:id":"SG_1hotG1hEgrYSGJlekdk7FN_38.838099_-77.414987@1294252573"
    },
    "wof:country":"US",
    "wof:created":1461890846,
    "wof:geomhash":"965d03cf66a5bf2fbd7796629ef88f1d",
    "wof:hierarchy":[],
    "wof:id":722902979,
    "wof:lastmodified":1461890846,
    "wof:name":"Delta Carryout",
    "wof:parent_id":-1,
    "wof:placetype":"venue",
    "wof:superseded_by":[],
    "wof:supersedes":[],
    "wof:tags":[]
},
  "bbox": [
    -77.414987,
    38.838099,
    -77.414987,
    38.838099
],
  "geometry": {"coordinates":[-77.414987,38.838099],"type":"Point"}
}