{
  "id": 722817249,
  "type": "Feature",
  "properties": {
    "edtf:cessation":"uuuu",
    "edtf:inception":"uuuu",
    "geom:area":0.0,
    "geom:bbox":"-80.05413,37.293481,-80.05413,37.293481",
    "geom:latitude":37.293481,
    "geom:longitude":-80.05413,
    "iso:country":"US",
    "sg:address":"418 E Main St",
    "sg:city":"Salem",
    "sg:classifiers":[
        {
            "category":"Shopping",
            "subcategory":"Bicycles & Sporting Goods",
            "type":"Retail Goods"
        }
    ],
    "sg:owner":"simplegeo",
    "sg:phone":"+1 540 389 8560",
    "sg:postcode":"24153",
    "sg:province":"VA",
    "src:geom":"simplegeo",
    "wof:belongsto":[],
    "wof:breaches":[],
    "wof:concordances":{
        "sg:id":"SG_4pJ1XKrlBJOOtVm943qIav_37.293481_-80.054130@1294252573"
    },
    "wof:country":"US",
    "wof:created":1461889200,
    "wof:geomhash":"8a5abf1a330f6969da4c3f7ec790646b",
    "wof:hierarchy":[],
    "wof:id":722817249,
    "wof:lastmodified":1461889200,
    "wof:name":"Golf Mart Inc",
    "wof:parent_id":-1,
    "wof:placetype":"venue",
    "wof:superseded_by":[],
    "wof:supersedes":[],
    "wof:tags":[]
},
  "bbox": [
    -80.05413,
    37.293481,
    -80.05413,
    37.293481
],
  "geometry": {"coordinates":[-80.05413,37.293481],"type":"Point"}
}