{
  "id": 723156367,
  "type": "Feature",
  "properties": {
    "edtf:cessation":"uuuu",
    "edtf:inception":"uuuu",
    "geom:area":0.0,
    "geom:bbox":"-77.454402,38.283573,-77.454402,38.283573",
    "geom:latitude":38.283573,
    "geom:longitude":-77.454402,
    "iso:country":"US",
    "sg:address":"11901 Tidewater Trl",
    "sg:city":"Fredericksburg",
    "sg:classifiers":[
        {
            "category":"Food & Beverages",
            "subcategory":"Groceries & Convenience Stores",
            "type":"Retail Goods"
        }
    ],
    "sg:owner":"simplegeo",
    "sg:phone":"+1 540 373 0822",
    "sg:postcode":"22408",
    "sg:province":"VA",
    "src:geom":"simplegeo",
    "wof:belongsto":[],
    "wof:breaches":[],
    "wof:concordances":{
        "sg:id":"SG_0R2c58kzymaQFmNEXedbOQ_38.283573_-77.454402@1294252573"
    },
    "wof:country":"US",
    "wof:created":1461896223,
    "wof:geomhash":"7903836dbd02bc9ff772dc8eb250b257",
    "wof:hierarchy":[],
    "wof:id":723156367,
    "wof:lastmodified":1461896223,
    "wof:name":"Sam's Food Mart & Deli",
    "wof:parent_id":-1,
    "wof:placetype":"venue",
    "wof:superseded_by":[],
    "wof:supersedes":[],
    "wof:tags":[]
},
  "bbox": [
    -77.454402,
    38.283573,
    -77.454402,
    38.283573
],
  "geometry": {"coordinates":[-77.454402,38.283573],"type":"Point"}
}