{
  "id": 723472897,
  "type": "Feature",
  "properties": {
    "edtf:cessation":"uuuu",
    "edtf:inception":"uuuu",
    "geom:area":0.0,
    "geom:bbox":"-77.736958,38.96851,-77.736958,38.96851",
    "geom:latitude":38.96851,
    "geom:longitude":-77.736958,
    "iso:country":"US",
    "sg:address":"115 W Washington St",
    "sg:city":"Middleburg",
    "sg:classifiers":[
        {
            "category":"Shopping",
            "subcategory":"Gifts & Souvenirs",
            "type":"Retail Goods"
        }
    ],
    "sg:owner":"simplegeo",
    "sg:phone":"+1 540 687 6590",
    "sg:postcode":"20117",
    "sg:province":"VA",
    "sg:tags":[
        "shop"
    ],
    "sg:website":"www.thefunshop.com",
    "src:geom":"simplegeo",
    "wof:belongsto":[],
    "wof:breaches":[],
    "wof:concordances":{
        "sg:id":"SG_685hV0TKeFwAUOqRqPPran_38.968510_-77.736958@1294252573"
    },
    "wof:country":"US",
    "wof:created":1461902372,
    "wof:geomhash":"f3fa9bcf98d6ecf0522559c63ee2f127",
    "wof:hierarchy":[],
    "wof:id":723472897,
    "wof:lastmodified":1461902372,
    "wof:name":"Fun Shop Inc",
    "wof:parent_id":-1,
    "wof:placetype":"venue",
    "wof:superseded_by":[],
    "wof:supersedes":[],
    "wof:tags":[
        "shop"
    ]
},
  "bbox": [
    -77.736958,
    38.96851,
    -77.736958,
    38.96851
],
  "geometry": {"coordinates":[-77.736958,38.96851],"type":"Point"}
}