{
  "id": 722957503,
  "type": "Feature",
  "properties": {
    "edtf:cessation":"uuuu",
    "edtf:inception":"uuuu",
    "geom:area":0.0,
    "geom:bbox":"-77.383206,37.644788,-77.383206,37.644788",
    "geom:latitude":37.644788,
    "geom:longitude":-77.383206,
    "iso:country":"US",
    "sg:address":"9034 Mann Dr",
    "sg:city":"Mechanicsville",
    "sg:classifiers":[
        {
            "category":"Professional",
            "subcategory":"Business Services",
            "type":"Services"
        }
    ],
    "sg:owner":"simplegeo",
    "sg:phone":"+1 804 730 2084",
    "sg:postcode":"23116",
    "sg:province":"VA",
    "src:geom":"simplegeo",
    "wof:belongsto":[],
    "wof:breaches":[],
    "wof:concordances":{
        "sg:id":"SG_6Y2Z1CUnm3ux5sKHidApGj_37.644788_-77.383206@1294252573"
    },
    "wof:country":"US",
    "wof:created":1461891973,
    "wof:geomhash":"2195abd40f23583c88bee96e41da86cc",
    "wof:hierarchy":[],
    "wof:id":722957503,
    "wof:lastmodified":1461891973,
    "wof:name":"Aid Assoc For Lutherans",
    "wof:parent_id":-1,
    "wof:placetype":"venue",
    "wof:superseded_by":[],
    "wof:supersedes":[],
    "wof:tags":[]
},
  "bbox": [
    -77.383206,
    37.644788,
    -77.383206,
    37.644788
],
  "geometry": {"coordinates":[-77.383206,37.644788],"type":"Point"}
}