{
  "id": 723021081,
  "type": "Feature",
  "properties": {
    "edtf:cessation":"uuuu",
    "edtf:inception":"uuuu",
    "geom:area":0.0,
    "geom:bbox":"-77.448876,38.772676,-77.448876,38.772676",
    "geom:latitude":38.772676,
    "geom:longitude":-77.448876,
    "iso:country":"US",
    "sg:address":"8262 White Pine Dr",
    "sg:city":"Manassas",
    "sg:classifiers":[
        {
            "category":"Building & Trades",
            "subcategory":"Plumbing",
            "type":"Services"
        }
    ],
    "sg:owner":"simplegeo",
    "sg:phone":"+1 703 361 7025",
    "sg:postcode":"20111",
    "sg:province":"VA",
    "sg:tags":[
        "contractor"
    ],
    "src:geom":"simplegeo",
    "wof:belongsto":[],
    "wof:breaches":[],
    "wof:concordances":{
        "sg:id":"SG_1mE5RkiyIDRFN8Q4GGIhrO_38.772676_-77.448876@1294252573"
    },
    "wof:country":"US",
    "wof:created":1461893396,
    "wof:geomhash":"b3e5267fc30e03d933640ac328b896f4",
    "wof:hierarchy":[],
    "wof:id":723021081,
    "wof:lastmodified":1461893396,
    "wof:name":"Borja AC Inc",
    "wof:parent_id":-1,
    "wof:placetype":"venue",
    "wof:superseded_by":[],
    "wof:supersedes":[],
    "wof:tags":[
        "contractor"
    ]
},
  "bbox": [
    -77.448876,
    38.772676,
    -77.448876,
    38.772676
],
  "geometry": {"coordinates":[-77.448876,38.772676],"type":"Point"}
}