{
  "id": 722943895,
  "type": "Feature",
  "properties": {
    "edtf:cessation":"uuuu",
    "edtf:inception":"uuuu",
    "geom:area":0.0,
    "geom:bbox":"-76.283478,36.831548,-76.283478,36.831548",
    "geom:latitude":36.831548,
    "geom:longitude":-76.283478,
    "iso:country":"US",
    "sg:address":"115 E Liberty St",
    "sg:city":"Norfolk",
    "sg:classifiers":[
        {
            "category":"Organizations",
            "subcategory":"Religious Organization",
            "type":"Services"
        }
    ],
    "sg:owner":"simplegeo",
    "sg:phone":"+1 757 543 5005",
    "sg:postcode":"23523",
    "sg:province":"VA",
    "sg:tags":[
        "church"
    ],
    "src:geom":"simplegeo",
    "wof:belongsto":[],
    "wof:breaches":[],
    "wof:concordances":{
        "sg:id":"SG_4gwuwY1mMJH6MxeoA7kCfi_36.831548_-76.283478@1294252573"
    },
    "wof:country":"US",
    "wof:created":1461891708,
    "wof:geomhash":"20b0cd6b0448aeb04f08f20d213fd280",
    "wof:hierarchy":[],
    "wof:id":722943895,
    "wof:lastmodified":1461891708,
    "wof:name":"Holy Temple Universal Chrstn",
    "wof:parent_id":-1,
    "wof:placetype":"venue",
    "wof:superseded_by":[],
    "wof:supersedes":[],
    "wof:tags":[
        "church"
    ]
},
  "bbox": [
    -76.283478,
    36.831548,
    -76.283478,
    36.831548
],
  "geometry": {"coordinates":[-76.283478,36.831548],"type":"Point"}
}