{
  "id": 722756893,
  "type": "Feature",
  "properties": {
    "edtf:cessation":"uuuu",
    "edtf:inception":"uuuu",
    "geom:area":0.0,
    "geom:bbox":"-77.265837,38.954963,-77.265837,38.954963",
    "geom:latitude":38.954963,
    "geom:longitude":-77.265837,
    "iso:country":"US",
    "sg:address":"1261 Kenmore Dr",
    "sg:city":"Great Falls",
    "sg:classifiers":[
        {
            "category":"Real Estate",
            "subcategory":"Real Estate Agent",
            "type":"Services"
        }
    ],
    "sg:owner":"simplegeo",
    "sg:phone":"+1 703 759 5404",
    "sg:postcode":"22066",
    "sg:province":"VA",
    "src:geom":"simplegeo",
    "wof:belongsto":[],
    "wof:breaches":[],
    "wof:concordances":{
        "sg:id":"SG_1eysGFVj7dKtvXdOyLrjNV_38.954963_-77.265837@1294252573"
    },
    "wof:country":"US",
    "wof:created":1461888065,
    "wof:geomhash":"5093a57528d3c46dd885e7751f831f00",
    "wof:hierarchy":[],
    "wof:id":722756893,
    "wof:lastmodified":1461888065,
    "wof:name":"Key Property Management LLC",
    "wof:parent_id":-1,
    "wof:placetype":"venue",
    "wof:superseded_by":[],
    "wof:supersedes":[],
    "wof:tags":[]
},
  "bbox": [
    -77.265837,
    38.954963,
    -77.265837,
    38.954963
],
  "geometry": {"coordinates":[-77.265837,38.954963],"type":"Point"}
}