{
  "id": 723221753,
  "type": "Feature",
  "properties": {
    "edtf:cessation":"uuuu",
    "edtf:inception":"uuuu",
    "geom:area":0.0,
    "geom:bbox":"-77.443475,37.472382,-77.443475,37.472382",
    "geom:latitude":37.472382,
    "geom:longitude":-77.443475,
    "iso:country":"US",
    "sg:address":"3817 Jefferson Davis Hwy",
    "sg:city":"Richmond",
    "sg:classifiers":[
        {
            "category":"Cinema",
            "subcategory":"Movie Rental",
            "type":"Entertainment"
        }
    ],
    "sg:owner":"simplegeo",
    "sg:phone":"+1 804 743 1099",
    "sg:postcode":"23234",
    "sg:province":"VA",
    "sg:tags":[
        "video",
        "tape"
    ],
    "src:geom":"simplegeo",
    "wof:belongsto":[],
    "wof:breaches":[],
    "wof:concordances":{
        "sg:id":"SG_3VJHJGKzbk7UwRTrKAqXLl_37.472382_-77.443475@1294252573"
    },
    "wof:country":"US",
    "wof:created":1461897535,
    "wof:geomhash":"aba0df7d814a594ebde225d7d03e57d0",
    "wof:hierarchy":[],
    "wof:id":723221753,
    "wof:lastmodified":1461897535,
    "wof:name":"Video Mart Corp",
    "wof:parent_id":-1,
    "wof:placetype":"venue",
    "wof:superseded_by":[],
    "wof:supersedes":[],
    "wof:tags":[
        "video",
        "tape"
    ]
},
  "bbox": [
    -77.443475,
    37.472382,
    -77.443475,
    37.472382
],
  "geometry": {"coordinates":[-77.44347500000001,37.472382],"type":"Point"}
}