{
  "id": 739404305,
  "type": "Feature",
  "properties": {
    "edtf:cessation":"uuuu",
    "edtf:inception":"uuuu",
    "geom:area":0.0,
    "geom:bbox":"-77.349311,37.443423,-77.349311,37.443423",
    "geom:latitude":37.443423,
    "geom:longitude":-77.349311,
    "iso:country":"US",
    "sg:address":"2651 New Market Rd",
    "sg:city":"Richmond",
    "sg:classifiers":[
        {
            "category":"Banks & Credit Unions",
            "subcategory":"Bank",
            "type":"Services"
        }
    ],
    "sg:owner":"simplegeo",
    "sg:phone":"+1 804 795 7000",
    "sg:postcode":"23231",
    "sg:province":"VA",
    "sg:website":"www.cffc.com",
    "src:geom":"simplegeo",
    "wof:belongsto":[],
    "wof:breaches":[],
    "wof:concordances":{
        "sg:id":"SG_2j99gBItvqLIGeRV1EYNNn_37.443423_-77.349311@1294252573"
    },
    "wof:country":"US",
    "wof:created":1461906659,
    "wof:geomhash":"46064af9da5311ac12b4daf206849b1a",
    "wof:hierarchy":[],
    "wof:id":739404305,
    "wof:lastmodified":1461906659,
    "wof:name":"Citizens & Farmers Bank",
    "wof:parent_id":-1,
    "wof:placetype":"venue",
    "wof:superseded_by":[],
    "wof:supersedes":[],
    "wof:tags":[]
},
  "bbox": [
    -77.349311,
    37.443423,
    -77.349311,
    37.443423
],
  "geometry": {"coordinates":[-77.349311,37.443423],"type":"Point"}
}