{
  "id": 723216761,
  "type": "Feature",
  "properties": {
    "edtf:cessation":"uuuu",
    "edtf:inception":"uuuu",
    "geom:area":0.0,
    "geom:bbox":"-76.731379,37.766161,-76.731379,37.766161",
    "geom:latitude":37.766161,
    "geom:longitude":-76.731379,
    "iso:country":"US",
    "sg:address":"181 Two Oaks Ln",
    "sg:city":"Laneview",
    "sg:classifiers":[
        {
            "category":"Shopping",
            "subcategory":"",
            "type":"Retail Goods"
        }
    ],
    "sg:owner":"simplegeo",
    "sg:phone":"+1 804 443 1199",
    "sg:postcode":"22504",
    "sg:province":"VA",
    "sg:tags":[
        "pet",
        "shop"
    ],
    "src:geom":"simplegeo",
    "wof:belongsto":[],
    "wof:breaches":[],
    "wof:concordances":{
        "sg:id":"SG_07U8Cj7JqvkxAYC3ePqtel_37.766161_-76.731379@1294252573"
    },
    "wof:country":"US",
    "wof:created":1461897405,
    "wof:geomhash":"162856ff0b2dd3bcf49bf3bda984c7ed",
    "wof:hierarchy":[],
    "wof:id":723216761,
    "wof:lastmodified":1461897405,
    "wof:name":"Cyndi's Pets",
    "wof:parent_id":420546649,
    "wof:placetype":"venue",
    "wof:superseded_by":[],
    "wof:supersedes":[],
    "wof:tags":[
        "pet",
        "shop"
    ]
},
  "bbox": [
    -76.731379,
    37.766161,
    -76.731379,
    37.766161
],
  "geometry": {"coordinates":[-76.731379,37.766161],"type":"Point"}
}