{
  "id": 723216995,
  "type": "Feature",
  "properties": {
    "edtf:cessation":"uuuu",
    "edtf:inception":"uuuu",
    "geom:area":0.0,
    "geom:bbox":"-77.432291,38.835992,-77.432291,38.835992",
    "geom:latitude":38.835992,
    "geom:longitude":-77.432291,
    "iso:country":"US",
    "sg:address":"5900 Centreville Rd",
    "sg:city":"Centreville",
    "sg:classifiers":[
        {
            "category":"Real Estate",
            "subcategory":"Real Estate Agent",
            "type":"Services"
        }
    ],
    "sg:owner":"simplegeo",
    "sg:phone":"+1 703 449 0800",
    "sg:postcode":"20121",
    "sg:province":"VA",
    "sg:tags":[
        "management"
    ],
    "src:geom":"simplegeo",
    "wof:belongsto":[],
    "wof:breaches":[],
    "wof:concordances":{
        "sg:id":"SG_4AjKXUB81KWRkPfZIoGjvZ_38.835992_-77.432291@1294252573"
    },
    "wof:country":"US",
    "wof:created":1461897409,
    "wof:geomhash":"ff2051a70d3e478ab940f114d7504aa5",
    "wof:hierarchy":[],
    "wof:id":723216995,
    "wof:lastmodified":1461897409,
    "wof:name":"A A C",
    "wof:parent_id":-1,
    "wof:placetype":"venue",
    "wof:superseded_by":[],
    "wof:supersedes":[],
    "wof:tags":[
        "management"
    ]
},
  "bbox": [
    -77.432291,
    38.835992,
    -77.432291,
    38.835992
],
  "geometry": {"coordinates":[-77.43229100000001,38.835992],"type":"Point"}
}