{
  "id": 723472645,
  "type": "Feature",
  "properties": {
    "edtf:cessation":"uuuu",
    "edtf:inception":"uuuu",
    "geom:area":0.0,
    "geom:bbox":"-78.366157,38.99062,-78.366157,38.99062",
    "geom:latitude":38.99062,
    "geom:longitude":-78.366157,
    "iso:country":"US",
    "sg:address":"390 W King St",
    "sg:city":"Strasburg",
    "sg:classifiers":[
        {
            "category":"Retail",
            "subcategory":"Laundry & Dry Cleaning",
            "type":"Services"
        }
    ],
    "sg:owner":"simplegeo",
    "sg:phone":"+1 540 465 9101",
    "sg:postcode":"22657",
    "sg:province":"VA",
    "sg:tags":[
        "cleaners"
    ],
    "src:geom":"simplegeo",
    "wof:belongsto":[],
    "wof:breaches":[],
    "wof:concordances":{
        "sg:id":"SG_0FJAdRQ7WszksPP0jg1ZXu_38.990620_-78.366157@1294252573"
    },
    "wof:country":"US",
    "wof:created":1461902367,
    "wof:geomhash":"9615cc9edb6900dd45df48f9646cd69d",
    "wof:hierarchy":[],
    "wof:id":723472645,
    "wof:lastmodified":1461902367,
    "wof:name":"Neighborhood Cleaners",
    "wof:parent_id":-1,
    "wof:placetype":"venue",
    "wof:superseded_by":[],
    "wof:supersedes":[],
    "wof:tags":[
        "cleaners"
    ]
},
  "bbox": [
    -78.366157,
    38.99062,
    -78.366157,
    38.99062
],
  "geometry": {"coordinates":[-78.366157,38.99062],"type":"Point"}
}