{
  "id": 722685157,
  "type": "Feature",
  "properties": {
    "edtf:cessation":"uuuu",
    "edtf:inception":"uuuu",
    "geom:area":0.0,
    "geom:bbox":"-77.59761,37.499054,-77.59761,37.499054",
    "geom:latitude":37.499054,
    "geom:longitude":-77.59761,
    "iso:country":"US",
    "sg:address":"559 Southlake Blvd",
    "sg:city":"Richmond",
    "sg:classifiers":[
        {
            "category":"Restaurant",
            "subcategory":"",
            "type":"Food & Drink"
        }
    ],
    "sg:owner":"simplegeo",
    "sg:phone":"+1 804 794 4797",
    "sg:postcode":"23236",
    "sg:province":"VA",
    "src:geom":"simplegeo",
    "wof:belongsto":[],
    "wof:breaches":[],
    "wof:concordances":{
        "sg:id":"SG_2WS2idBBaHQo7uSdmXxSgf_37.499054_-77.597610@1294252573"
    },
    "wof:country":"US",
    "wof:created":1461886683,
    "wof:geomhash":"efde5c445e766210a730fe53b29bddf7",
    "wof:hierarchy":[],
    "wof:id":722685157,
    "wof:lastmodified":1461886683,
    "wof:name":"Pizza Hut",
    "wof:parent_id":-1,
    "wof:placetype":"venue",
    "wof:superseded_by":[],
    "wof:supersedes":[],
    "wof:tags":[]
},
  "bbox": [
    -77.59761,
    37.499054,
    -77.59761,
    37.499054
],
  "geometry": {"coordinates":[-77.59761,37.499054],"type":"Point"}
}