{
  "id": 722735237,
  "type": "Feature",
  "properties": {
    "edtf:cessation":"uuuu",
    "edtf:inception":"uuuu",
    "geom:area":0.0,
    "geom:bbox":"-78.38637,38.237071,-78.38637,38.237071",
    "geom:latitude":38.237071,
    "geom:longitude":-78.38637,
    "iso:country":"US",
    "sg:address":"168 Locust Ln",
    "sg:city":"Ruckersville",
    "sg:classifiers":[
        {
            "category":"Autos & Motor Vehicles",
            "subcategory":"Automobile Sales",
            "type":"Retail Goods"
        }
    ],
    "sg:owner":"simplegeo",
    "sg:phone":"+1 434 985 7658",
    "sg:postcode":"22968",
    "sg:province":"VA",
    "sg:tags":[
        "used"
    ],
    "src:geom":"simplegeo",
    "wof:belongsto":[],
    "wof:breaches":[],
    "wof:concordances":{
        "sg:id":"SG_2jjAuID74IsbdHFQqHg4iO_38.237071_-78.386370@1294252573"
    },
    "wof:country":"US",
    "wof:created":1461887652,
    "wof:geomhash":"633993b9d2414d087a01c3fcdf10051d",
    "wof:hierarchy":[],
    "wof:id":722735237,
    "wof:lastmodified":1461887652,
    "wof:name":"Ikes Auto Sales",
    "wof:parent_id":-1,
    "wof:placetype":"venue",
    "wof:superseded_by":[],
    "wof:supersedes":[],
    "wof:tags":[
        "used"
    ]
},
  "bbox": [
    -78.38637,
    38.237071,
    -78.38637,
    38.237071
],
  "geometry": {"coordinates":[-78.38637,38.237071],"type":"Point"}
}