{
  "id": 739740893,
  "type": "Feature",
  "properties": {
    "edtf:cessation":"uuuu",
    "edtf:inception":"uuuu",
    "geom:area":0.0,
    "geom:bbox":"-82.149467,36.64962,-82.149467,36.64962",
    "geom:latitude":36.64962,
    "geom:longitude":-82.149467,
    "iso:country":"US",
    "sg:address":"11598 Goose Creek Rd",
    "sg:city":"Bristol",
    "sg:classifiers":[
        {
            "category":"Education",
            "subcategory":"School",
            "type":"Public Place"
        }
    ],
    "sg:owner":"simplegeo",
    "sg:phone":"+1 276 429 2972",
    "sg:postcode":"24202",
    "sg:province":"VA",
    "sg:tags":[
        "k-",
        "private"
    ],
    "src:geom":"simplegeo",
    "wof:belongsto":[],
    "wof:breaches":[],
    "wof:concordances":{
        "sg:id":"SG_6OGFfj68xSRh9Xibqo1d5x_36.649620_-82.149467@1303262553"
    },
    "wof:country":"US",
    "wof:created":1461913451,
    "wof:geomhash":"0da5bfbf57c9818c370434ca7fcdbd24",
    "wof:hierarchy":[],
    "wof:id":739740893,
    "wof:lastmodified":1461913451,
    "wof:name":"Glade Christian Academy",
    "wof:parent_id":-1,
    "wof:placetype":"venue",
    "wof:superseded_by":[],
    "wof:supersedes":[],
    "wof:tags":[
        "k-",
        "private"
    ]
},
  "bbox": [
    -82.149467,
    36.64962,
    -82.149467,
    36.64962
],
  "geometry": {"coordinates":[-82.149467,36.64962],"type":"Point"}
}