{
  "id": 723253253,
  "type": "Feature",
  "properties": {
    "edtf:cessation":"uuuu",
    "edtf:inception":"uuuu",
    "geom:area":0.0,
    "geom:bbox":"-78.571333,38.79242,-78.571333,38.79242",
    "geom:latitude":38.79242,
    "geom:longitude":-78.571333,
    "iso:country":"US",
    "sg:address":"2044 Palmyra Church Rd",
    "sg:city":"Edinburg",
    "sg:classifiers":[
        {
            "category":"Government",
            "subcategory":"Police Station",
            "type":"Public Place"
        }
    ],
    "sg:owner":"simplegeo",
    "sg:phone":"+1 540 984 8368",
    "sg:postcode":"22824",
    "sg:province":"VA",
    "sg:tags":[
        "protection"
    ],
    "src:geom":"simplegeo",
    "wof:belongsto":[],
    "wof:breaches":[],
    "wof:concordances":{
        "sg:id":"SG_47CHJ91ZTuId2CxUuBPLZr_38.792420_-78.571333@1294252573"
    },
    "wof:country":"US",
    "wof:created":1461898185,
    "wof:geomhash":"5899684ecc4d6def2bebc96804840496",
    "wof:hierarchy":[],
    "wof:id":723253253,
    "wof:lastmodified":1461898185,
    "wof:name":"Bowman For Sheriff",
    "wof:parent_id":-1,
    "wof:placetype":"venue",
    "wof:superseded_by":[],
    "wof:supersedes":[],
    "wof:tags":[
        "protection"
    ]
},
  "bbox": [
    -78.571333,
    38.79242,
    -78.571333,
    38.79242
],
  "geometry": {"coordinates":[-78.571333,38.79242],"type":"Point"}
}