{
  "id": 722648055,
  "type": "Feature",
  "properties": {
    "edtf:cessation":"uuuu",
    "edtf:inception":"uuuu",
    "geom:area":0.0,
    "geom:bbox":"-79.13687,37.412002,-79.13687,37.412002",
    "geom:latitude":37.412002,
    "geom:longitude":-79.13687,
    "iso:country":"US",
    "sg:address":"1326 Jefferson St",
    "sg:city":"Lynchburg",
    "sg:classifiers":[
        {
            "category":"Professional",
            "subcategory":"Management & Consulting",
            "type":"Services"
        }
    ],
    "sg:owner":"simplegeo",
    "sg:phone":"+1 434 455 5000",
    "sg:postcode":"24504",
    "sg:province":"VA",
    "sg:tags":[
        "radiotelephone",
        "business"
    ],
    "src:geom":"simplegeo",
    "wof:belongsto":[],
    "wof:breaches":[],
    "wof:concordances":{
        "sg:id":"SG_76l26z60XAObwkn0pyOmBj_37.412002_-79.136870@1294252573"
    },
    "wof:country":"US",
    "wof:created":1461885985,
    "wof:geomhash":"82fc7802ba6cb9dcb5b485f4eaad0997",
    "wof:hierarchy":[],
    "wof:id":722648055,
    "wof:lastmodified":1461885985,
    "wof:name":"Criterion Wireless Corp",
    "wof:parent_id":-1,
    "wof:placetype":"venue",
    "wof:superseded_by":[],
    "wof:supersedes":[],
    "wof:tags":[
        "radiotelephone",
        "business"
    ]
},
  "bbox": [
    -79.13687,
    37.412002,
    -79.13687,
    37.412002
],
  "geometry": {"coordinates":[-79.13687,37.412002],"type":"Point"}
}