{
  "id": 723386841,
  "type": "Feature",
  "properties": {
    "edtf:cessation":"uuuu",
    "edtf:inception":"uuuu",
    "geom:area":0.0,
    "geom:bbox":"-77.289813,37.302648,-77.289813,37.302648",
    "geom:latitude":37.302648,
    "geom:longitude":-77.289813,
    "iso:country":"US",
    "sg:address":"204 N 3rd Ave",
    "sg:city":"Hopewell",
    "sg:classifiers":[
        {
            "category":"Real Estate",
            "subcategory":"Real Estate Agent",
            "type":"Services"
        }
    ],
    "sg:owner":"simplegeo",
    "sg:phone":"+1 804 458 5480",
    "sg:postcode":"23860",
    "sg:province":"VA",
    "src:geom":"simplegeo",
    "wof:belongsto":[],
    "wof:breaches":[],
    "wof:concordances":{
        "sg:id":"SG_5hkgwBLdvUtkeJxjy8prKa_37.302648_-77.289813@1294252573"
    },
    "wof:country":"US",
    "wof:created":1461900710,
    "wof:geomhash":"1985269646247fafecaa09194c531718",
    "wof:hierarchy":[],
    "wof:id":723386841,
    "wof:lastmodified":1461900710,
    "wof:name":"Margaret Samko",
    "wof:parent_id":-1,
    "wof:placetype":"venue",
    "wof:superseded_by":[],
    "wof:supersedes":[],
    "wof:tags":[]
},
  "bbox": [
    -77.289813,
    37.302648,
    -77.289813,
    37.302648
],
  "geometry": {"coordinates":[-77.289813,37.302648],"type":"Point"}
}