{
  "id": 722898791,
  "type": "Feature",
  "properties": {
    "edtf:cessation":"uuuu",
    "edtf:inception":"uuuu",
    "geom:area":0.0,
    "geom:bbox":"-77.385359,38.670488,-77.385359,38.670488",
    "geom:latitude":38.670488,
    "geom:longitude":-77.385359,
    "iso:country":"US",
    "sg:address":"13000 Tadmore Ct",
    "sg:city":"Woodbridge",
    "sg:classifiers":[
        {
            "category":"Building & Trades",
            "subcategory":"Construction",
            "type":"Services"
        }
    ],
    "sg:owner":"simplegeo",
    "sg:phone":"+1 703 583 5836",
    "sg:postcode":"22193",
    "sg:province":"VA",
    "sg:tags":[
        "house"
    ],
    "src:geom":"simplegeo",
    "wof:belongsto":[],
    "wof:breaches":[],
    "wof:concordances":{
        "sg:id":"SG_1WKWSJtQP0iCEFByvmU6uw_38.670488_-77.385359@1294252573"
    },
    "wof:country":"US",
    "wof:created":1461890769,
    "wof:geomhash":"c14d493e5d630cbc11277870341c9b24",
    "wof:hierarchy":[],
    "wof:id":722898791,
    "wof:lastmodified":1461890769,
    "wof:name":"Shane Properties Inc",
    "wof:parent_id":-1,
    "wof:placetype":"venue",
    "wof:superseded_by":[],
    "wof:supersedes":[],
    "wof:tags":[
        "house"
    ]
},
  "bbox": [
    -77.385359,
    38.670488,
    -77.385359,
    38.670488
],
  "geometry": {"coordinates":[-77.38535899999999,38.670488],"type":"Point"}
}