{
  "id": 722862481,
  "type": "Feature",
  "properties": {
    "edtf:cessation":"uuuu",
    "edtf:inception":"uuuu",
    "geom:area":0.0,
    "geom:bbox":"-77.267304,38.852019,-77.267304,38.852019",
    "geom:latitude":38.852019,
    "geom:longitude":-77.267304,
    "iso:country":"US",
    "sg:address":"9315 Hamilton Dr",
    "sg:city":"Fairfax",
    "sg:classifiers":[
        {
            "category":"Professional",
            "subcategory":"Business Services",
            "type":"Services"
        }
    ],
    "sg:owner":"simplegeo",
    "sg:phone":"+1 703 691 1044",
    "sg:postcode":"22031",
    "sg:province":"VA",
    "sg:tags":[
        "security",
        "training"
    ],
    "src:geom":"simplegeo",
    "wof:belongsto":[],
    "wof:breaches":[],
    "wof:concordances":{
        "sg:id":"SG_4yQeQYDRQvL8DSHJcTCqwR_38.852019_-77.267304@1294252573"
    },
    "wof:country":"US",
    "wof:created":1461890060,
    "wof:geomhash":"e248dc714ba86f49905b0313d002ef7f",
    "wof:hierarchy":[],
    "wof:id":722862481,
    "wof:lastmodified":1461890060,
    "wof:name":"Hofstetter Melinda",
    "wof:parent_id":-1,
    "wof:placetype":"venue",
    "wof:superseded_by":[],
    "wof:supersedes":[],
    "wof:tags":[
        "security",
        "training"
    ]
},
  "bbox": [
    -77.267304,
    38.852019,
    -77.267304,
    38.852019
],
  "geometry": {"coordinates":[-77.267304,38.852019],"type":"Point"}
}