{
  "id": 723022861,
  "type": "Feature",
  "properties": {
    "edtf:cessation":"uuuu",
    "edtf:inception":"uuuu",
    "geom:area":0.0,
    "geom:bbox":"-79.140303,37.415879,-79.140303,37.415879",
    "geom:latitude":37.415879,
    "geom:longitude":-79.140303,
    "iso:country":"US",
    "sg:address":"10 9th St",
    "sg:city":"Lynchburg",
    "sg:classifiers":[
        {
            "category":"Real Estate",
            "subcategory":"Architect",
            "type":"Services"
        }
    ],
    "sg:owner":"simplegeo",
    "sg:phone":"+1 434 846 8456",
    "sg:postcode":"24504",
    "sg:province":"VA",
    "sg:tags":[
        "interior",
        "planner",
        "designer",
        "general"
    ],
    "src:geom":"simplegeo",
    "wof:belongsto":[],
    "wof:breaches":[],
    "wof:concordances":{
        "sg:id":"SG_0SfaFKfhtTPrLRoxBaI1Ba_37.415879_-79.140303@1294252573"
    },
    "wof:country":"US",
    "wof:created":1461893434,
    "wof:geomhash":"a0073b55754f0bc76b3824910f08f898",
    "wof:hierarchy":[],
    "wof:id":723022861,
    "wof:lastmodified":1461893434,
    "wof:name":"Craddock Hal C",
    "wof:parent_id":-1,
    "wof:placetype":"venue",
    "wof:superseded_by":[],
    "wof:supersedes":[],
    "wof:tags":[
        "interior",
        "planner",
        "designer",
        "general"
    ]
},
  "bbox": [
    -79.140303,
    37.415879,
    -79.140303,
    37.415879
],
  "geometry": {"coordinates":[-79.140303,37.415879],"type":"Point"}
}