{
  "id": 723315521,
  "type": "Feature",
  "properties": {
    "edtf:cessation":"uuuu",
    "edtf:inception":"uuuu",
    "geom:area":0.0,
    "geom:bbox":"-77.602068,37.503654,-77.602068,37.503654",
    "geom:latitude":37.503654,
    "geom:longitude":-77.602068,
    "iso:country":"US",
    "sg:address":"707 Research Rd",
    "sg:city":"Richmond",
    "sg:classifiers":[
        {
            "category":"Retail",
            "subcategory":"Auto Repair",
            "type":"Services"
        }
    ],
    "sg:owner":"simplegeo",
    "sg:phone":"+1 804 794 2400",
    "sg:postcode":"23236",
    "sg:province":"VA",
    "sg:tags":[
        "transmission"
    ],
    "src:geom":"simplegeo",
    "wof:belongsto":[],
    "wof:breaches":[],
    "wof:concordances":{
        "sg:id":"SG_0orcOUqlO1gODXcZlDeM1o_37.503654_-77.602068@1294252573"
    },
    "wof:country":"US",
    "wof:created":1461899363,
    "wof:geomhash":"3e768032177168e0744cd7a26ab7e015",
    "wof:hierarchy":[],
    "wof:id":723315521,
    "wof:lastmodified":1461899363,
    "wof:name":"Aarrow Transmissions",
    "wof:parent_id":-1,
    "wof:placetype":"venue",
    "wof:superseded_by":[],
    "wof:supersedes":[],
    "wof:tags":[
        "transmission"
    ]
},
  "bbox": [
    -77.602068,
    37.503654,
    -77.602068,
    37.503654
],
  "geometry": {"coordinates":[-77.602068,37.503654],"type":"Point"}
}