{
  "id": 723234813,
  "type": "Feature",
  "properties": {
    "edtf:cessation":"uuuu",
    "edtf:inception":"uuuu",
    "geom:area":0.0,
    "geom:bbox":"-77.543192,38.785776,-77.543192,38.785776",
    "geom:latitude":38.785776,
    "geom:longitude":-77.543192,
    "iso:country":"US",
    "sg:address":"7930 Notes Dr",
    "sg:city":"Manassas",
    "sg:classifiers":[
        {
            "category":"Wholesale",
            "subcategory":"Construction Materials",
            "type":"Manufacturing & Wholesale Goods"
        }
    ],
    "sg:owner":"simplegeo",
    "sg:phone":"+1 703 369 3171",
    "sg:postcode":"20109",
    "sg:province":"VA",
    "src:geom":"simplegeo",
    "wof:belongsto":[],
    "wof:breaches":[],
    "wof:concordances":{
        "sg:id":"SG_5M1e9SO1O1BQDWntx4Llha_38.785776_-77.543192@1294252573"
    },
    "wof:country":"US",
    "wof:created":1461897806,
    "wof:geomhash":"23d0325662ffe7a8c0899e6a688c3a19",
    "wof:hierarchy":[],
    "wof:id":723234813,
    "wof:lastmodified":1461897806,
    "wof:name":"Amarr Garage Doors",
    "wof:parent_id":-1,
    "wof:placetype":"venue",
    "wof:superseded_by":[],
    "wof:supersedes":[],
    "wof:tags":[]
},
  "bbox": [
    -77.543192,
    38.785776,
    -77.543192,
    38.785776
],
  "geometry": {"coordinates":[-77.543192,38.785776],"type":"Point"}
}