{
  "id": 722765433,
  "type": "Feature",
  "properties": {
    "edtf:cessation":"uuuu",
    "edtf:inception":"uuuu",
    "geom:area":0.0,
    "geom:bbox":"-79.406706,37.906163,-79.406706,37.906163",
    "geom:latitude":37.906163,
    "geom:longitude":-79.406706,
    "iso:country":"US",
    "sg:address":"1629 Walkers Creek Rd",
    "sg:city":"Rockbridge Baths",
    "sg:classifiers":[
        {
            "category":"Travel",
            "subcategory":"Campground",
            "type":"Entertainment"
        }
    ],
    "sg:owner":"simplegeo",
    "sg:phone":"+1 540 348 5706",
    "sg:postcode":"24473",
    "sg:province":"VA",
    "sg:tags":[
        "camp"
    ],
    "src:geom":"simplegeo",
    "wof:belongsto":[],
    "wof:breaches":[],
    "wof:concordances":{
        "sg:id":"SG_4DkebygMz44Z0IdI5ZiftE_37.906163_-79.406706@1294252573"
    },
    "wof:country":"US",
    "wof:created":1461888219,
    "wof:geomhash":"33b0b36f9f61d74c984268402dabd363",
    "wof:hierarchy":[],
    "wof:id":722765433,
    "wof:lastmodified":1461888219,
    "wof:name":"Camp Maxwelton/Lachlan",
    "wof:parent_id":-1,
    "wof:placetype":"venue",
    "wof:superseded_by":[],
    "wof:supersedes":[],
    "wof:tags":[
        "camp"
    ]
},
  "bbox": [
    -79.406706,
    37.906163,
    -79.406706,
    37.906163
],
  "geometry": {"coordinates":[-79.406706,37.906163],"type":"Point"}
}