{
  "id": 723321463,
  "type": "Feature",
  "properties": {
    "edtf:cessation":"uuuu",
    "edtf:inception":"uuuu",
    "geom:area":0.0,
    "geom:bbox":"-76.631561,36.980952,-76.631561,36.980952",
    "geom:latitude":36.980952,
    "geom:longitude":-76.631561,
    "iso:country":"US",
    "sg:address":"204 Cedar St",
    "sg:city":"Smithfield",
    "sg:classifiers":[
        {
            "category":"Manufacturing",
            "subcategory":"Metals",
            "type":"Manufacturing & Wholesale Goods"
        }
    ],
    "sg:owner":"simplegeo",
    "sg:phone":"+1 757 357 5681",
    "sg:postcode":"23430",
    "sg:province":"VA",
    "sg:tags":[
        "fabricator",
        "sheet"
    ],
    "src:geom":"simplegeo",
    "wof:belongsto":[],
    "wof:breaches":[],
    "wof:concordances":{
        "sg:id":"SG_0upD51tAizM8XpeYfWXMTv_36.980952_-76.631561@1294252573"
    },
    "wof:country":"US",
    "wof:created":1461899474,
    "wof:geomhash":"20f46a977cc401c7761a3c7f5273eeba",
    "wof:hierarchy":[],
    "wof:id":723321463,
    "wof:lastmodified":1461899474,
    "wof:name":"V R Edwards Sheet Metal",
    "wof:parent_id":-1,
    "wof:placetype":"venue",
    "wof:superseded_by":[],
    "wof:supersedes":[],
    "wof:tags":[
        "fabricator",
        "sheet"
    ]
},
  "bbox": [
    -76.631561,
    36.980952,
    -76.631561,
    36.980952
],
  "geometry": {"coordinates":[-76.631561,36.980952],"type":"Point"}
}