{
  "id": 723127895,
  "type": "Feature",
  "properties": {
    "edtf:cessation":"uuuu",
    "edtf:inception":"uuuu",
    "geom:area":0.0,
    "geom:bbox":"-77.567895,39.107572,-77.567895,39.107572",
    "geom:latitude":39.107572,
    "geom:longitude":-77.567895,
    "iso:country":"US",
    "sg:address":"5 Catoctin Cir SE",
    "sg:city":"Leesburg",
    "sg:classifiers":[
        {
            "category":"Restaurant",
            "subcategory":"",
            "type":"Food & Drink"
        }
    ],
    "sg:owner":"simplegeo",
    "sg:phone":"+1 703 779 0900",
    "sg:postcode":"20175",
    "sg:province":"VA",
    "src:geom":"simplegeo",
    "wof:belongsto":[],
    "wof:breaches":[],
    "wof:concordances":{
        "sg:id":"SG_7TAymO3MZsvTzMjTUtBekD_39.107572_-77.567895@1294252573"
    },
    "wof:country":"US",
    "wof:created":1461895659,
    "wof:geomhash":"71794db6e8c344223dca4d4c99c31d24",
    "wof:hierarchy":[],
    "wof:id":723127895,
    "wof:lastmodified":1461895659,
    "wof:name":"Zeffirelli Ristorante Italiano",
    "wof:parent_id":-1,
    "wof:placetype":"venue",
    "wof:superseded_by":[],
    "wof:supersedes":[],
    "wof:tags":[]
},
  "bbox": [
    -77.567895,
    39.107572,
    -77.567895,
    39.107572
],
  "geometry": {"coordinates":[-77.56789499999999,39.107572],"type":"Point"}
}