{
  "id": 739694009,
  "type": "Feature",
  "properties": {
    "edtf:cessation":"uuuu",
    "edtf:inception":"uuuu",
    "geom:area":0.0,
    "geom:bbox":"-77.044846,38.33075,-77.044846,38.33075",
    "geom:latitude":38.33075,
    "geom:longitude":-77.044846,
    "iso:country":"US",
    "sg:address":"17180 Dahlgren Rd",
    "sg:city":"Dahlgren",
    "sg:classifiers":[
        {
            "category":"Insurance",
            "subcategory":"Hazard Insurance",
            "type":"Services"
        }
    ],
    "sg:owner":"simplegeo",
    "sg:phone":"+1 540 663 0190",
    "sg:postcode":"22448",
    "sg:province":"VA",
    "sg:website":"http://allstate.com",
    "src:geom":"simplegeo",
    "wof:belongsto":[],
    "wof:breaches":[],
    "wof:concordances":{
        "sg:id":"SG_6Ed05buyYWbO9u03GZBBDn_38.330750_-77.044846@1303262547"
    },
    "wof:country":"US",
    "wof:created":1461912419,
    "wof:geomhash":"c050a214bb769ba1614c64a751abbf7d",
    "wof:hierarchy":[],
    "wof:id":739694009,
    "wof:lastmodified":1461912419,
    "wof:name":"American Standard Insurance Agency Inc",
    "wof:parent_id":-1,
    "wof:placetype":"venue",
    "wof:superseded_by":[],
    "wof:supersedes":[],
    "wof:tags":[]
},
  "bbox": [
    -77.044846,
    38.33075,
    -77.044846,
    38.33075
],
  "geometry": {"coordinates":[-77.04484600000001,38.33075],"type":"Point"}
}