{
  "id": 723271331,
  "type": "Feature",
  "properties": {
    "edtf:cessation":"uuuu",
    "edtf:inception":"uuuu",
    "geom:area":0.0,
    "geom:bbox":"-79.523016,37.335687,-79.523016,37.335687",
    "geom:latitude":37.335687,
    "geom:longitude":-79.523016,
    "iso:country":"US",
    "sg:address":"201 N Bridge St",
    "sg:city":"Bedford",
    "sg:classifiers":[
        {
            "category":"Shopping",
            "subcategory":"Used Merchandise",
            "type":"Retail Goods"
        }
    ],
    "sg:owner":"simplegeo",
    "sg:phone":"+1 540 586 4103",
    "sg:postcode":"24523",
    "sg:province":"VA",
    "sg:tags":[
        "antique"
    ],
    "src:geom":"simplegeo",
    "wof:belongsto":[],
    "wof:breaches":[],
    "wof:concordances":{
        "sg:id":"SG_3bOyz4LFpJuLTcYGgyiBNg_37.335687_-79.523016@1294252573"
    },
    "wof:country":"US",
    "wof:created":1461898529,
    "wof:geomhash":"5ac7e745b9cc80e738bd4ecff902f444",
    "wof:hierarchy":[],
    "wof:id":723271331,
    "wof:lastmodified":1461898529,
    "wof:name":"Bluebird Estate Jewelry",
    "wof:parent_id":-1,
    "wof:placetype":"venue",
    "wof:superseded_by":[],
    "wof:supersedes":[],
    "wof:tags":[
        "antique"
    ]
},
  "bbox": [
    -79.523016,
    37.335687,
    -79.523016,
    37.335687
],
  "geometry": {"coordinates":[-79.523016,37.335687],"type":"Point"}
}