{
  "id": 722999217,
  "type": "Feature",
  "properties": {
    "edtf:cessation":"uuuu",
    "edtf:inception":"uuuu",
    "geom:area":0.0,
    "geom:bbox":"-77.405243,37.650044,-77.405243,37.650044",
    "geom:latitude":37.650044,
    "geom:longitude":-77.405243,
    "iso:country":"US",
    "sg:address":"9139 Dickey Dr",
    "sg:city":"Mechanicsville",
    "sg:classifiers":[
        {
            "category":"Retail",
            "subcategory":"Repair Shop",
            "type":"Services"
        }
    ],
    "sg:owner":"simplegeo",
    "sg:phone":"+1 804 730 1759",
    "sg:postcode":"23116",
    "sg:province":"VA",
    "sg:tags":[
        "water",
        "equipment",
        "softening"
    ],
    "src:geom":"simplegeo",
    "wof:belongsto":[],
    "wof:breaches":[],
    "wof:concordances":{
        "sg:id":"SG_7c32OeZd7sGnAjU2inhRDH_37.650044_-77.405243@1294252573"
    },
    "wof:country":"US",
    "wof:created":1461892890,
    "wof:geomhash":"f00b9a498b3c924ccf4d0bab1ad1e923",
    "wof:hierarchy":[],
    "wof:id":722999217,
    "wof:lastmodified":1461892890,
    "wof:name":"Commonwealth H2o Svc Inc",
    "wof:parent_id":-1,
    "wof:placetype":"venue",
    "wof:superseded_by":[],
    "wof:supersedes":[],
    "wof:tags":[
        "water",
        "equipment",
        "softening"
    ]
},
  "bbox": [
    -77.405243,
    37.650044,
    -77.405243,
    37.650044
],
  "geometry": {"coordinates":[-77.405243,37.650044],"type":"Point"}
}