{
  "id": 722944195,
  "type": "Feature",
  "properties": {
    "edtf:cessation":"uuuu",
    "edtf:inception":"uuuu",
    "geom:area":0.0,
    "geom:bbox":"-80.609257,37.190303,-80.609257,37.190303",
    "geom:latitude":37.190303,
    "geom:longitude":-80.609257,
    "iso:country":"US",
    "sg:address":"6887 Depot Rd",
    "sg:city":"Belspring",
    "sg:classifiers":[
        {
            "category":"Organizations",
            "subcategory":"Religious Organization",
            "type":"Services"
        }
    ],
    "sg:owner":"simplegeo",
    "sg:phone":"+1 540 639 4182",
    "sg:postcode":"24058",
    "sg:province":"VA",
    "src:geom":"simplegeo",
    "wof:belongsto":[],
    "wof:breaches":[],
    "wof:concordances":{
        "sg:id":"SG_2xewnNnGCJTnAop0WDZe8N_37.190303_-80.609257@1294252573"
    },
    "wof:country":"US",
    "wof:created":1461891714,
    "wof:geomhash":"dad7b68b1b1ef90f7cef4c5883d11e87",
    "wof:hierarchy":[],
    "wof:id":722944195,
    "wof:lastmodified":1461891714,
    "wof:name":"Belspring Baptist Church",
    "wof:parent_id":-1,
    "wof:placetype":"venue",
    "wof:superseded_by":[],
    "wof:supersedes":[],
    "wof:tags":[]
},
  "bbox": [
    -80.609257,
    37.190303,
    -80.609257,
    37.190303
],
  "geometry": {"coordinates":[-80.609257,37.190303],"type":"Point"}
}