{
  "id": 723479879,
  "type": "Feature",
  "properties": {
    "edtf:cessation":"uuuu",
    "edtf:inception":"uuuu",
    "geom:area":0.0,
    "geom:bbox":"-77.271675,38.86824,-77.271675,38.86824",
    "geom:latitude":38.86824,
    "geom:longitude":-77.271675,
    "iso:country":"US",
    "sg:address":"9411 Lee Hwy",
    "sg:city":"Fairfax",
    "sg:classifiers":[
        {
            "category":"Real Estate",
            "subcategory":"Architect",
            "type":"Services"
        }
    ],
    "sg:owner":"simplegeo",
    "sg:phone":"+1 703 383 8340",
    "sg:postcode":"22031",
    "sg:province":"VA",
    "sg:tags":[
        "architectural"
    ],
    "src:geom":"simplegeo",
    "wof:belongsto":[],
    "wof:breaches":[],
    "wof:concordances":{
        "sg:id":"SG_7OoXOlVMSZ6qkIcTXUam3o_38.868240_-77.271675@1294252573"
    },
    "wof:country":"US",
    "wof:created":1461902538,
    "wof:geomhash":"49ccdab433076fde5f6fe20a0a5359ba",
    "wof:hierarchy":[],
    "wof:id":723479879,
    "wof:lastmodified":1461902538,
    "wof:name":"Rk Architects PC",
    "wof:parent_id":-1,
    "wof:placetype":"venue",
    "wof:superseded_by":[],
    "wof:supersedes":[],
    "wof:tags":[
        "architectural"
    ]
},
  "bbox": [
    -77.271675,
    38.86824,
    -77.271675,
    38.86824
],
  "geometry": {"coordinates":[-77.271675,38.86824],"type":"Point"}
}