{
  "id": 739462029,
  "type": "Feature",
  "properties": {
    "edtf:cessation":"uuuu",
    "edtf:inception":"uuuu",
    "geom:area":0.0,
    "geom:bbox":"-77.474292,37.711811,-77.474292,37.711811",
    "geom:latitude":37.711811,
    "geom:longitude":-77.474292,
    "iso:country":"US",
    "sg:address":"11030 Lewistown Rd",
    "sg:city":"Ashland",
    "sg:classifiers":[
        {
            "category":"Manufacturing",
            "subcategory":"Metals",
            "type":"Manufacturing & Wholesale Goods"
        }
    ],
    "sg:owner":"simplegeo",
    "sg:phone":"+1 804 798 2628",
    "sg:postcode":"23005",
    "sg:province":"VA",
    "sg:tags":[
        "erection",
        "fabrication",
        "miscellaneous"
    ],
    "src:geom":"simplegeo",
    "wof:belongsto":[],
    "wof:breaches":[],
    "wof:concordances":{
        "sg:id":"SG_4dijyOEOZztsA8EXvPSyn9_37.711811_-77.474292@1294252573"
    },
    "wof:country":"US",
    "wof:created":1461907749,
    "wof:geomhash":"648a8ed4899472489b7b7caf3a3295a0",
    "wof:hierarchy":[],
    "wof:id":739462029,
    "wof:lastmodified":1461907749,
    "wof:name":"South Anna Stair & Rail Co",
    "wof:parent_id":-1,
    "wof:placetype":"venue",
    "wof:superseded_by":[],
    "wof:supersedes":[],
    "wof:tags":[
        "erection",
        "fabrication",
        "miscellaneous"
    ]
},
  "bbox": [
    -77.474292,
    37.711811,
    -77.474292,
    37.711811
],
  "geometry": {"coordinates":[-77.47429200000001,37.711811],"type":"Point"}
}