{
  "id": 722998961,
  "type": "Feature",
  "properties": {
    "edtf:cessation":"uuuu",
    "edtf:inception":"uuuu",
    "geom:area":0.0,
    "geom:bbox":"-78.12149,39.157092,-78.12149,39.157092",
    "geom:latitude":39.157092,
    "geom:longitude":-78.12149,
    "iso:country":"US",
    "sg:address":"1244 Greenwood Rd",
    "sg:city":"Winchester",
    "sg:classifiers":[
        {
            "category":"Organizations",
            "subcategory":"Religious Organization",
            "type":"Services"
        }
    ],
    "sg:owner":"simplegeo",
    "sg:phone":"+1 540 667 7737",
    "sg:postcode":"22602",
    "sg:province":"VA",
    "sg:website":"www.thelandcelebration.org",
    "src:geom":"simplegeo",
    "wof:belongsto":[],
    "wof:breaches":[],
    "wof:concordances":{
        "sg:id":"SG_0DKwPX1fyu4zxDjBJeNBUk_39.157092_-78.121490@1294252573"
    },
    "wof:country":"US",
    "wof:created":1461892885,
    "wof:geomhash":"c4feb2d568f84ff06b524a79817d73b5",
    "wof:hierarchy":[],
    "wof:id":722998961,
    "wof:lastmodified":1461892885,
    "wof:name":"Lords Chapel",
    "wof:parent_id":-1,
    "wof:placetype":"venue",
    "wof:superseded_by":[],
    "wof:supersedes":[],
    "wof:tags":[]
},
  "bbox": [
    -78.12149,
    39.157092,
    -78.12149,
    39.157092
],
  "geometry": {"coordinates":[-78.12148999999999,39.157092],"type":"Point"}
}