{
  "id": 723427239,
  "type": "Feature",
  "properties": {
    "edtf:cessation":"uuuu",
    "edtf:inception":"uuuu",
    "geom:area":0.0,
    "geom:bbox":"-77.451188,38.845425,-77.451188,38.845425",
    "geom:latitude":38.845425,
    "geom:longitude":-77.451188,
    "iso:country":"US",
    "sg:address":"14513 Battery Ridge Ct",
    "sg:city":"Centreville",
    "sg:classifiers":[
        {
            "category":"Professional",
            "subcategory":"Computer Services",
            "type":"Services"
        }
    ],
    "sg:owner":"simplegeo",
    "sg:phone":"+1 571 236 7908",
    "sg:postcode":"20120",
    "sg:province":"VA",
    "sg:tags":[
        "related"
    ],
    "src:geom":"simplegeo",
    "wof:belongsto":[],
    "wof:breaches":[],
    "wof:concordances":{
        "sg:id":"SG_2PWlxlAcNFFpi2iYsHF6ok_38.845425_-77.451188@1294252573"
    },
    "wof:country":"US",
    "wof:created":1461901521,
    "wof:geomhash":"118060acce2c85b6ed1a075d8ef11887",
    "wof:hierarchy":[],
    "wof:id":723427239,
    "wof:lastmodified":1461901521,
    "wof:name":"Manish Bhatia",
    "wof:parent_id":-1,
    "wof:placetype":"venue",
    "wof:superseded_by":[],
    "wof:supersedes":[],
    "wof:tags":[
        "related"
    ]
},
  "bbox": [
    -77.451188,
    38.845425,
    -77.451188,
    38.845425
],
  "geometry": {"coordinates":[-77.451188,38.845425],"type":"Point"}
}