{
  "id": 722816139,
  "type": "Feature",
  "properties": {
    "edtf:cessation":"uuuu",
    "edtf:inception":"uuuu",
    "geom:area":0.0,
    "geom:bbox":"-77.723975,37.676046,-77.723975,37.676046",
    "geom:latitude":37.676046,
    "geom:longitude":-77.723975,
    "iso:country":"US",
    "sg:address":"570 Three Chopt Rd",
    "sg:city":"Manakin Sabot",
    "sg:classifiers":[
        {
            "category":"Retail",
            "subcategory":"Animal Services",
            "type":"Services"
        }
    ],
    "sg:owner":"simplegeo",
    "sg:phone":"+1 804 784 0594",
    "sg:postcode":"23103",
    "sg:province":"VA",
    "sg:tags":[
        "pet"
    ],
    "src:geom":"simplegeo",
    "wof:belongsto":[],
    "wof:breaches":[],
    "wof:concordances":{
        "sg:id":"SG_6hUTm6jvdNGXjLjSYMF0Nz_37.676046_-77.723975@1294252573"
    },
    "wof:country":"US",
    "wof:created":1461889180,
    "wof:geomhash":"e38976682e0663e02c8b9d16cf41e40c",
    "wof:hierarchy":[],
    "wof:id":722816139,
    "wof:lastmodified":1461889180,
    "wof:name":"Animal Integrative Medicine",
    "wof:parent_id":-1,
    "wof:placetype":"venue",
    "wof:superseded_by":[],
    "wof:supersedes":[],
    "wof:tags":[
        "pet"
    ]
},
  "bbox": [
    -77.723975,
    37.676046,
    -77.723975,
    37.676046
],
  "geometry": {"coordinates":[-77.723975,37.676046],"type":"Point"}
}