{
  "id": 723075503,
  "type": "Feature",
  "properties": {
    "edtf:cessation":"uuuu",
    "edtf:inception":"uuuu",
    "geom:area":0.0,
    "geom:bbox":"-77.438951,38.775724,-77.438951,38.775724",
    "geom:latitude":38.775724,
    "geom:longitude":-77.438951,
    "iso:country":"US",
    "sg:address":"9102 Industry Dr",
    "sg:city":"Manassas",
    "sg:classifiers":[
        {
            "category":"Building & Trades",
            "subcategory":"Pest Control",
            "type":"Services"
        }
    ],
    "sg:owner":"simplegeo",
    "sg:phone":"+1 703 281 5555",
    "sg:postcode":"20111",
    "sg:province":"VA",
    "src:geom":"simplegeo",
    "wof:belongsto":[],
    "wof:breaches":[],
    "wof:concordances":{
        "sg:id":"SG_3KK7X2faYmq5qsQZGA1dZg_38.775724_-77.438951@1294252573"
    },
    "wof:country":"US",
    "wof:created":1461894594,
    "wof:geomhash":"04d954b4a896005b8f9783dc326f0da5",
    "wof:hierarchy":[],
    "wof:id":723075503,
    "wof:lastmodified":1461894594,
    "wof:name":"Perma Treat",
    "wof:parent_id":-1,
    "wof:placetype":"venue",
    "wof:superseded_by":[],
    "wof:supersedes":[],
    "wof:tags":[]
},
  "bbox": [
    -77.438951,
    38.775724,
    -77.438951,
    38.775724
],
  "geometry": {"coordinates":[-77.438951,38.775724],"type":"Point"}
}