{
  "id": 739686361,
  "type": "Feature",
  "properties": {
    "edtf:cessation":"uuuu",
    "edtf:inception":"uuuu",
    "geom:area":0.0,
    "geom:bbox":"-77.131409,38.835155,-77.131409,38.835155",
    "geom:latitude":38.835155,
    "geom:longitude":-77.131409,
    "iso:country":"US",
    "sg:address":"5812 Doris Dr",
    "sg:city":"Alexandria",
    "sg:classifiers":[
        {
            "category":"Shopping",
            "subcategory":"Music",
            "type":"Retail Goods"
        }
    ],
    "sg:owner":"simplegeo",
    "sg:phone":"+1 703 379 1954",
    "sg:postcode":"22311",
    "sg:province":"VA",
    "sg:tags":[
        "used",
        "tapes",
        "vintage",
        "records",
        "cd's",
        "store"
    ],
    "src:geom":"simplegeo",
    "wof:belongsto":[
        85688747,
        102191575,
        85633793,
        101729761,
        102084863,
        85840675
    ],
    "wof:breaches":[],
    "wof:concordances":{
        "sg:id":"SG_6WZ6bTvbFVCCGpLmqc2VGl_38.835155_-77.131409@1303262546"
    },
    "wof:country":"US",
    "wof:created":1461912272,
    "wof:geomhash":"190c0fc0da4dd3f7179033f329b0b542",
    "wof:hierarchy":[
        {
            "continent_id":102191575,
            "country_id":85633793,
            "county_id":102084863,
            "locality_id":101729761,
            "neighbourhood_id":85840675,
            "region_id":85688747,
            "venue_id":739686361
        }
    ],
    "wof:id":739686361,
    "wof:lastmodified":1461912272,
    "wof:name":"Record Buyer",
    "wof:parent_id":85840675,
    "wof:placetype":"venue",
    "wof:superseded_by":[],
    "wof:supersedes":[],
    "wof:tags":[
        "used",
        "tapes",
        "vintage",
        "records",
        "cd's",
        "store"
    ]
},
  "bbox": [
    -77.131409,
    38.835155,
    -77.131409,
    38.835155
],
  "geometry": {"coordinates":[-77.131409,38.835155],"type":"Point"}
}