{
  "id": 723135513,
  "type": "Feature",
  "properties": {
    "edtf:cessation":"uuuu",
    "edtf:inception":"uuuu",
    "geom:area":0.0,
    "geom:bbox":"-77.645802,37.520969,-77.645802,37.520969",
    "geom:latitude":37.520969,
    "geom:longitude":-77.645802,
    "iso:country":"US",
    "sg:address":"2311 Baronsmeade Rd",
    "sg:city":"Midlothian",
    "sg:classifiers":[
        {
            "category":"Professional",
            "subcategory":"Management & Consulting",
            "type":"Services"
        }
    ],
    "sg:owner":"simplegeo",
    "sg:phone":"+1 804 378 6723",
    "sg:postcode":"23113",
    "sg:province":"VA",
    "sg:tags":[
        "economic",
        "financial"
    ],
    "src:geom":"simplegeo",
    "wof:belongsto":[],
    "wof:breaches":[],
    "wof:concordances":{
        "sg:id":"SG_1YXFR6GOgZQqW5pskCF3MX_37.520969_-77.645802@1294252573"
    },
    "wof:country":"US",
    "wof:created":1461895802,
    "wof:geomhash":"3a19e3ede09f6b5d16daa15276b051da",
    "wof:hierarchy":[],
    "wof:id":723135513,
    "wof:lastmodified":1461895802,
    "wof:name":"Fishe Raymond PH PHD",
    "wof:parent_id":-1,
    "wof:placetype":"venue",
    "wof:superseded_by":[],
    "wof:supersedes":[],
    "wof:tags":[
        "economic",
        "financial"
    ]
},
  "bbox": [
    -77.645802,
    37.520969,
    -77.645802,
    37.520969
],
  "geometry": {"coordinates":[-77.645802,37.520969],"type":"Point"}
}