{
  "id": 723169603,
  "type": "Feature",
  "properties": {
    "edtf:cessation":"uuuu",
    "edtf:inception":"uuuu",
    "geom:area":0.0,
    "geom:bbox":"-79.144804,37.416064,-79.144804,37.416064",
    "geom:latitude":37.416064,
    "geom:longitude":-79.144804,
    "iso:country":"US",
    "sg:address":"615 Church St",
    "sg:city":"Lynchburg",
    "sg:classifiers":[
        {
            "category":"Banks & Credit Unions",
            "subcategory":"Bank",
            "type":"Services"
        }
    ],
    "sg:owner":"simplegeo",
    "sg:phone":"+1 434 846 2000",
    "sg:postcode":"24504",
    "sg:province":"VA",
    "sg:website":"www.bankofthejames.com",
    "src:geom":"simplegeo",
    "wof:belongsto":[],
    "wof:breaches":[],
    "wof:concordances":{
        "sg:id":"SG_26OCoYMEoeBFejA5VH0JAS_37.416064_-79.144804@1294252573"
    },
    "wof:country":"US",
    "wof:created":1461896470,
    "wof:geomhash":"4b0014566eced64f59e1c08538594057",
    "wof:hierarchy":[],
    "wof:id":723169603,
    "wof:lastmodified":1461896470,
    "wof:name":"Bank Of The James",
    "wof:parent_id":-1,
    "wof:placetype":"venue",
    "wof:superseded_by":[],
    "wof:supersedes":[],
    "wof:tags":[]
},
  "bbox": [
    -79.144804,
    37.416064,
    -79.144804,
    37.416064
],
  "geometry": {"coordinates":[-79.14480399999999,37.416064],"type":"Point"}
}