{
  "id": 723298539,
  "type": "Feature",
  "properties": {
    "edtf:cessation":"uuuu",
    "edtf:inception":"uuuu",
    "geom:area":0.0,
    "geom:bbox":"-77.557262,37.638519,-77.557262,37.638519",
    "geom:latitude":37.638519,
    "geom:longitude":-77.557262,
    "iso:country":"US",
    "sg:address":"3504 Corum Dr",
    "sg:city":"Richmond",
    "sg:classifiers":[
        {
            "category":"Professional",
            "subcategory":"Management & Consulting",
            "type":"Services"
        }
    ],
    "sg:owner":"simplegeo",
    "sg:phone":"+1 804 935 0839",
    "sg:postcode":"23294",
    "sg:province":"VA",
    "src:geom":"simplegeo",
    "wof:belongsto":[],
    "wof:breaches":[],
    "wof:concordances":{
        "sg:id":"SG_3V6KJ4PlDZPQKF5PZHVzbL_37.638519_-77.557262@1294252573"
    },
    "wof:country":"US",
    "wof:created":1461899036,
    "wof:geomhash":"0c636610b103a65b0dc20ad1911bf361",
    "wof:hierarchy":[],
    "wof:id":723298539,
    "wof:lastmodified":1461899036,
    "wof:name":"Bfc Financial Inc",
    "wof:parent_id":-1,
    "wof:placetype":"venue",
    "wof:superseded_by":[],
    "wof:supersedes":[],
    "wof:tags":[]
},
  "bbox": [
    -77.557262,
    37.638519,
    -77.557262,
    37.638519
],
  "geometry": {"coordinates":[-77.55726199999999,37.638519],"type":"Point"}
}