{
  "id": 723126841,
  "type": "Feature",
  "properties": {
    "edtf:cessation":"uuuu",
    "edtf:inception":"uuuu",
    "geom:area":0.0,
    "geom:bbox":"-76.270696,36.81491,-76.270696,36.81491",
    "geom:latitude":36.81491,
    "geom:longitude":-76.270696,
    "iso:country":"US",
    "sg:address":"1226 Seaboard Ave",
    "sg:city":"Chesapeake",
    "sg:classifiers":[
        {
            "category":"Manufacturing",
            "subcategory":"Printing",
            "type":"Manufacturing & Wholesale Goods"
        }
    ],
    "sg:owner":"simplegeo",
    "sg:phone":"+1 757 543 5400",
    "sg:postcode":"23324",
    "sg:province":"VA",
    "sg:tags":[
        "lithographic",
        "commercial"
    ],
    "src:geom":"simplegeo",
    "wof:belongsto":[],
    "wof:breaches":[],
    "wof:concordances":{
        "sg:id":"SG_4nK0PwfhVwubVDGTOR81mv_36.814910_-76.270696@1294252573"
    },
    "wof:country":"US",
    "wof:created":1461895641,
    "wof:geomhash":"1dc4d648395746c2359dc7b6bd453f79",
    "wof:hierarchy":[],
    "wof:id":723126841,
    "wof:lastmodified":1461895641,
    "wof:name":"D & S Imprintables",
    "wof:parent_id":-1,
    "wof:placetype":"venue",
    "wof:superseded_by":[],
    "wof:supersedes":[],
    "wof:tags":[
        "lithographic",
        "commercial"
    ]
},
  "bbox": [
    -76.270696,
    36.81491,
    -76.270696,
    36.81491
],
  "geometry": {"coordinates":[-76.270696,36.81491],"type":"Point"}
}