{
  "id": 722831115,
  "type": "Feature",
  "properties": {
    "edtf:cessation":"uuuu",
    "edtf:inception":"uuuu",
    "geom:area":0.0,
    "geom:bbox":"-77.570983,37.491131,-77.570983,37.491131",
    "geom:latitude":37.491131,
    "geom:longitude":-77.570983,
    "iso:country":"US",
    "sg:address":"9213 Groomfield Rd",
    "sg:city":"Richmond",
    "sg:classifiers":[
        {
            "category":"Restaurant",
            "subcategory":"",
            "type":"Food & Drink"
        }
    ],
    "sg:owner":"simplegeo",
    "sg:phone":"+1 804 272 8573",
    "sg:postcode":"23236",
    "sg:province":"VA",
    "sg:tags":[
        "eating"
    ],
    "src:geom":"simplegeo",
    "wof:belongsto":[],
    "wof:breaches":[],
    "wof:concordances":{
        "sg:id":"SG_1V0hzUSBSKz4U1fRzyXCGJ_37.491131_-77.570983@1294252573"
    },
    "wof:country":"US",
    "wof:created":1461889466,
    "wof:geomhash":"eb1c7f3f1fec4e54b0ecff154ebe4eea",
    "wof:hierarchy":[],
    "wof:id":722831115,
    "wof:lastmodified":1461889466,
    "wof:name":"Italian American Cultural",
    "wof:parent_id":-1,
    "wof:placetype":"venue",
    "wof:superseded_by":[],
    "wof:supersedes":[],
    "wof:tags":[
        "eating"
    ]
},
  "bbox": [
    -77.570983,
    37.491131,
    -77.570983,
    37.491131
],
  "geometry": {"coordinates":[-77.570983,37.491131],"type":"Point"}
}