{
  "id": 722842325,
  "type": "Feature",
  "properties": {
    "edtf:cessation":"uuuu",
    "edtf:inception":"uuuu",
    "geom:area":0.0,
    "geom:bbox":"-77.422826,37.403236,-77.422826,37.403236",
    "geom:latitude":37.403236,
    "geom:longitude":-77.422826,
    "iso:country":"US",
    "sg:address":"9000 Burge Ave",
    "sg:city":"Richmond",
    "sg:classifiers":[
        {
            "category":"Wholesale",
            "subcategory":"Jewelry",
            "type":"Manufacturing & Wholesale Goods"
        }
    ],
    "sg:owner":"simplegeo",
    "sg:phone":"+1 804 743 7096",
    "sg:postcode":"23237",
    "sg:province":"VA",
    "sg:tags":[
        "stone"
    ],
    "src:geom":"simplegeo",
    "wof:belongsto":[],
    "wof:breaches":[],
    "wof:concordances":{
        "sg:id":"SG_5vGD0ykT8COyhFa8qFnrAT_37.403236_-77.422826@1294252573"
    },
    "wof:country":"US",
    "wof:created":1461889671,
    "wof:geomhash":"0bde7b2c5842fd6b82cd45a8a4d04cb8",
    "wof:hierarchy":[],
    "wof:id":722842325,
    "wof:lastmodified":1461889671,
    "wof:name":"Discount Trophy & Co Inc",
    "wof:parent_id":-1,
    "wof:placetype":"venue",
    "wof:superseded_by":[],
    "wof:supersedes":[],
    "wof:tags":[
        "stone"
    ]
},
  "bbox": [
    -77.422826,
    37.403236,
    -77.422826,
    37.403236
],
  "geometry": {"coordinates":[-77.422826,37.403236],"type":"Point"}
}