{
  "id": 722743243,
  "type": "Feature",
  "properties": {
    "edtf:cessation":"uuuu",
    "edtf:inception":"uuuu",
    "geom:area":0.0,
    "geom:bbox":"-78.123837,37.174491,-78.123837,37.174491",
    "geom:latitude":37.174491,
    "geom:longitude":-78.123837,
    "iso:country":"US",
    "sg:address":"102 Tyler St",
    "sg:city":"Crewe",
    "sg:classifiers":[
        {
            "category":"Wholesale",
            "subcategory":"Auto Parts",
            "type":"Manufacturing & Wholesale Goods"
        }
    ],
    "sg:owner":"simplegeo",
    "sg:phone":"+1 434 645 1415",
    "sg:postcode":"23930",
    "sg:province":"VA",
    "sg:tags":[
        "aircraft",
        "tire"
    ],
    "src:geom":"simplegeo",
    "wof:belongsto":[],
    "wof:breaches":[],
    "wof:concordances":{
        "sg:id":"SG_2AGZRjPRsM3Es9ghjZyPR3_37.174491_-78.123837@1294252573"
    },
    "wof:country":"US",
    "wof:created":1461887813,
    "wof:geomhash":"e023902a875318dd18c2cd694352701e",
    "wof:hierarchy":[],
    "wof:id":722743243,
    "wof:lastmodified":1461887813,
    "wof:name":"Dunlop Aircraft Tire",
    "wof:parent_id":-1,
    "wof:placetype":"venue",
    "wof:superseded_by":[],
    "wof:supersedes":[],
    "wof:tags":[
        "aircraft",
        "tire"
    ]
},
  "bbox": [
    -78.123837,
    37.174491,
    -78.123837,
    37.174491
],
  "geometry": {"coordinates":[-78.12383699999999,37.174491],"type":"Point"}
}