{
  "id": 722689621,
  "type": "Feature",
  "properties": {
    "edtf:cessation":"uuuu",
    "edtf:inception":"uuuu",
    "geom:area":0.0,
    "geom:bbox":"-77.514735,38.246835,-77.514735,38.246835",
    "geom:latitude":38.246835,
    "geom:longitude":-77.514735,
    "iso:country":"US",
    "sg:address":"616 Stoney Creek Dr",
    "sg:city":"Fredericksburg",
    "sg:classifiers":[
        {
            "category":"Social Services",
            "subcategory":"Child Care",
            "type":"Services"
        }
    ],
    "sg:owner":"simplegeo",
    "sg:phone":"+1 540 898 3378",
    "sg:postcode":"22407",
    "sg:province":"VA",
    "sg:tags":[
        "day"
    ],
    "src:geom":"simplegeo",
    "wof:belongsto":[],
    "wof:breaches":[],
    "wof:concordances":{
        "sg:id":"SG_0sMOg4Ya73eGrZxcHTXCHg_38.246835_-77.514735@1294252573"
    },
    "wof:country":"US",
    "wof:created":1461886775,
    "wof:geomhash":"cbf939b0225d4fdf3f3461f4c8c93a01",
    "wof:hierarchy":[],
    "wof:id":722689621,
    "wof:lastmodified":1461886775,
    "wof:name":"La Petite Academy 989",
    "wof:parent_id":-1,
    "wof:placetype":"venue",
    "wof:superseded_by":[],
    "wof:supersedes":[],
    "wof:tags":[
        "day"
    ]
},
  "bbox": [
    -77.514735,
    38.246835,
    -77.514735,
    38.246835
],
  "geometry": {"coordinates":[-77.514735,38.246835],"type":"Point"}
}