{
  "id": 722928605,
  "type": "Feature",
  "properties": {
    "edtf:cessation":"uuuu",
    "edtf:inception":"uuuu",
    "geom:area":0.0,
    "geom:bbox":"-77.62489,39.171627,-77.62489,39.171627",
    "geom:latitude":39.171627,
    "geom:longitude":-77.62489,
    "iso:country":"US",
    "sg:address":"39923 Grassley Farm Ln",
    "sg:city":"Waterford",
    "sg:classifiers":[
        {
            "category":"Shopping",
            "subcategory":"Books",
            "type":"Retail Goods"
        }
    ],
    "sg:owner":"simplegeo",
    "sg:phone":"+1 540 882 4659",
    "sg:postcode":"20197",
    "sg:province":"VA",
    "src:geom":"simplegeo",
    "wof:belongsto":[],
    "wof:breaches":[],
    "wof:concordances":{
        "sg:id":"SG_0iZJbqEZ68GAyYOUweIryt_39.171627_-77.624890@1294252573"
    },
    "wof:country":"US",
    "wof:created":1461891381,
    "wof:geomhash":"466214aa5cf25d5d7f80f76009458ad0",
    "wof:hierarchy":[],
    "wof:id":722928605,
    "wof:lastmodified":1461891381,
    "wof:name":"EBM Productions Inc",
    "wof:parent_id":-1,
    "wof:placetype":"venue",
    "wof:superseded_by":[],
    "wof:supersedes":[],
    "wof:tags":[]
},
  "bbox": [
    -77.62489,
    39.171627,
    -77.62489,
    39.171627
],
  "geometry": {"coordinates":[-77.62488999999999,39.171627],"type":"Point"}
}