{
  "id": 723414881,
  "type": "Feature",
  "properties": {
    "edtf:cessation":"uuuu",
    "edtf:inception":"uuuu",
    "geom:area":0.0,
    "geom:bbox":"-77.434785,38.311453,-77.434785,38.311453",
    "geom:latitude":38.311453,
    "geom:longitude":-77.434785,
    "iso:country":"US",
    "sg:address":"1114 Potomac Ave",
    "sg:city":"Fredericksburg",
    "sg:classifiers":[
        {
            "category":"Personal",
            "subcategory":"Beauty Salon",
            "type":"Services"
        }
    ],
    "sg:owner":"simplegeo",
    "sg:phone":"+1 540 373 4838",
    "sg:postcode":"22405",
    "sg:province":"VA",
    "sg:tags":[
        "shop"
    ],
    "src:geom":"simplegeo",
    "wof:belongsto":[],
    "wof:breaches":[],
    "wof:concordances":{
        "sg:id":"SG_6romXKh51VLZoujn0wUaeQ_38.311453_-77.434785@1294252573"
    },
    "wof:country":"US",
    "wof:created":1461901266,
    "wof:geomhash":"8460008d82bf3ae157b4995ec65889c9",
    "wof:hierarchy":[],
    "wof:id":723414881,
    "wof:lastmodified":1461901266,
    "wof:name":"White Oak Beauty Salon",
    "wof:parent_id":420547245,
    "wof:placetype":"venue",
    "wof:superseded_by":[],
    "wof:supersedes":[],
    "wof:tags":[
        "shop"
    ]
},
  "bbox": [
    -77.434785,
    38.311453,
    -77.434785,
    38.311453
],
  "geometry": {"coordinates":[-77.43478500000001,38.311453],"type":"Point"}
}