{
  "id": 722716503,
  "type": "Feature",
  "properties": {
    "edtf:cessation":"uuuu",
    "edtf:inception":"uuuu",
    "geom:area":0.0,
    "geom:bbox":"-77.440746,37.698085,-77.440746,37.698085",
    "geom:latitude":37.698085,
    "geom:longitude":-77.440746,
    "iso:country":"US",
    "sg:address":"10997 Richardson Rd",
    "sg:city":"Ashland",
    "sg:classifiers":[
        {
            "category":"Cinema",
            "subcategory":"Movie Rental",
            "type":"Entertainment"
        }
    ],
    "sg:owner":"simplegeo",
    "sg:phone":"+1 804 752 7622",
    "sg:postcode":"23005",
    "sg:province":"VA",
    "sg:tags":[
        "video",
        "tape"
    ],
    "src:geom":"simplegeo",
    "wof:belongsto":[],
    "wof:breaches":[],
    "wof:concordances":{
        "sg:id":"SG_7PdiCLIKNRhkqoIjChcMH2_37.698085_-77.440746@1294252573"
    },
    "wof:country":"US",
    "wof:created":1461887277,
    "wof:geomhash":"0fe198ebdd6d3b10cfae59d39f43e5bf",
    "wof:hierarchy":[],
    "wof:id":722716503,
    "wof:lastmodified":1461887277,
    "wof:name":"Diversified SEC & Video Esq",
    "wof:parent_id":-1,
    "wof:placetype":"venue",
    "wof:superseded_by":[],
    "wof:supersedes":[],
    "wof:tags":[
        "video",
        "tape"
    ]
},
  "bbox": [
    -77.440746,
    37.698085,
    -77.440746,
    37.698085
],
  "geometry": {"coordinates":[-77.440746,37.698085],"type":"Point"}
}