{
  "id": 739698883,
  "type": "Feature",
  "properties": {
    "edtf:cessation":"uuuu",
    "edtf:inception":"uuuu",
    "geom:area":0.0,
    "geom:bbox":"-78.484703,38.069801,-78.484703,38.069801",
    "geom:latitude":38.069801,
    "geom:longitude":-78.484703,
    "iso:country":"US",
    "sg:address":"1149 Seminole Trl",
    "sg:city":"Charlottesville",
    "sg:classifiers":[
        {
            "category":"Health Services",
            "subcategory":"Doctor",
            "type":"Services"
        }
    ],
    "sg:owner":"simplegeo",
    "sg:phone":"+1 434 978 3998",
    "sg:postcode":"22901",
    "sg:province":"VA",
    "src:geom":"simplegeo",
    "wof:belongsto":[],
    "wof:breaches":[],
    "wof:concordances":{
        "sg:id":"SG_7DpnNPlpSvuHmY0v4qK73J_38.069801_-78.484703@1303262547"
    },
    "wof:country":"US",
    "wof:created":1461912528,
    "wof:geomhash":"6b65d27ada51a7bacc24f67385fa6fb7",
    "wof:hierarchy":[],
    "wof:id":739698883,
    "wof:lastmodified":1461912528,
    "wof:name":"Munson Amie R MD",
    "wof:parent_id":-1,
    "wof:placetype":"venue",
    "wof:superseded_by":[],
    "wof:supersedes":[],
    "wof:tags":[]
},
  "bbox": [
    -78.484703,
    38.069801,
    -78.484703,
    38.069801
],
  "geometry": {"coordinates":[-78.484703,38.069801],"type":"Point"}
}