{
  "id": 723054331,
  "type": "Feature",
  "properties": {
    "edtf:cessation":"uuuu",
    "edtf:inception":"uuuu",
    "geom:area":0.0,
    "geom:bbox":"-77.459217,38.830796,-77.459217,38.830796",
    "geom:latitude":38.830796,
    "geom:longitude":-77.459217,
    "iso:country":"US",
    "sg:address":"6406 Paddington Ct",
    "sg:city":"Centreville",
    "sg:classifiers":[
        {
            "category":"Real Estate",
            "subcategory":"Real Estate Agent",
            "type":"Services"
        }
    ],
    "sg:owner":"simplegeo",
    "sg:phone":"+1 703 222 3733",
    "sg:postcode":"20121",
    "sg:province":"VA",
    "sg:tags":[
        "apartment",
        "complex"
    ],
    "src:geom":"simplegeo",
    "wof:belongsto":[],
    "wof:breaches":[],
    "wof:concordances":{
        "sg:id":"SG_4BglC95V04eLarDLni96TD_38.830796_-77.459217@1294252573"
    },
    "wof:country":"US",
    "wof:created":1461894097,
    "wof:geomhash":"3da8d284235e42899690d89f66df6d23",
    "wof:hierarchy":[],
    "wof:id":723054331,
    "wof:lastmodified":1461894097,
    "wof:name":"Lee Overlook Apartments",
    "wof:parent_id":-1,
    "wof:placetype":"venue",
    "wof:superseded_by":[],
    "wof:supersedes":[],
    "wof:tags":[
        "apartment",
        "complex"
    ]
},
  "bbox": [
    -77.459217,
    38.830796,
    -77.459217,
    38.830796
],
  "geometry": {"coordinates":[-77.459217,38.830796],"type":"Point"}
}