{
  "id": 739431451,
  "type": "Feature",
  "properties": {
    "edtf:cessation":"uuuu",
    "edtf:inception":"uuuu",
    "geom:area":0.0,
    "geom:bbox":"-77.510794,38.800673,-77.510794,38.800673",
    "geom:latitude":38.800673,
    "geom:longitude":-77.510794,
    "iso:country":"US",
    "sg:address":"10501 Balls Ford Rd",
    "sg:city":"Manassas",
    "sg:classifiers":[
        {
            "category":"Professional",
            "subcategory":"Engineering",
            "type":"Services"
        }
    ],
    "sg:owner":"simplegeo",
    "sg:phone":"+1 703 330 6660",
    "sg:postcode":"20109",
    "sg:province":"VA",
    "sg:tags":[
        "engineer"
    ],
    "src:geom":"simplegeo",
    "wof:belongsto":[],
    "wof:breaches":[],
    "wof:concordances":{
        "sg:id":"SG_1bVeHXGchZ6cXPdD79QlmB_38.800673_-77.510794@1294252573"
    },
    "wof:country":"US",
    "wof:created":1461907191,
    "wof:geomhash":"e897a37c723cd6f5a3333e98d89f6399",
    "wof:hierarchy":[],
    "wof:id":739431451,
    "wof:lastmodified":1461907191,
    "wof:name":"RBD Technical Svc Inc",
    "wof:parent_id":-1,
    "wof:placetype":"venue",
    "wof:superseded_by":[],
    "wof:supersedes":[],
    "wof:tags":[
        "engineer"
    ]
},
  "bbox": [
    -77.510794,
    38.800673,
    -77.510794,
    38.800673
],
  "geometry": {"coordinates":[-77.510794,38.800673],"type":"Point"}
}