{
  "id": 723281277,
  "type": "Feature",
  "properties": {
    "edtf:cessation":"uuuu",
    "edtf:inception":"uuuu",
    "geom:area":0.0,
    "geom:bbox":"-77.607652,37.702019,-77.607652,37.702019",
    "geom:latitude":37.702019,
    "geom:longitude":-77.607652,
    "iso:country":"US",
    "sg:address":"12017 Layton Dr",
    "sg:city":"Glen Allen",
    "sg:classifiers":[
        {
            "category":"Professional",
            "subcategory":"Management & Consulting",
            "type":"Services"
        }
    ],
    "sg:owner":"simplegeo",
    "sg:phone":"+1 804 364 1775",
    "sg:postcode":"23059",
    "sg:province":"VA",
    "src:geom":"simplegeo",
    "wof:belongsto":[],
    "wof:breaches":[],
    "wof:concordances":{
        "sg:id":"SG_1xVWEB2mDlnXKG0uQQGvJ7_37.702019_-77.607652@1294252573"
    },
    "wof:country":"US",
    "wof:created":1461898701,
    "wof:geomhash":"4591c6017002270944eebb80666c0a4b",
    "wof:hierarchy":[],
    "wof:id":723281277,
    "wof:lastmodified":1461898701,
    "wof:name":"Hce Inc",
    "wof:parent_id":-1,
    "wof:placetype":"venue",
    "wof:superseded_by":[],
    "wof:supersedes":[],
    "wof:tags":[]
},
  "bbox": [
    -77.607652,
    37.702019,
    -77.607652,
    37.702019
],
  "geometry": {"coordinates":[-77.607652,37.702019],"type":"Point"}
}