{
  "id": 722576593,
  "type": "Feature",
  "properties": {
    "edtf:cessation":"uuuu",
    "edtf:inception":"uuuu",
    "geom:area":0.0,
    "geom:bbox":"-77.385263,37.659592,-77.385263,37.659592",
    "geom:latitude":37.659592,
    "geom:longitude":-77.385263,
    "iso:country":"US",
    "sg:address":"9502 Chamberlayne Rd",
    "sg:city":"Mechanicsville",
    "sg:classifiers":[
        {
            "category":"Restaurant",
            "subcategory":"",
            "type":"Food & Drink"
        }
    ],
    "sg:owner":"simplegeo",
    "sg:phone":"+1 804 730 5050",
    "sg:postcode":"23116",
    "sg:province":"VA",
    "sg:tags":[
        "shop",
        "coffee"
    ],
    "src:geom":"simplegeo",
    "wof:belongsto":[],
    "wof:breaches":[],
    "wof:concordances":{
        "sg:id":"SG_03sEhAFb7EiClhpIL4MYZI_37.659592_-77.385263@1294252573"
    },
    "wof:country":"US",
    "wof:created":1461884540,
    "wof:geomhash":"8da080fe14acb9f86cabaf6486d876d9",
    "wof:hierarchy":[],
    "wof:id":722576593,
    "wof:lastmodified":1461884540,
    "wof:name":"San Marco Coffee",
    "wof:parent_id":-1,
    "wof:placetype":"venue",
    "wof:superseded_by":[],
    "wof:supersedes":[],
    "wof:tags":[
        "shop",
        "coffee"
    ]
},
  "bbox": [
    -77.385263,
    37.659592,
    -77.385263,
    37.659592
],
  "geometry": {"coordinates":[-77.38526299999999,37.659592],"type":"Point"}
}