{
  "id": 723412851,
  "type": "Feature",
  "properties": {
    "edtf:cessation":"uuuu",
    "edtf:inception":"uuuu",
    "geom:area":0.0,
    "geom:bbox":"-76.226502,36.776227,-76.226502,36.776227",
    "geom:latitude":36.776227,
    "geom:longitude":-76.226502,
    "iso:country":"US",
    "sg:address":"1013 Eden Way N",
    "sg:city":"Chesapeake",
    "sg:classifiers":[
        {
            "category":"Banks & Credit Unions",
            "subcategory":"Bank",
            "type":"Services"
        }
    ],
    "sg:owner":"simplegeo",
    "sg:phone":"+1 757 549 8600",
    "sg:postcode":"23320",
    "sg:province":"VA",
    "sg:tags":[
        "mortgage",
        "loan",
        "broker",
        "real estate"
    ],
    "src:geom":"simplegeo",
    "wof:belongsto":[],
    "wof:breaches":[],
    "wof:concordances":{
        "sg:id":"SG_48hdyMdbSvGFXSpKZmVSYH_36.776227_-76.226502@1294252573"
    },
    "wof:country":"US",
    "wof:created":1461901223,
    "wof:geomhash":"98f331c2a18aec8bb5d951e4e0bbe686",
    "wof:hierarchy":[],
    "wof:id":723412851,
    "wof:lastmodified":1461901223,
    "wof:name":"Home Town Mortgage Corp",
    "wof:parent_id":-1,
    "wof:placetype":"venue",
    "wof:superseded_by":[],
    "wof:supersedes":[],
    "wof:tags":[
        "mortgage",
        "loan",
        "broker",
        "real estate"
    ]
},
  "bbox": [
    -76.226502,
    36.776227,
    -76.226502,
    36.776227
],
  "geometry": {"coordinates":[-76.226502,36.776227],"type":"Point"}
}