{
  "id": 723201379,
  "type": "Feature",
  "properties": {
    "edtf:cessation":"uuuu",
    "edtf:inception":"uuuu",
    "geom:area":0.0,
    "geom:bbox":"-77.579798,37.657993,-77.579798,37.657993",
    "geom:latitude":37.657993,
    "geom:longitude":-77.579798,
    "iso:country":"US",
    "sg:address":"4435 Waterfront Dr",
    "sg:city":"Glen Allen",
    "sg:classifiers":[
        {
            "category":"Sports & Exercise",
            "subcategory":"Gym",
            "type":"Entertainment"
        }
    ],
    "sg:owner":"simplegeo",
    "sg:phone":"+1 804 965 5300",
    "sg:postcode":"23060",
    "sg:province":"VA",
    "sg:tags":[
        "club",
        "health"
    ],
    "src:geom":"simplegeo",
    "wof:belongsto":[],
    "wof:breaches":[],
    "wof:concordances":{
        "sg:id":"SG_5bLiAoaZ4ZRX4euZOmOC8D_37.657993_-77.579798@1294252573"
    },
    "wof:country":"US",
    "wof:created":1461897098,
    "wof:geomhash":"1b616cd0957655149112236c41f0ec9c",
    "wof:hierarchy":[],
    "wof:id":723201379,
    "wof:lastmodified":1461897098,
    "wof:name":"American Family Fitness Center",
    "wof:parent_id":-1,
    "wof:placetype":"venue",
    "wof:superseded_by":[],
    "wof:supersedes":[],
    "wof:tags":[
        "club",
        "health"
    ]
},
  "bbox": [
    -77.579798,
    37.657993,
    -77.579798,
    37.657993
],
  "geometry": {"coordinates":[-77.579798,37.657993],"type":"Point"}
}