{
  "id": 722997321,
  "type": "Feature",
  "properties": {
    "edtf:cessation":"uuuu",
    "edtf:inception":"uuuu",
    "geom:area":0.0,
    "geom:bbox":"-77.957478,38.26544,-77.957478,38.26544",
    "geom:latitude":38.26544,
    "geom:longitude":-77.957478,
    "iso:country":"US",
    "sg:address":"23494 Village Rd",
    "sg:city":"Unionville",
    "sg:classifiers":[
        {
            "category":"Building & Trades",
            "subcategory":"Construction",
            "type":"Services"
        }
    ],
    "sg:owner":"simplegeo",
    "sg:phone":"+1 540 854 0131",
    "sg:postcode":"22567",
    "sg:province":"VA",
    "sg:tags":[
        "general",
        "contractor"
    ],
    "src:geom":"simplegeo",
    "wof:belongsto":[],
    "wof:breaches":[],
    "wof:concordances":{
        "sg:id":"SG_3XxArZ7YnL1FZoFweCGBAO_38.265440_-77.957478@1294252573"
    },
    "wof:country":"US",
    "wof:created":1461892837,
    "wof:geomhash":"3441b2d84bcc1082aecf26679f6ca096",
    "wof:hierarchy":[],
    "wof:id":722997321,
    "wof:lastmodified":1461892837,
    "wof:name":"Construction Services",
    "wof:parent_id":-1,
    "wof:placetype":"venue",
    "wof:superseded_by":[],
    "wof:supersedes":[],
    "wof:tags":[
        "general",
        "contractor"
    ]
},
  "bbox": [
    -77.957478,
    38.26544,
    -77.957478,
    38.26544
],
  "geometry": {"coordinates":[-77.95747799999999,38.26544],"type":"Point"}
}