{
  "id": 739347899,
  "type": "Feature",
  "properties": {
    "edtf:cessation":"uuuu",
    "edtf:inception":"uuuu",
    "geom:area":0.0,
    "geom:bbox":"-77.56754,37.550495,-77.56754,37.550495",
    "geom:latitude":37.550495,
    "geom:longitude":-77.56754,
    "iso:country":"US",
    "sg:address":"9200 Stony Point Pkwy",
    "sg:city":"Richmond",
    "sg:classifiers":[
        {
            "category":"Professional",
            "subcategory":"Business Services",
            "type":"Services"
        }
    ],
    "sg:owner":"simplegeo",
    "sg:phone":"+1 804 330 7893",
    "sg:postcode":"23235",
    "sg:province":"VA",
    "src:geom":"simplegeo",
    "wof:belongsto":[],
    "wof:breaches":[],
    "wof:concordances":{
        "sg:id":"SG_7UV7YbGv6YHcfJA2TPe3yU_37.550495_-77.567540@1294252573"
    },
    "wof:country":"US",
    "wof:created":1461905567,
    "wof:geomhash":"6377b5cb6ff29133d274b3554eb1450c",
    "wof:hierarchy":[],
    "wof:id":739347899,
    "wof:lastmodified":1461905567,
    "wof:name":"Mikasa Design",
    "wof:parent_id":-1,
    "wof:placetype":"venue",
    "wof:superseded_by":[],
    "wof:supersedes":[],
    "wof:tags":[]
},
  "bbox": [
    -77.56754,
    37.550495,
    -77.56754,
    37.550495
],
  "geometry": {"coordinates":[-77.56753999999999,37.550495],"type":"Point"}
}