{
  "id": 723341629,
  "type": "Feature",
  "properties": {
    "edtf:cessation":"uuuu",
    "edtf:inception":"uuuu",
    "geom:area":0.0,
    "geom:bbox":"-77.457339,37.610946,-77.457339,37.610946",
    "geom:latitude":37.610946,
    "geom:longitude":-77.457339,
    "iso:country":"US",
    "sg:address":"5670 Brook Tpke",
    "sg:city":"Richmond",
    "sg:classifiers":[
        {
            "category":"Shopping",
            "subcategory":"Pharmacy",
            "type":"Retail Goods"
        }
    ],
    "sg:owner":"simplegeo",
    "sg:phone":"+1 804 264 3591",
    "sg:postcode":"23227",
    "sg:province":"VA",
    "sg:tags":[
        "drug",
        "store"
    ],
    "src:geom":"simplegeo",
    "wof:belongsto":[],
    "wof:breaches":[],
    "wof:concordances":{
        "sg:id":"SG_4z8y6dEgL1OtFOOuNuTQ4d_37.610946_-77.457339@1294252573"
    },
    "wof:country":"US",
    "wof:created":1461899838,
    "wof:geomhash":"2c2435a8080bbbf1f45aa3a42c049c9f",
    "wof:hierarchy":[],
    "wof:id":723341629,
    "wof:lastmodified":1461899838,
    "wof:name":"CVS",
    "wof:parent_id":-1,
    "wof:placetype":"venue",
    "wof:superseded_by":[],
    "wof:supersedes":[],
    "wof:tags":[
        "drug",
        "store"
    ]
},
  "bbox": [
    -77.457339,
    37.610946,
    -77.457339,
    37.610946
],
  "geometry": {"coordinates":[-77.457339,37.610946],"type":"Point"}
}