{
  "id": 723489495,
  "type": "Feature",
  "properties": {
    "edtf:cessation":"uuuu",
    "edtf:inception":"uuuu",
    "geom:area":0.0,
    "geom:bbox":"-80.810514,36.728174,-80.810514,36.728174",
    "geom:latitude":36.728174,
    "geom:longitude":-80.810514,
    "iso:country":"US",
    "sg:address":"4196 Carrollton Pike",
    "sg:city":"Woodlawn",
    "sg:classifiers":[
        {
            "category":"Home & Garden",
            "subcategory":"Garden Supply",
            "type":"Retail Goods"
        }
    ],
    "sg:owner":"simplegeo",
    "sg:phone":"+1 276 236 5313",
    "sg:postcode":"24381",
    "sg:province":"VA",
    "sg:tags":[
        "nurseryman"
    ],
    "src:geom":"simplegeo",
    "wof:belongsto":[],
    "wof:breaches":[],
    "wof:concordances":{
        "sg:id":"SG_5vxB0jOSHHXDmWzdClyo2Z_36.728174_-80.810514@1294252573"
    },
    "wof:country":"US",
    "wof:created":1461902726,
    "wof:geomhash":"68f7184bf6eecc31fc4fe151249c836f",
    "wof:hierarchy":[],
    "wof:id":723489495,
    "wof:lastmodified":1461902726,
    "wof:name":"Jones Nursery",
    "wof:parent_id":-1,
    "wof:placetype":"venue",
    "wof:superseded_by":[],
    "wof:supersedes":[],
    "wof:tags":[
        "nurseryman"
    ]
},
  "bbox": [
    -80.810514,
    36.728174,
    -80.810514,
    36.728174
],
  "geometry": {"coordinates":[-80.810514,36.728174],"type":"Point"}
}