{
  "id": 739689155,
  "type": "Feature",
  "properties": {
    "edtf:cessation":"uuuu",
    "edtf:inception":"uuuu",
    "geom:area":0.0,
    "geom:bbox":"-77.070693,38.804803,-77.070693,38.804803",
    "geom:latitude":38.804803,
    "geom:longitude":-77.070693,
    "iso:country":"US",
    "sg:address":"2381 S Dove St",
    "sg:city":"Alexandria",
    "sg:classifiers":[
        {
            "category":"Coffee & Tea",
            "subcategory":"",
            "type":"Food & Drink"
        },
        {
            "category":"Manufacturing",
            "subcategory":"Food",
            "type":"Manufacturing & Wholesale Goods"
        }
    ],
    "sg:owner":"simplegeo",
    "sg:phone":"+1 703 299 4455",
    "sg:postcode":"22314",
    "sg:province":"VA",
    "sg:tags":[
        "device",
        "brewing",
        "tea-wholesale",
        "manufacturer"
    ],
    "src:geom":"simplegeo",
    "wof:belongsto":[],
    "wof:breaches":[],
    "wof:concordances":{
        "sg:id":"SG_3EmcMOKeT985Ew5n481b0j_38.804803_-77.070693@1303262546"
    },
    "wof:country":"US",
    "wof:created":1461912326,
    "wof:geomhash":"d18bde73b1a08bad7678b86596879591",
    "wof:hierarchy":[],
    "wof:id":739689155,
    "wof:lastmodified":1461912326,
    "wof:name":"Classic Coffee Works",
    "wof:parent_id":-1,
    "wof:placetype":"venue",
    "wof:superseded_by":[],
    "wof:supersedes":[],
    "wof:tags":[
        "device",
        "brewing",
        "tea-wholesale",
        "manufacturer"
    ]
},
  "bbox": [
    -77.070693,
    38.804803,
    -77.070693,
    38.804803
],
  "geometry": {"coordinates":[-77.07069300000001,38.804803],"type":"Point"}
}