{
  "id": 722630891,
  "type": "Feature",
  "properties": {
    "edtf:cessation":"uuuu",
    "edtf:inception":"uuuu",
    "geom:area":0.0,
    "geom:bbox":"-77.497237,37.677881,-77.497237,37.677881",
    "geom:latitude":37.677881,
    "geom:longitude":-77.497237,
    "iso:country":"US",
    "sg:address":"11129 Braxton Ave",
    "sg:city":"Glen Allen",
    "sg:classifiers":[
        {
            "category":"Building & Trades",
            "subcategory":"Construction",
            "type":"Services"
        }
    ],
    "sg:owner":"simplegeo",
    "sg:phone":"+1 804 283 2319",
    "sg:postcode":"23059",
    "sg:province":"VA",
    "sg:tags":[
        "house"
    ],
    "src:geom":"simplegeo",
    "wof:belongsto":[],
    "wof:breaches":[],
    "wof:concordances":{
        "sg:id":"SG_0GcpLDrT4GkJoBPSUfUKl3_37.677881_-77.497237@1294252573"
    },
    "wof:country":"US",
    "wof:created":1461885641,
    "wof:geomhash":"4851d8ef504b9dfd28e70cc535a5870c",
    "wof:hierarchy":[],
    "wof:id":722630891,
    "wof:lastmodified":1461885641,
    "wof:name":"C L Fitchett Construction",
    "wof:parent_id":-1,
    "wof:placetype":"venue",
    "wof:superseded_by":[],
    "wof:supersedes":[],
    "wof:tags":[
        "house"
    ]
},
  "bbox": [
    -77.497237,
    37.677881,
    -77.497237,
    37.677881
],
  "geometry": {"coordinates":[-77.497237,37.677881],"type":"Point"}
}