{
  "id": 739577951,
  "type": "Feature",
  "properties": {
    "edtf:cessation":"uuuu",
    "edtf:inception":"uuuu",
    "geom:area":0.0,
    "geom:bbox":"-77.428381,38.893316,-77.428381,38.893316",
    "geom:latitude":38.893316,
    "geom:longitude":-77.428381,
    "iso:country":"US",
    "sg:address":"13940 Lee Jackson Memorial Hwy",
    "sg:city":"Chantilly",
    "sg:classifiers":[
        {
            "category":"Restaurant",
            "subcategory":"",
            "type":"Food & Drink"
        }
    ],
    "sg:menulink":"http://www.allmenus.com/va/sully/151901-baja-fresh-mexican-grill/menu/",
    "sg:owner":"simplegeo",
    "sg:phone":"+1 703 378 9804",
    "sg:postcode":"20151",
    "sg:province":"VA",
    "sg:tags":[
        "mexican"
    ],
    "src:geom":"simplegeo",
    "wof:belongsto":[],
    "wof:breaches":[],
    "wof:concordances":{
        "sg:id":"SG_1a2kmktMgeI8gu09hcaeO7_38.893316_-77.428381@1299784598"
    },
    "wof:country":"US",
    "wof:created":1461909962,
    "wof:geomhash":"d2522cddb13910aad1f51bcfeb57bd44",
    "wof:hierarchy":[],
    "wof:id":739577951,
    "wof:lastmodified":1461909962,
    "wof:name":"Baja Fresh Mexican Grill",
    "wof:parent_id":-1,
    "wof:placetype":"venue",
    "wof:superseded_by":[],
    "wof:supersedes":[],
    "wof:tags":[
        "mexican"
    ]
},
  "bbox": [
    -77.428381,
    38.893316,
    -77.428381,
    38.893316
],
  "geometry": {"coordinates":[-77.428381,38.893316],"type":"Point"}
}