{
  "id": 739429033,
  "type": "Feature",
  "properties": {
    "edtf:cessation":"uuuu",
    "edtf:inception":"uuuu",
    "geom:area":0.0,
    "geom:bbox":"-77.556541,37.656156,-77.556541,37.656156",
    "geom:latitude":37.656156,
    "geom:longitude":-77.556541,
    "iso:country":"US",
    "sg:address":"4908 Snowshoe Ct",
    "sg:city":"Glen Allen",
    "sg:classifiers":[
        {
            "category":"Professional",
            "subcategory":"Management & Consulting",
            "type":"Services"
        }
    ],
    "sg:owner":"simplegeo",
    "sg:phone":"+1 804 346 9368",
    "sg:postcode":"23060",
    "sg:province":"VA",
    "sg:tags":[
        "educational"
    ],
    "src:geom":"simplegeo",
    "wof:belongsto":[],
    "wof:breaches":[],
    "wof:concordances":{
        "sg:id":"SG_5XnaGmuGWfua5VhdeO7CIm_37.656156_-77.556541@1294252573"
    },
    "wof:country":"US",
    "wof:created":1461907142,
    "wof:geomhash":"55fd94c52176e7a1b63439cb3acc329b",
    "wof:hierarchy":[],
    "wof:id":739429033,
    "wof:lastmodified":1461907142,
    "wof:name":"Lloyd C Jones",
    "wof:parent_id":-1,
    "wof:placetype":"venue",
    "wof:superseded_by":[],
    "wof:supersedes":[],
    "wof:tags":[
        "educational"
    ]
},
  "bbox": [
    -77.556541,
    37.656156,
    -77.556541,
    37.656156
],
  "geometry": {"coordinates":[-77.556541,37.656156],"type":"Point"}
}