{
  "id": 722900297,
  "type": "Feature",
  "properties": {
    "edtf:cessation":"uuuu",
    "edtf:inception":"uuuu",
    "geom:area":0.0,
    "geom:bbox":"-78.969168,38.108882,-78.969168,38.108882",
    "geom:latitude":38.108882,
    "geom:longitude":-78.969168,
    "iso:country":"US",
    "sg:address":"117 Hereford Dr",
    "sg:city":"Fishersville",
    "sg:classifiers":[
        {
            "category":"Shopping",
            "subcategory":"",
            "type":"Retail Goods"
        }
    ],
    "sg:owner":"simplegeo",
    "sg:phone":"+1 540 932 2296",
    "sg:postcode":"22939",
    "sg:province":"VA",
    "sg:tags":[
        "merchandise"
    ],
    "src:geom":"simplegeo",
    "wof:belongsto":[],
    "wof:breaches":[],
    "wof:concordances":{
        "sg:id":"SG_7LlvFg1KWjXr0LqBVHvQ28_38.108882_-78.969168@1294252573"
    },
    "wof:country":"US",
    "wof:created":1461890796,
    "wof:geomhash":"6923b7034505dad46eb44100f1c3223c",
    "wof:hierarchy":[],
    "wof:id":722900297,
    "wof:lastmodified":1461890796,
    "wof:name":"PCA",
    "wof:parent_id":-1,
    "wof:placetype":"venue",
    "wof:superseded_by":[],
    "wof:supersedes":[],
    "wof:tags":[
        "merchandise"
    ]
},
  "bbox": [
    -78.969168,
    38.108882,
    -78.969168,
    38.108882
],
  "geometry": {"coordinates":[-78.969168,38.108882],"type":"Point"}
}