{
  "id": 722622149,
  "type": "Feature",
  "properties": {
    "edtf:cessation":"uuuu",
    "edtf:inception":"uuuu",
    "geom:area":0.0,
    "geom:bbox":"-77.448168,38.790236,-77.448168,38.790236",
    "geom:latitude":38.790236,
    "geom:longitude":-77.448168,
    "iso:country":"US",
    "sg:address":"7549 Centreville Rd",
    "sg:city":"Manassas",
    "sg:classifiers":[
        {
            "category":"Shopping",
            "subcategory":"Shoes",
            "type":"Retail Goods"
        }
    ],
    "sg:owner":"simplegeo",
    "sg:phone":"+1 703 369 0436",
    "sg:postcode":"20111",
    "sg:province":"VA",
    "src:geom":"simplegeo",
    "wof:belongsto":[],
    "wof:breaches":[],
    "wof:concordances":{
        "sg:id":"SG_6lTukF4WaJAwh0QEFpovoU_38.790236_-77.448168@1294252573"
    },
    "wof:country":"US",
    "wof:created":1461885430,
    "wof:geomhash":"5618c454c3ae7f45100c70a6910ac01c",
    "wof:hierarchy":[],
    "wof:id":722622149,
    "wof:lastmodified":1461885430,
    "wof:name":"La Herradura Western Boots",
    "wof:parent_id":-1,
    "wof:placetype":"venue",
    "wof:superseded_by":[],
    "wof:supersedes":[],
    "wof:tags":[]
},
  "bbox": [
    -77.448168,
    38.790236,
    -77.448168,
    38.790236
],
  "geometry": {"coordinates":[-77.448168,38.790236],"type":"Point"}
}