{
  "id": 739386537,
  "type": "Feature",
  "properties": {
    "edtf:cessation":"uuuu",
    "edtf:inception":"uuuu",
    "geom:area":0.0,
    "geom:bbox":"-77.42305,38.842014,-77.42305,38.842014",
    "geom:latitude":38.842014,
    "geom:longitude":-77.42305,
    "iso:country":"US",
    "sg:address":"13709 Leland Rd",
    "sg:city":"Centreville",
    "sg:classifiers":[
        {
            "category":"Building & Trades",
            "subcategory":"Cleaning & Sanitation",
            "type":"Services"
        }
    ],
    "sg:owner":"simplegeo",
    "sg:phone":"+1 571 238 5114",
    "sg:postcode":"20120",
    "sg:province":"VA",
    "sg:tags":[
        "commercial"
    ],
    "src:geom":"simplegeo",
    "wof:belongsto":[],
    "wof:breaches":[],
    "wof:concordances":{
        "sg:id":"SG_6T4sNI0Mv4pGar9w2A1PrD_38.842014_-77.423050@1294252573"
    },
    "wof:country":"US",
    "wof:created":1461906326,
    "wof:geomhash":"ba97609e6543f964fb928449f2cfaeb6",
    "wof:hierarchy":[],
    "wof:id":739386537,
    "wof:lastmodified":1461906326,
    "wof:name":"Commercial Building Services",
    "wof:parent_id":-1,
    "wof:placetype":"venue",
    "wof:superseded_by":[],
    "wof:supersedes":[],
    "wof:tags":[
        "commercial"
    ]
},
  "bbox": [
    -77.42305,
    38.842014,
    -77.42305,
    38.842014
],
  "geometry": {"coordinates":[-77.42305,38.842014],"type":"Point"}
}