{
  "id": 722996823,
  "type": "Feature",
  "properties": {
    "edtf:cessation":"uuuu",
    "edtf:inception":"uuuu",
    "geom:area":0.0,
    "geom:bbox":"-77.488964,38.222542,-77.488964,38.222542",
    "geom:latitude":38.222542,
    "geom:longitude":-77.488964,
    "iso:country":"US",
    "sg:address":"4610 Overview Dr",
    "sg:city":"Fredericksburg",
    "sg:classifiers":[
        {
            "category":"Retail",
            "subcategory":"Repair Shop",
            "type":"Services"
        }
    ],
    "sg:owner":"simplegeo",
    "sg:phone":"+1 540 898 0779",
    "sg:postcode":"22408",
    "sg:province":"VA",
    "sg:tags":[
        "tank",
        "cleaning",
        "septic"
    ],
    "src:geom":"simplegeo",
    "wof:belongsto":[],
    "wof:breaches":[],
    "wof:concordances":{
        "sg:id":"SG_3VXql5CpBrHAFBxL0C6X5G_38.222542_-77.488964@1294252573"
    },
    "wof:country":"US",
    "wof:created":1461892827,
    "wof:geomhash":"393abff5041f1d87a840e197383d371a",
    "wof:hierarchy":[],
    "wof:id":722996823,
    "wof:lastmodified":1461892827,
    "wof:name":"Marshalls Septic Tank Clg Svc",
    "wof:parent_id":-1,
    "wof:placetype":"venue",
    "wof:superseded_by":[],
    "wof:supersedes":[],
    "wof:tags":[
        "tank",
        "cleaning",
        "septic"
    ]
},
  "bbox": [
    -77.488964,
    38.222542,
    -77.488964,
    38.222542
],
  "geometry": {"coordinates":[-77.488964,38.222542],"type":"Point"}
}