{
  "id": 722951917,
  "type": "Feature",
  "properties": {
    "edtf:cessation":"uuuu",
    "edtf:inception":"uuuu",
    "geom:area":0.0,
    "geom:bbox":"-77.891427,38.501666,-77.891427,38.501666",
    "geom:latitude":38.501666,
    "geom:longitude":-77.891427,
    "iso:country":"US",
    "sg:address":"14624 Carrico Mills Rd",
    "sg:city":"Brandy Station",
    "sg:classifiers":[
        {
            "category":"Food & Beverages",
            "subcategory":"Groceries & Convenience Stores",
            "type":"Retail Goods"
        }
    ],
    "sg:owner":"simplegeo",
    "sg:phone":"+1 540 727 7949",
    "sg:postcode":"22714",
    "sg:province":"VA",
    "sg:tags":[
        "grocer"
    ],
    "src:geom":"simplegeo",
    "wof:belongsto":[
        85688747,
        85633793,
        101728993,
        102085941,
        85833487
    ],
    "wof:breaches":[],
    "wof:concordances":{
        "sg:id":"SG_24bcovS14uOf0uacjbEQfX_38.501666_-77.891427@1294252573"
    },
    "wof:country":"US",
    "wof:created":1461891860,
    "wof:geomhash":"ba71803c2cb8707104260709aa03f57a",
    "wof:hierarchy":[
        {
            "country_id":85633793,
            "county_id":102085941,
            "locality_id":101728993,
            "neighbourhood_id":85833487,
            "region_id":85688747,
            "venue_id":722951917
        }
    ],
    "wof:id":722951917,
    "wof:lastmodified":1461891860,
    "wof:name":"Bailey's Store",
    "wof:parent_id":85833487,
    "wof:placetype":"venue",
    "wof:superseded_by":[],
    "wof:supersedes":[],
    "wof:tags":[
        "grocer"
    ]
},
  "bbox": [
    -77.891427,
    38.501666,
    -77.891427,
    38.501666
],
  "geometry": {"coordinates":[-77.89142699999999,38.501666],"type":"Point"}
}