{
  "id": 723141425,
  "type": "Feature",
  "properties": {
    "edtf:cessation":"uuuu",
    "edtf:inception":"uuuu",
    "geom:area":0.0,
    "geom:bbox":"-78.236146,36.986304,-78.236146,36.986304",
    "geom:latitude":36.986304,
    "geom:longitude":-78.236146,
    "iso:country":"US",
    "sg:address":"413 Court St",
    "sg:city":"Victoria",
    "sg:classifiers":[
        {
            "category":"Personal",
            "subcategory":"",
            "type":"Services"
        }
    ],
    "sg:owner":"simplegeo",
    "sg:phone":"+1 434 696 7786",
    "sg:postcode":"23974",
    "sg:province":"VA",
    "sg:tags":[
        "therapist",
        "massage"
    ],
    "src:geom":"simplegeo",
    "wof:belongsto":[],
    "wof:breaches":[],
    "wof:concordances":{
        "sg:id":"SG_1pmxcEcWXnJZIEIrMmFxyD_36.986304_-78.236146@1294252573"
    },
    "wof:country":"US",
    "wof:created":1461895926,
    "wof:geomhash":"e47be4d6aadfb2b961902a06415e7680",
    "wof:hierarchy":[],
    "wof:id":723141425,
    "wof:lastmodified":1461895926,
    "wof:name":"Therupeutic Therapists",
    "wof:parent_id":-1,
    "wof:placetype":"venue",
    "wof:superseded_by":[],
    "wof:supersedes":[],
    "wof:tags":[
        "therapist",
        "massage"
    ]
},
  "bbox": [
    -78.236146,
    36.986304,
    -78.236146,
    36.986304
],
  "geometry": {"coordinates":[-78.23614600000001,36.986304],"type":"Point"}
}