{
  "id": 722544331,
  "type": "Feature",
  "properties": {
    "edtf:cessation":"uuuu",
    "edtf:inception":"uuuu",
    "geom:area":0.0,
    "geom:bbox":"-77.556595,37.429813,-77.556595,37.429813",
    "geom:latitude":37.429813,
    "geom:longitude":-77.556595,
    "iso:country":"US",
    "sg:address":"9120 Berry Patch Dr",
    "sg:city":"Chesterfield",
    "sg:classifiers":[
        {
            "category":"Wholesale",
            "subcategory":"Chemicals & Plastics",
            "type":"Manufacturing & Wholesale Goods"
        }
    ],
    "sg:owner":"simplegeo",
    "sg:phone":"+1 804 745 7060",
    "sg:postcode":"23832",
    "sg:province":"VA",
    "sg:tags":[
        "representative",
        "manufacturer"
    ],
    "src:geom":"simplegeo",
    "wof:belongsto":[],
    "wof:breaches":[],
    "wof:concordances":{
        "sg:id":"SG_6VOg3vv9ckOl1cIP8NgobN_37.429813_-77.556595@1294252573"
    },
    "wof:country":"US",
    "wof:created":1461883891,
    "wof:geomhash":"c140062da2234a11a0ab627d610bc57b",
    "wof:hierarchy":[],
    "wof:id":722544331,
    "wof:lastmodified":1461883891,
    "wof:name":"Tln & Associates",
    "wof:parent_id":420546613,
    "wof:placetype":"venue",
    "wof:superseded_by":[],
    "wof:supersedes":[],
    "wof:tags":[
        "representative",
        "manufacturer"
    ]
},
  "bbox": [
    -77.556595,
    37.429813,
    -77.556595,
    37.429813
],
  "geometry": {"coordinates":[-77.556595,37.429813],"type":"Point"}
}