{
  "id": 723256451,
  "type": "Feature",
  "properties": {
    "edtf:cessation":"uuuu",
    "edtf:inception":"uuuu",
    "geom:area":0.0,
    "geom:bbox":"-79.521157,37.333865,-79.521157,37.333865",
    "geom:latitude":37.333865,
    "geom:longitude":-79.521157,
    "iso:country":"US",
    "sg:address":"403 E Main St",
    "sg:city":"Bedford",
    "sg:classifiers":[
        {
            "category":"Retail",
            "subcategory":"Repair Shop",
            "type":"Services"
        }
    ],
    "sg:owner":"simplegeo",
    "sg:phone":"+1 540 586 6152",
    "sg:postcode":"24523",
    "sg:province":"VA",
    "sg:tags":[
        "refrigeration"
    ],
    "src:geom":"simplegeo",
    "wof:belongsto":[],
    "wof:breaches":[],
    "wof:concordances":{
        "sg:id":"SG_1ROAFlXxojXTHfkRBgEHIE_37.333865_-79.521157@1294252573"
    },
    "wof:country":"US",
    "wof:created":1461898243,
    "wof:geomhash":"ebc74a5213aa483a47a499d151698ec0",
    "wof:hierarchy":[],
    "wof:id":723256451,
    "wof:lastmodified":1461898243,
    "wof:name":"Triple R",
    "wof:parent_id":-1,
    "wof:placetype":"venue",
    "wof:superseded_by":[],
    "wof:supersedes":[],
    "wof:tags":[
        "refrigeration"
    ]
},
  "bbox": [
    -79.521157,
    37.333865,
    -79.521157,
    37.333865
],
  "geometry": {"coordinates":[-79.521157,37.333865],"type":"Point"}
}