{
  "id": 723464877,
  "type": "Feature",
  "properties": {
    "edtf:cessation":"uuuu",
    "edtf:inception":"uuuu",
    "geom:area":0.0,
    "geom:bbox":"-80.054219,37.293382,-80.054219,37.293382",
    "geom:latitude":37.293382,
    "geom:longitude":-80.054219,
    "iso:country":"US",
    "sg:address":"306 E Main St",
    "sg:city":"Salem",
    "sg:classifiers":[
        {
            "category":"Wholesale",
            "subcategory":"Machinery & Supplies",
            "type":"Manufacturing & Wholesale Goods"
        }
    ],
    "sg:owner":"simplegeo",
    "sg:phone":"+1 540 389 4032",
    "sg:postcode":"24153",
    "sg:province":"VA",
    "sg:tags":[
        "industrial"
    ],
    "src:geom":"simplegeo",
    "wof:belongsto":[],
    "wof:breaches":[],
    "wof:concordances":{
        "sg:id":"SG_45ZF4TXE7uVTBjIQlTSYaS_37.293382_-80.054219@1294252573"
    },
    "wof:country":"US",
    "wof:created":1461902226,
    "wof:geomhash":"b90c41cd4f630a3ee95311ece34261cf",
    "wof:hierarchy":[],
    "wof:id":723464877,
    "wof:lastmodified":1461902226,
    "wof:name":"Lincoln Electric Company",
    "wof:parent_id":-1,
    "wof:placetype":"venue",
    "wof:superseded_by":[],
    "wof:supersedes":[],
    "wof:tags":[
        "industrial"
    ]
},
  "bbox": [
    -80.054219,
    37.293382,
    -80.054219,
    37.293382
],
  "geometry": {"coordinates":[-80.054219,37.293382],"type":"Point"}
}