{
  "id": 722919457,
  "type": "Feature",
  "properties": {
    "edtf:cessation":"uuuu",
    "edtf:inception":"uuuu",
    "geom:area":0.0,
    "geom:bbox":"-76.527932,37.392102,-76.527932,37.392102",
    "geom:latitude":37.392102,
    "geom:longitude":-76.527932,
    "iso:country":"US",
    "sg:address":"6614 Express Dr",
    "sg:city":"Gloucester",
    "sg:classifiers":[
        {
            "category":"Retail",
            "subcategory":"Auto Repair",
            "type":"Services"
        }
    ],
    "sg:owner":"simplegeo",
    "sg:phone":"+1 804 695 2800",
    "sg:postcode":"23061",
    "sg:province":"VA",
    "sg:tags":[
        "automobile",
        "lubrication"
    ],
    "src:geom":"simplegeo",
    "wof:belongsto":[],
    "wof:breaches":[],
    "wof:concordances":{
        "sg:id":"SG_2PXbfa7bfItr4AjHkQm8bK_37.392102_-76.527932@1294252573"
    },
    "wof:country":"US",
    "wof:created":1461891172,
    "wof:geomhash":"cb0d72fe4c59697ffbac49c5dc1debc9",
    "wof:hierarchy":[],
    "wof:id":722919457,
    "wof:lastmodified":1461891172,
    "wof:name":"Texaco Xpress Lube",
    "wof:parent_id":-1,
    "wof:placetype":"venue",
    "wof:superseded_by":[],
    "wof:supersedes":[],
    "wof:tags":[
        "automobile",
        "lubrication"
    ]
},
  "bbox": [
    -76.527932,
    37.392102,
    -76.527932,
    37.392102
],
  "geometry": {"coordinates":[-76.52793200000001,37.392102],"type":"Point"}
}