{
  "id": 739331231,
  "type": "Feature",
  "properties": {
    "edtf:cessation":"uuuu",
    "edtf:inception":"uuuu",
    "geom:area":0.0,
    "geom:bbox":"-77.532769,37.627272,-77.532769,37.627272",
    "geom:latitude":37.627272,
    "geom:longitude":-77.532769,
    "iso:country":"US",
    "sg:address":"8071 W Broad St",
    "sg:city":"Richmond",
    "sg:classifiers":[
        {
            "category":"Insurance",
            "subcategory":"Insurance Agent",
            "type":"Services"
        }
    ],
    "sg:owner":"simplegeo",
    "sg:phone":"+1 804 270 2300",
    "sg:postcode":"23294",
    "sg:province":"VA",
    "src:geom":"simplegeo",
    "wof:belongsto":[],
    "wof:breaches":[],
    "wof:concordances":{
        "sg:id":"SG_0GnoTBl0859Ew86rFmHJSo_37.627272_-77.532769@1294252573"
    },
    "wof:country":"US",
    "wof:created":1461905202,
    "wof:geomhash":"ab7f81bd57a036ceb2979983c0ac799e",
    "wof:hierarchy":[],
    "wof:id":739331231,
    "wof:lastmodified":1461905202,
    "wof:name":"Allstate Insurance",
    "wof:parent_id":-1,
    "wof:placetype":"venue",
    "wof:superseded_by":[],
    "wof:supersedes":[],
    "wof:tags":[]
},
  "bbox": [
    -77.532769,
    37.627272,
    -77.532769,
    37.627272
],
  "geometry": {"coordinates":[-77.532769,37.627272],"type":"Point"}
}