{
  "id": 739709597,
  "type": "Feature",
  "properties": {
    "edtf:cessation":"uuuu",
    "edtf:inception":"uuuu",
    "geom:area":0.0,
    "geom:bbox":"-77.234949,37.643282,-77.234949,37.643282",
    "geom:latitude":37.643282,
    "geom:longitude":-77.234949,
    "iso:country":"US",
    "sg:address":"8451 Oak Hill Camp Rd",
    "sg:city":"Mechanicsville",
    "sg:classifiers":[
        {
            "category":"Recreation",
            "subcategory":"",
            "type":"Entertainment"
        }
    ],
    "sg:owner":"simplegeo",
    "sg:phone":"+1 804 779 3050",
    "sg:postcode":"23111",
    "sg:province":"VA",
    "sg:tags":[
        "camps-recreational"
    ],
    "sg:website":"http://www.oakhillcamp.org",
    "src:geom":"simplegeo",
    "wof:belongsto":[],
    "wof:breaches":[],
    "wof:concordances":{
        "sg:id":"SG_7Xu6feoeyB0oiLVoWGkIN1_37.643282_-77.234949@1303262549"
    },
    "wof:country":"US",
    "wof:created":1461912775,
    "wof:geomhash":"fcac740128431d2ff500e60e3e4585f8",
    "wof:hierarchy":[],
    "wof:id":739709597,
    "wof:lastmodified":1461912775,
    "wof:name":"Oak Hill Christian Service Camp, Inc",
    "wof:parent_id":-1,
    "wof:placetype":"venue",
    "wof:superseded_by":[],
    "wof:supersedes":[],
    "wof:tags":[
        "camps-recreational"
    ]
},
  "bbox": [
    -77.234949,
    37.643282,
    -77.234949,
    37.643282
],
  "geometry": {"coordinates":[-77.234949,37.643282],"type":"Point"}
}