{
  "id": 739470505,
  "type": "Feature",
  "properties": {
    "edtf:cessation":"uuuu",
    "edtf:inception":"uuuu",
    "geom:area":0.0,
    "geom:bbox":"-78.380757,39.259654,-78.380757,39.259654",
    "geom:latitude":39.259654,
    "geom:longitude":-78.380757,
    "iso:country":"US",
    "sg:address":"311 Muse Rd",
    "sg:city":"Gore",
    "sg:classifiers":[
        {
            "category":"Farming",
            "subcategory":"Orchard",
            "type":"Manufacturing & Wholesale Goods"
        }
    ],
    "sg:owner":"simplegeo",
    "sg:phone":"+1 540 858 3207",
    "sg:postcode":"22637",
    "sg:province":"VA",
    "sg:tags":[
        "apple",
        "peach"
    ],
    "src:geom":"simplegeo",
    "wof:belongsto":[],
    "wof:breaches":[],
    "wof:concordances":{
        "sg:id":"SG_6Cmzcm6NyxWJjq2HFvzCWT_39.259654_-78.380757@1294252573"
    },
    "wof:country":"US",
    "wof:created":1461907896,
    "wof:geomhash":"d8a38ce5771b61eb8acc63dc06475222",
    "wof:hierarchy":[],
    "wof:id":739470505,
    "wof:lastmodified":1461907896,
    "wof:name":"Timber Ridge Fruit Farm",
    "wof:parent_id":-1,
    "wof:placetype":"venue",
    "wof:superseded_by":[],
    "wof:supersedes":[],
    "wof:tags":[
        "apple",
        "peach"
    ]
},
  "bbox": [
    -78.380757,
    39.259654,
    -78.380757,
    39.259654
],
  "geometry": {"coordinates":[-78.380757,39.259654],"type":"Point"}
}