{
  "id": 722858731,
  "type": "Feature",
  "properties": {
    "edtf:cessation":"uuuu",
    "edtf:inception":"uuuu",
    "geom:area":0.0,
    "geom:bbox":"-77.554189,37.245386,-77.554189,37.245386",
    "geom:latitude":37.245386,
    "geom:longitude":-77.554189,
    "iso:country":"US",
    "sg:address":"9716 River Rd",
    "sg:city":"Petersburg",
    "sg:classifiers":[
        {
            "category":"Building & Trades",
            "subcategory":"Construction",
            "type":"Services"
        }
    ],
    "sg:owner":"simplegeo",
    "sg:phone":"+1 804 590 0700",
    "sg:postcode":"23803",
    "sg:province":"VA",
    "sg:tags":[
        "contractor"
    ],
    "src:geom":"simplegeo",
    "wof:belongsto":[],
    "wof:breaches":[],
    "wof:concordances":{
        "sg:id":"SG_2pec3MZxgPztGl57aRcq15_37.245386_-77.554189@1294252573"
    },
    "wof:country":"US",
    "wof:created":1461889987,
    "wof:geomhash":"b59e11c3f810c02700cc8e28ed7e5ba4",
    "wof:hierarchy":[],
    "wof:id":722858731,
    "wof:lastmodified":1461889987,
    "wof:name":"Top Notch Contracting Inc",
    "wof:parent_id":-1,
    "wof:placetype":"venue",
    "wof:superseded_by":[],
    "wof:supersedes":[],
    "wof:tags":[
        "contractor"
    ]
},
  "bbox": [
    -77.554189,
    37.245386,
    -77.554189,
    37.245386
],
  "geometry": {"coordinates":[-77.55418899999999,37.245386],"type":"Point"}
}