{
  "id": 739597917,
  "type": "Feature",
  "properties": {
    "edtf:cessation":"uuuu",
    "edtf:inception":"uuuu",
    "geom:area":0.0,
    "geom:bbox":"-78.143619,39.215116,-78.143619,39.215116",
    "geom:latitude":39.215116,
    "geom:longitude":-78.143619,
    "iso:country":"US",
    "sg:address":"1513 Martinsburg Pike",
    "sg:city":"Winchester",
    "sg:classifiers":[
        {
            "category":"Restaurant",
            "subcategory":"",
            "type":"Food & Drink"
        }
    ],
    "sg:menulink":"http://www.allmenus.com/va/stonewall/218491-burger-king/menu/",
    "sg:owner":"simplegeo",
    "sg:phone":"+1 540 722 9430",
    "sg:postcode":"22603",
    "sg:province":"VA",
    "sg:tags":[
        "american"
    ],
    "src:geom":"simplegeo",
    "wof:belongsto":[],
    "wof:breaches":[],
    "wof:concordances":{
        "sg:id":"SG_5eRyW4A3NEzWTneDCdUHn3_39.215246_-78.143049@1294252573"
    },
    "wof:country":"US",
    "wof:created":1461910352,
    "wof:geomhash":"dd1765d147776809a500eee670e5768c",
    "wof:hierarchy":[],
    "wof:id":739597917,
    "wof:lastmodified":1461910352,
    "wof:name":"Burger King",
    "wof:parent_id":-1,
    "wof:placetype":"venue",
    "wof:superseded_by":[],
    "wof:supersedes":[],
    "wof:tags":[
        "american"
    ]
},
  "bbox": [
    -78.143619,
    39.215116,
    -78.143619,
    39.215116
],
  "geometry": {"coordinates":[-78.143619,39.215116],"type":"Point"}
}