{
  "id": 723346359,
  "type": "Feature",
  "properties": {
    "edtf:cessation":"uuuu",
    "edtf:inception":"uuuu",
    "geom:area":0.0,
    "geom:bbox":"-77.493733,37.614541,-77.493733,37.614541",
    "geom:latitude":37.614541,
    "geom:longitude":-77.493733,
    "iso:country":"US",
    "sg:address":"3022 Lincoln Ave",
    "sg:city":"Richmond",
    "sg:classifiers":[
        {
            "category":"Building & Trades",
            "subcategory":"Plumbing",
            "type":"Services"
        }
    ],
    "sg:owner":"simplegeo",
    "sg:phone":"+1 804 321 9099",
    "sg:postcode":"23228",
    "sg:province":"VA",
    "sg:tags":[
        "plumbing",
        "contractor"
    ],
    "src:geom":"simplegeo",
    "wof:belongsto":[],
    "wof:breaches":[],
    "wof:concordances":{
        "sg:id":"SG_2ngz8iiHsQnyggyzPsSsGZ_37.614541_-77.493733@1294252573"
    },
    "wof:country":"US",
    "wof:created":1461899931,
    "wof:geomhash":"0a8a978a9b3191a38ca64e3a5685bbee",
    "wof:hierarchy":[],
    "wof:id":723346359,
    "wof:lastmodified":1461899931,
    "wof:name":"Pay Less Plumbing",
    "wof:parent_id":-1,
    "wof:placetype":"venue",
    "wof:superseded_by":[],
    "wof:supersedes":[],
    "wof:tags":[
        "plumbing",
        "contractor"
    ]
},
  "bbox": [
    -77.493733,
    37.614541,
    -77.493733,
    37.614541
],
  "geometry": {"coordinates":[-77.49373300000001,37.614541],"type":"Point"}
}