{
  "id": 739408731,
  "type": "Feature",
  "properties": {
    "edtf:cessation":"uuuu",
    "edtf:inception":"uuuu",
    "geom:area":0.0,
    "geom:bbox":"-77.472844,37.200523,-77.472844,37.200523",
    "geom:latitude":37.200523,
    "geom:longitude":-77.472844,
    "iso:country":"US",
    "sg:address":"25002 James Ave",
    "sg:city":"Petersburg",
    "sg:classifiers":[
        {
            "category":"Building & Trades",
            "subcategory":"Construction",
            "type":"Services"
        }
    ],
    "sg:owner":"simplegeo",
    "sg:phone":"+1 804 861 3515",
    "sg:postcode":"23803",
    "sg:province":"VA",
    "sg:tags":[
        "home",
        "improvement"
    ],
    "src:geom":"simplegeo",
    "wof:belongsto":[],
    "wof:breaches":[],
    "wof:concordances":{
        "sg:id":"SG_1T8ldzSqERbhgZ3ft9KTLY_37.200523_-77.472844@1294252573"
    },
    "wof:country":"US",
    "wof:created":1461906746,
    "wof:geomhash":"c19343c50ad9f543ef618b48b86c5ca0",
    "wof:hierarchy":[],
    "wof:id":739408731,
    "wof:lastmodified":1461906746,
    "wof:name":"Ingrams' Masonry Inc",
    "wof:parent_id":-1,
    "wof:placetype":"venue",
    "wof:superseded_by":[],
    "wof:supersedes":[],
    "wof:tags":[
        "home",
        "improvement"
    ]
},
  "bbox": [
    -77.472844,
    37.200523,
    -77.472844,
    37.200523
],
  "geometry": {"coordinates":[-77.47284399999999,37.200523],"type":"Point"}
}