{
  "id": 722841261,
  "type": "Feature",
  "properties": {
    "edtf:cessation":"uuuu",
    "edtf:inception":"uuuu",
    "geom:area":0.0,
    "geom:bbox":"-77.535747,37.596794,-77.535747,37.596794",
    "geom:latitude":37.596794,
    "geom:longitude":-77.535747,
    "iso:country":"US",
    "sg:address":"7328 Three Chopt Rd",
    "sg:city":"Richmond",
    "sg:classifiers":[
        {
            "category":"Professional",
            "subcategory":"",
            "type":"Services"
        }
    ],
    "sg:owner":"simplegeo",
    "sg:phone":"+1 804 673 0561",
    "sg:postcode":"23226",
    "sg:province":"VA",
    "src:geom":"simplegeo",
    "wof:belongsto":[],
    "wof:breaches":[],
    "wof:concordances":{
        "sg:id":"SG_534fa3eDUIxqVVQIgHOF9P_37.596794_-77.535747@1294252573"
    },
    "wof:country":"US",
    "wof:created":1461889653,
    "wof:geomhash":"d612af00d07a771ccadc31275e1c999d",
    "wof:hierarchy":[],
    "wof:id":722841261,
    "wof:lastmodified":1461889653,
    "wof:name":"Largen John Facsimile",
    "wof:parent_id":-1,
    "wof:placetype":"venue",
    "wof:superseded_by":[],
    "wof:supersedes":[],
    "wof:tags":[]
},
  "bbox": [
    -77.535747,
    37.596794,
    -77.535747,
    37.596794
],
  "geometry": {"coordinates":[-77.535747,37.596794],"type":"Point"}
}