{
  "id": 722561801,
  "type": "Feature",
  "properties": {
    "edtf:cessation":"uuuu",
    "edtf:inception":"uuuu",
    "geom:area":0.0,
    "geom:bbox":"-77.496125,37.611336,-77.496125,37.611336",
    "geom:latitude":37.611336,
    "geom:longitude":-77.496125,
    "iso:country":"US",
    "sg:address":"6907 Staples Mill Rd",
    "sg:city":"Richmond",
    "sg:classifiers":[
        {
            "category":"Retail",
            "subcategory":"Laundry & Dry Cleaning",
            "type":"Services"
        }
    ],
    "sg:owner":"simplegeo",
    "sg:phone":"+1 804 264 3959",
    "sg:postcode":"23228",
    "sg:province":"VA",
    "sg:tags":[
        "cleaners"
    ],
    "src:geom":"simplegeo",
    "wof:belongsto":[],
    "wof:breaches":[],
    "wof:concordances":{
        "sg:id":"SG_4fcV1nHX48dlLeZCEfCECk_37.611336_-77.496125@1294252573"
    },
    "wof:country":"US",
    "wof:created":1461884244,
    "wof:geomhash":"2f44a62f5613bdf703c42026a8f80fce",
    "wof:hierarchy":[],
    "wof:id":722561801,
    "wof:lastmodified":1461884244,
    "wof:name":"Glenside Suds",
    "wof:parent_id":-1,
    "wof:placetype":"venue",
    "wof:superseded_by":[],
    "wof:supersedes":[],
    "wof:tags":[
        "cleaners"
    ]
},
  "bbox": [
    -77.496125,
    37.611336,
    -77.496125,
    37.611336
],
  "geometry": {"coordinates":[-77.49612500000001,37.611336],"type":"Point"}
}