{
  "id": 723502383,
  "type": "Feature",
  "properties": {
    "edtf:cessation":"uuuu",
    "edtf:inception":"uuuu",
    "geom:area":0.0,
    "geom:bbox":"-77.437998,38.776029,-77.437998,38.776029",
    "geom:latitude":38.776029,
    "geom:longitude":-77.437998,
    "iso:country":"US",
    "sg:address":"9101 Industry Dr",
    "sg:city":"Manassas Park",
    "sg:classifiers":[
        {
            "category":"Insurance",
            "subcategory":"Insurance Agent",
            "type":"Services"
        }
    ],
    "sg:owner":"simplegeo",
    "sg:phone":"+1 703 365 0018",
    "sg:postcode":"20111",
    "sg:province":"VA",
    "src:geom":"simplegeo",
    "wof:belongsto":[],
    "wof:breaches":[],
    "wof:concordances":{
        "sg:id":"SG_11K57fC0lp2r5ayWnunmWt_38.776029_-77.437998@1294252573"
    },
    "wof:country":"US",
    "wof:created":1461903006,
    "wof:geomhash":"99736ce2d409e0489697c4bbf46b1fc4",
    "wof:hierarchy":[],
    "wof:id":723502383,
    "wof:lastmodified":1461903006,
    "wof:name":"T & B Insurance",
    "wof:parent_id":-1,
    "wof:placetype":"venue",
    "wof:superseded_by":[],
    "wof:supersedes":[],
    "wof:tags":[]
},
  "bbox": [
    -77.437998,
    38.776029,
    -77.437998,
    38.776029
],
  "geometry": {"coordinates":[-77.43799799999999,38.776029],"type":"Point"}
}