{
  "id": 723330575,
  "type": "Feature",
  "properties": {
    "edtf:cessation":"uuuu",
    "edtf:inception":"uuuu",
    "geom:area":0.0,
    "geom:bbox":"-79.100414,38.16732,-79.100414,38.16732",
    "geom:latitude":38.16732,
    "geom:longitude":-79.100414,
    "iso:country":"US",
    "sg:address":"105 Hudson Ave",
    "sg:city":"Staunton",
    "sg:classifiers":[
        {
            "category":"Cinema",
            "subcategory":"Movie Rental",
            "type":"Entertainment"
        }
    ],
    "sg:owner":"simplegeo",
    "sg:phone":"+1 540 886 2529",
    "sg:postcode":"24401",
    "sg:province":"VA",
    "sg:tags":[
        "tape",
        "video"
    ],
    "src:geom":"simplegeo",
    "wof:belongsto":[],
    "wof:breaches":[],
    "wof:concordances":{
        "sg:id":"SG_4xMvIFELXMmYkqxhqbPHha_38.167320_-79.100414@1294252573"
    },
    "wof:country":"US",
    "wof:created":1461899636,
    "wof:geomhash":"d6591bd1e7f4c1b93c04b8343b5d28ab",
    "wof:hierarchy":[],
    "wof:id":723330575,
    "wof:lastmodified":1461899636,
    "wof:name":"Dougs Video",
    "wof:parent_id":-1,
    "wof:placetype":"venue",
    "wof:superseded_by":[],
    "wof:supersedes":[],
    "wof:tags":[
        "tape",
        "video"
    ]
},
  "bbox": [
    -79.100414,
    38.16732,
    -79.100414,
    38.16732
],
  "geometry": {"coordinates":[-79.100414,38.16732],"type":"Point"}
}