{
  "id": 739371883,
  "type": "Feature",
  "properties": {
    "edtf:cessation":"uuuu",
    "edtf:inception":"uuuu",
    "geom:area":0.0,
    "geom:bbox":"-81.089096,36.767164,-81.089096,36.767164",
    "geom:latitude":36.767164,
    "geom:longitude":-81.089096,
    "iso:country":"US",
    "sg:address":"2889 Arrowhead Dr",
    "sg:city":"Fries",
    "sg:classifiers":[
        {
            "category":"Building & Trades",
            "subcategory":"Electrical",
            "type":"Services"
        }
    ],
    "sg:owner":"simplegeo",
    "sg:phone":"+1 276 744 3456",
    "sg:postcode":"24350",
    "sg:province":"VA",
    "sg:tags":[
        "electrical",
        "contractor"
    ],
    "src:geom":"simplegeo",
    "wof:belongsto":[],
    "wof:breaches":[],
    "wof:concordances":{
        "sg:id":"SG_0wEjBcpBYFTAZNEAKKSU3s_36.767164_-81.089096@1294252573"
    },
    "wof:country":"US",
    "wof:created":1461906031,
    "wof:geomhash":"c0cd78da3a6c1068f7677e47746aa232",
    "wof:hierarchy":[],
    "wof:id":739371883,
    "wof:lastmodified":1461906031,
    "wof:name":"Electrical Solutions",
    "wof:parent_id":-1,
    "wof:placetype":"venue",
    "wof:superseded_by":[],
    "wof:supersedes":[],
    "wof:tags":[
        "electrical",
        "contractor"
    ]
},
  "bbox": [
    -81.089096,
    36.767164,
    -81.089096,
    36.767164
],
  "geometry": {"coordinates":[-81.089096,36.767164],"type":"Point"}
}