{
  "id": 739626775,
  "type": "Feature",
  "properties": {
    "edtf:cessation":"uuuu",
    "edtf:inception":"uuuu",
    "geom:area":0.0,
    "geom:bbox":"-77.115601,38.8437,-77.115601,38.8437",
    "geom:latitude":38.8437,
    "geom:longitude":-77.115601,
    "iso:country":"US",
    "sg:address":"3705 S George Mason Dr",
    "sg:city":"Falls Church",
    "sg:classifiers":[
        {
            "category":"Food & Beverages",
            "subcategory":"Groceries & Convenience Stores",
            "type":"Retail Goods"
        }
    ],
    "sg:owner":"simplegeo",
    "sg:phone":"+1 703 820 9672",
    "sg:postcode":"22041",
    "sg:province":"VA",
    "src:geom":"simplegeo",
    "wof:belongsto":[],
    "wof:breaches":[],
    "wof:concordances":{
        "sg:id":"SG_2NecE5Ou3MjPa5Kmka1bFv_38.843700_-77.115601@1303262538"
    },
    "wof:country":"US",
    "wof:created":1461910970,
    "wof:geomhash":"6a01bbdee78ebbf4e50c1dade0fe52a3",
    "wof:hierarchy":[],
    "wof:id":739626775,
    "wof:lastmodified":1461910970,
    "wof:name":"Skyline Market",
    "wof:parent_id":-1,
    "wof:placetype":"venue",
    "wof:superseded_by":[],
    "wof:supersedes":[],
    "wof:tags":[]
},
  "bbox": [
    -77.115601,
    38.8437,
    -77.115601,
    38.8437
],
  "geometry": {"coordinates":[-77.115601,38.8437],"type":"Point"}
}