{
  "id": 739394623,
  "type": "Feature",
  "properties": {
    "edtf:cessation":"uuuu",
    "edtf:inception":"uuuu",
    "geom:area":0.0,
    "geom:bbox":"-79.212456,37.335823,-79.212456,37.335823",
    "geom:latitude":37.335823,
    "geom:longitude":-79.212456,
    "iso:country":"US",
    "sg:address":"770 Leesville Rd",
    "sg:city":"Lynchburg",
    "sg:classifiers":[
        {
            "category":"Professional",
            "subcategory":"",
            "type":"Services"
        }
    ],
    "sg:owner":"simplegeo",
    "sg:phone":"+1 434 239 7764",
    "sg:postcode":"24502",
    "sg:province":"VA",
    "src:geom":"simplegeo",
    "wof:belongsto":[],
    "wof:breaches":[],
    "wof:concordances":{
        "sg:id":"SG_3AjrhRzKnAn7eIVJMXyWw3_37.335823_-79.212456@1294252573"
    },
    "wof:country":"US",
    "wof:created":1461906478,
    "wof:geomhash":"1241d9f0d8b53a396c705b429f81516a",
    "wof:hierarchy":[],
    "wof:id":739394623,
    "wof:lastmodified":1461906478,
    "wof:name":"Jean Martin Gowen",
    "wof:parent_id":-1,
    "wof:placetype":"venue",
    "wof:superseded_by":[],
    "wof:supersedes":[],
    "wof:tags":[]
},
  "bbox": [
    -79.212456,
    37.335823,
    -79.212456,
    37.335823
],
  "geometry": {"coordinates":[-79.212456,37.335823],"type":"Point"}
}