{
  "id": 739318517,
  "type": "Feature",
  "properties": {
    "edtf:cessation":"uuuu",
    "edtf:inception":"uuuu",
    "geom:area":0.0,
    "geom:bbox":"-79.142445,37.414926,-79.142445,37.414926",
    "geom:latitude":37.414926,
    "geom:longitude":-79.142445,
    "iso:country":"US",
    "sg:address":"815 Main St",
    "sg:city":"Lynchburg",
    "sg:classifiers":[
        {
            "category":"Shopping",
            "subcategory":"Florist",
            "type":"Retail Goods"
        }
    ],
    "sg:owner":"simplegeo",
    "sg:phone":"+1 434 846 2340",
    "sg:postcode":"24504",
    "sg:province":"VA",
    "src:geom":"simplegeo",
    "wof:belongsto":[],
    "wof:breaches":[],
    "wof:concordances":{
        "sg:id":"SG_4qt4KIJftcg2EdD263akqS_37.414926_-79.142445@1294252573"
    },
    "wof:country":"US",
    "wof:created":1461904938,
    "wof:geomhash":"41e37502502407ef9db0b27ddf919f94",
    "wof:hierarchy":[],
    "wof:id":739318517,
    "wof:lastmodified":1461904938,
    "wof:name":"Flowers By Timberlake",
    "wof:parent_id":-1,
    "wof:placetype":"venue",
    "wof:superseded_by":[],
    "wof:supersedes":[],
    "wof:tags":[]
},
  "bbox": [
    -79.142445,
    37.414926,
    -79.142445,
    37.414926
],
  "geometry": {"coordinates":[-79.142445,37.414926],"type":"Point"}
}