{
  "id": 723042685,
  "type": "Feature",
  "properties": {
    "edtf:cessation":"uuuu",
    "edtf:inception":"uuuu",
    "geom:area":0.0,
    "geom:bbox":"-77.301991,37.626211,-77.301991,37.626211",
    "geom:latitude":37.626211,
    "geom:longitude":-77.301991,
    "iso:country":"US",
    "sg:address":"6000 Mechanicsville Tpke",
    "sg:city":"Mechanicsville",
    "sg:classifiers":[
        {
            "category":"Retail",
            "subcategory":"Auto Repair",
            "type":"Services"
        }
    ],
    "sg:owner":"simplegeo",
    "sg:phone":"+1 804 730 4897",
    "sg:postcode":"23111",
    "sg:province":"VA",
    "sg:tags":[
        "automotive"
    ],
    "src:geom":"simplegeo",
    "wof:belongsto":[],
    "wof:breaches":[],
    "wof:concordances":{
        "sg:id":"SG_1fh7qgiUIRcU36AQSvWKbC_37.626211_-77.301991@1294252573"
    },
    "wof:country":"US",
    "wof:created":1461893868,
    "wof:geomhash":"aba391ddaed567e2940b006ed7fc5e72",
    "wof:hierarchy":[],
    "wof:id":723042685,
    "wof:lastmodified":1461893868,
    "wof:name":"Rt of VA",
    "wof:parent_id":-1,
    "wof:placetype":"venue",
    "wof:superseded_by":[],
    "wof:supersedes":[],
    "wof:tags":[
        "automotive"
    ]
},
  "bbox": [
    -77.301991,
    37.626211,
    -77.301991,
    37.626211
],
  "geometry": {"coordinates":[-77.301991,37.626211],"type":"Point"}
}