{
  "id": 723296369,
  "type": "Feature",
  "properties": {
    "edtf:cessation":"uuuu",
    "edtf:inception":"uuuu",
    "geom:area":0.0,
    "geom:bbox":"-77.271936,38.78931,-77.271936,38.78931",
    "geom:latitude":38.78931,
    "geom:longitude":-77.271936,
    "iso:country":"US",
    "sg:address":"6003 Clerkenwell Ct",
    "sg:city":"Burke",
    "sg:classifiers":[
        {
            "category":"Education",
            "subcategory":"Dance Studio",
            "type":"Public Place"
        }
    ],
    "sg:owner":"simplegeo",
    "sg:phone":"+1 703 250 5360",
    "sg:postcode":"22015",
    "sg:province":"VA",
    "src:geom":"simplegeo",
    "wof:belongsto":[
        85688747,
        102191575,
        85633793,
        101729811,
        102084863,
        85893989
    ],
    "wof:breaches":[],
    "wof:concordances":{
        "sg:id":"SG_0d7nSxWYnv8Jq10xTytenw_38.789310_-77.271936@1294252573"
    },
    "wof:country":"US",
    "wof:created":1461898992,
    "wof:geomhash":"45ce1f97a18a5d74ed885f1a7100b73d",
    "wof:hierarchy":[
        {
            "continent_id":102191575,
            "country_id":85633793,
            "county_id":102084863,
            "locality_id":101729811,
            "neighbourhood_id":85893989,
            "region_id":85688747,
            "venue_id":723296369
        }
    ],
    "wof:id":723296369,
    "wof:lastmodified":1461898992,
    "wof:name":"C Y Richardson Ballroom & Soc",
    "wof:parent_id":85893989,
    "wof:placetype":"venue",
    "wof:superseded_by":[],
    "wof:supersedes":[],
    "wof:tags":[]
},
  "bbox": [
    -77.271936,
    38.78931,
    -77.271936,
    38.78931
],
  "geometry": {"coordinates":[-77.271936,38.78931],"type":"Point"}
}