{
  "id": 722669613,
  "type": "Feature",
  "properties": {
    "edtf:cessation":"uuuu",
    "edtf:inception":"uuuu",
    "geom:area":0.0,
    "geom:bbox":"-77.514676,38.782453,-77.514676,38.782453",
    "geom:latitude":38.782453,
    "geom:longitude":-77.514676,
    "iso:country":"US",
    "sg:address":"10651 Lomond Dr",
    "sg:city":"Manassas",
    "sg:classifiers":[
        {
            "category":"Utilities",
            "subcategory":"Telephone",
            "type":"Services"
        }
    ],
    "sg:owner":"simplegeo",
    "sg:phone":"+1 703 330 2770",
    "sg:postcode":"20109",
    "sg:province":"VA",
    "sg:tags":[
        "communications"
    ],
    "src:geom":"simplegeo",
    "wof:belongsto":[],
    "wof:breaches":[],
    "wof:concordances":{
        "sg:id":"SG_7DIj2rWtsCrruWewqUCbpM_38.782453_-77.514676@1294252573"
    },
    "wof:country":"US",
    "wof:created":1461886389,
    "wof:geomhash":"0aaef84a36b42f6414bcd1c2d17d963f",
    "wof:hierarchy":[],
    "wof:id":722669613,
    "wof:lastmodified":1461886389,
    "wof:name":"AFL Network Services Inc",
    "wof:parent_id":-1,
    "wof:placetype":"venue",
    "wof:superseded_by":[],
    "wof:supersedes":[],
    "wof:tags":[
        "communications"
    ]
},
  "bbox": [
    -77.514676,
    38.782453,
    -77.514676,
    38.782453
],
  "geometry": {"coordinates":[-77.51467599999999,38.782453],"type":"Point"}
}