{
  "id": 722650623,
  "type": "Feature",
  "properties": {
    "edtf:cessation":"uuuu",
    "edtf:inception":"uuuu",
    "geom:area":0.0,
    "geom:bbox":"-77.800002,38.307235,-77.800002,38.307235",
    "geom:latitude":38.307235,
    "geom:longitude":-77.800002,
    "iso:country":"US",
    "sg:address":"33225 Constitution Hwy",
    "sg:city":"Locust Grove",
    "sg:classifiers":[
        {
            "category":"Building & Trades",
            "subcategory":"Construction",
            "type":"Services"
        }
    ],
    "sg:owner":"simplegeo",
    "sg:phone":"+1 540 854 4265",
    "sg:postcode":"22508",
    "sg:province":"VA",
    "sg:tags":[
        "general",
        "contractor"
    ],
    "src:geom":"simplegeo",
    "wof:belongsto":[],
    "wof:breaches":[],
    "wof:concordances":{
        "sg:id":"SG_4XbDpDbAJV1FyxH4KIJD6o_38.307235_-77.800002@1294252573"
    },
    "wof:country":"US",
    "wof:created":1461886029,
    "wof:geomhash":"c3961e9014d14164d24eb615f7214292",
    "wof:hierarchy":[],
    "wof:id":722650623,
    "wof:lastmodified":1461886029,
    "wof:name":"Titan Construction Co",
    "wof:parent_id":-1,
    "wof:placetype":"venue",
    "wof:superseded_by":[],
    "wof:supersedes":[],
    "wof:tags":[
        "general",
        "contractor"
    ]
},
  "bbox": [
    -77.800002,
    38.307235,
    -77.800002,
    38.307235
],
  "geometry": {"coordinates":[-77.80000200000001,38.307235],"type":"Point"}
}