{
  "id": 722858609,
  "type": "Feature",
  "properties": {
    "edtf:cessation":"uuuu",
    "edtf:inception":"uuuu",
    "geom:area":0.0,
    "geom:bbox":"-77.503446,37.629588,-77.503446,37.629588",
    "geom:latitude":37.629588,
    "geom:longitude":-77.503446,
    "iso:country":"US",
    "sg:address":"8500 Sanford Dr",
    "sg:city":"Richmond",
    "sg:classifiers":[
        {
            "category":"Wholesale",
            "subcategory":"Hardware",
            "type":"Manufacturing & Wholesale Goods"
        }
    ],
    "sg:owner":"simplegeo",
    "sg:phone":"+1 804 266 4244",
    "sg:postcode":"23228",
    "sg:province":"VA",
    "sg:tags":[
        "plumbing"
    ],
    "src:geom":"simplegeo",
    "wof:belongsto":[],
    "wof:breaches":[],
    "wof:concordances":{
        "sg:id":"SG_3ZTqKxrvNRTkQx13T4M5Aa_37.629588_-77.503446@1294252573"
    },
    "wof:country":"US",
    "wof:created":1461889985,
    "wof:geomhash":"5c4430998d71e5bcdbfd78f3a1962562",
    "wof:hierarchy":[],
    "wof:id":722858609,
    "wof:lastmodified":1461889985,
    "wof:name":"Richmond Foundry",
    "wof:parent_id":-1,
    "wof:placetype":"venue",
    "wof:superseded_by":[],
    "wof:supersedes":[],
    "wof:tags":[
        "plumbing"
    ]
},
  "bbox": [
    -77.503446,
    37.629588,
    -77.503446,
    37.629588
],
  "geometry": {"coordinates":[-77.503446,37.629588],"type":"Point"}
}