{
  "id": 722989671,
  "type": "Feature",
  "properties": {
    "edtf:cessation":"uuuu",
    "edtf:inception":"uuuu",
    "geom:area":0.0,
    "geom:bbox":"-77.648556,38.313753,-77.648556,38.313753",
    "geom:latitude":38.313753,
    "geom:longitude":-77.648556,
    "iso:country":"US",
    "sg:address":"9108 Ranger Ln",
    "sg:city":"Fredericksburg",
    "sg:classifiers":[
        {
            "category":"Government",
            "subcategory":"Office",
            "type":"Public Place"
        }
    ],
    "sg:owner":"simplegeo",
    "sg:phone":"+1 540 785 7986",
    "sg:postcode":"22407",
    "sg:province":"VA",
    "sg:tags":[
        "ranger"
    ],
    "src:geom":"simplegeo",
    "wof:belongsto":[],
    "wof:breaches":[],
    "wof:concordances":{
        "sg:id":"SG_1uNM1WydjA0F4aJT1RVqvP_38.313753_-77.648556@1294252573"
    },
    "wof:country":"US",
    "wof:created":1461892684,
    "wof:geomhash":"f574258377f39ef746210bf1d735a1a1",
    "wof:hierarchy":[],
    "wof:id":722989671,
    "wof:lastmodified":1461892684,
    "wof:name":"Western Ranger Office",
    "wof:parent_id":-1,
    "wof:placetype":"venue",
    "wof:superseded_by":[],
    "wof:supersedes":[],
    "wof:tags":[
        "ranger"
    ]
},
  "bbox": [
    -77.648556,
    38.313753,
    -77.648556,
    38.313753
],
  "geometry": {"coordinates":[-77.648556,38.313753],"type":"Point"}
}