{
  "id": 739711057,
  "type": "Feature",
  "properties": {
    "edtf:cessation":"uuuu",
    "edtf:inception":"uuuu",
    "geom:area":0.0,
    "geom:bbox":"-77.409887,37.688558,-77.409887,37.688558",
    "geom:latitude":37.688558,
    "geom:longitude":-77.409887,
    "iso:country":"US",
    "sg:address":"9081 Cottleston Cir",
    "sg:city":"Mechanicsville",
    "sg:classifiers":[
        {
            "category":"Autos & Motor Vehicles",
            "subcategory":"Automobile Sales",
            "type":"Retail Goods"
        },
        {
            "category":"Professional",
            "subcategory":"Business Services",
            "type":"Services"
        }
    ],
    "sg:owner":"simplegeo",
    "sg:phone":"+1 804 698 0496",
    "sg:postcode":"23116",
    "sg:province":"VA",
    "sg:tags":[
        "locator",
        "repossessing"
    ],
    "src:geom":"simplegeo",
    "wof:belongsto":[],
    "wof:breaches":[],
    "wof:concordances":{
        "sg:id":"SG_6y9LwCIfyy4v0FqeW3p0Kc_37.688558_-77.409887@1303262549"
    },
    "wof:country":"US",
    "wof:created":1461912802,
    "wof:geomhash":"6d1c71eb5b96b597bc45846fadedcf1e",
    "wof:hierarchy":[],
    "wof:id":739711057,
    "wof:lastmodified":1461912802,
    "wof:name":"Totemic Business Solutions",
    "wof:parent_id":-1,
    "wof:placetype":"venue",
    "wof:superseded_by":[],
    "wof:supersedes":[],
    "wof:tags":[
        "locator",
        "repossessing"
    ]
},
  "bbox": [
    -77.409887,
    37.688558,
    -77.409887,
    37.688558
],
  "geometry": {"coordinates":[-77.409887,37.688558],"type":"Point"}
}