{
  "id": 739485037,
  "type": "Feature",
  "properties": {
    "edtf:cessation":"uuuu",
    "edtf:inception":"uuuu",
    "geom:area":0.0,
    "geom:bbox":"-77.129631,38.852624,-77.129631,38.852624",
    "geom:latitude":38.852624,
    "geom:longitude":-77.129631,
    "iso:country":"US",
    "sg:address":"5870 Crossroads Center Way",
    "sg:city":"Falls Church",
    "sg:classifiers":[
        {
            "category":"Shopping",
            "subcategory":"Shoes",
            "type":"Retail Goods"
        }
    ],
    "sg:owner":"simplegeo",
    "sg:phone":"+1 703 931 4047",
    "sg:postcode":"22041",
    "sg:province":"VA",
    "src:geom":"simplegeo",
    "wof:belongsto":[],
    "wof:breaches":[],
    "wof:concordances":{
        "sg:id":"SG_181h8JxLk3oun57z9VIUiB_38.852624_-77.129631@1294252573"
    },
    "wof:country":"US",
    "wof:created":1461908162,
    "wof:geomhash":"e2484a2e676bc32f2258ded269fb54bd",
    "wof:hierarchy":[],
    "wof:id":739485037,
    "wof:lastmodified":1461908162,
    "wof:name":"Payless Shoe Source",
    "wof:parent_id":-1,
    "wof:placetype":"venue",
    "wof:superseded_by":[],
    "wof:supersedes":[],
    "wof:tags":[]
},
  "bbox": [
    -77.129631,
    38.852624,
    -77.129631,
    38.852624
],
  "geometry": {"coordinates":[-77.129631,38.852624],"type":"Point"}
}