{
  "id": 739678409,
  "type": "Feature",
  "properties": {
    "edtf:cessation":"uuuu",
    "edtf:inception":"uuuu",
    "geom:area":0.0,
    "geom:bbox":"-77.09143,38.829893,-77.09143,38.829893",
    "geom:latitude":38.829893,
    "geom:longitude":-77.09143,
    "iso:country":"US",
    "sg:address":"3690M King St",
    "sg:city":"Alexandria",
    "sg:classifiers":[
        {
            "category":"Health Services",
            "subcategory":"Chiropractor",
            "type":"Services"
        }
    ],
    "sg:owner":"simplegeo",
    "sg:phone":"+1 703 578 1900",
    "sg:postcode":"22302",
    "sg:province":"VA",
    "src:geom":"simplegeo",
    "wof:belongsto":[],
    "wof:breaches":[],
    "wof:concordances":{
        "sg:id":"SG_1twK72GyptxisrbnjmmSNw_38.829893_-77.091430@1303262545"
    },
    "wof:country":"US",
    "wof:created":1461912117,
    "wof:geomhash":"7b100791b4ba8ef7b49690f0a71fb602",
    "wof:hierarchy":[],
    "wof:id":739678409,
    "wof:lastmodified":1461912117,
    "wof:name":"Bullen Wayne",
    "wof:parent_id":-1,
    "wof:placetype":"venue",
    "wof:superseded_by":[],
    "wof:supersedes":[],
    "wof:tags":[]
},
  "bbox": [
    -77.09143,
    38.829893,
    -77.09143,
    38.829893
],
  "geometry": {"coordinates":[-77.09143,38.829893],"type":"Point"}
}