{
  "id": 739354193,
  "type": "Feature",
  "properties": {
    "edtf:cessation":"uuuu",
    "edtf:inception":"uuuu",
    "geom:area":0.0,
    "geom:bbox":"-80.723924,37.324638,-80.723924,37.324638",
    "geom:latitude":37.324638,
    "geom:longitude":-80.723924,
    "iso:country":"US",
    "sg:address":"219 Buchanan St",
    "sg:city":"Pearisburg",
    "sg:classifiers":[
        {
            "category":"Health Services",
            "subcategory":"Doctor",
            "type":"Services"
        }
    ],
    "sg:owner":"simplegeo",
    "sg:phone":"+1 540 921 5124",
    "sg:postcode":"24134",
    "sg:province":"VA",
    "sg:tags":[
        "medical"
    ],
    "src:geom":"simplegeo",
    "wof:belongsto":[],
    "wof:breaches":[],
    "wof:concordances":{
        "sg:id":"SG_1IgmvhIePFEZALMAyo5zQc_37.324638_-80.723924@1294252573"
    },
    "wof:country":"US",
    "wof:created":1461905704,
    "wof:geomhash":"e60965835d6e68750067fbb02fbaca60",
    "wof:hierarchy":[],
    "wof:id":739354193,
    "wof:lastmodified":1461905704,
    "wof:name":"Linda Morrow Dr",
    "wof:parent_id":-1,
    "wof:placetype":"venue",
    "wof:superseded_by":[],
    "wof:supersedes":[],
    "wof:tags":[
        "medical"
    ]
},
  "bbox": [
    -80.723924,
    37.324638,
    -80.723924,
    37.324638
],
  "geometry": {"coordinates":[-80.723924,37.324638],"type":"Point"}
}