{
  "id": 723048117,
  "type": "Feature",
  "properties": {
    "edtf:cessation":"uuuu",
    "edtf:inception":"uuuu",
    "geom:area":0.0,
    "geom:bbox":"-76.476001,37.180369,-76.476001,37.180369",
    "geom:latitude":37.180369,
    "geom:longitude":-76.476001,
    "iso:country":"US",
    "sg:address":"325 Redoubt Rd",
    "sg:city":"Yorktown",
    "sg:classifiers":[
        {
            "category":"Building & Trades",
            "subcategory":"Plumbing",
            "type":"Services"
        }
    ],
    "sg:owner":"simplegeo",
    "sg:phone":"+1 757 877 8540",
    "sg:postcode":"23692",
    "sg:province":"VA",
    "sg:tags":[
        "plumbing",
        "contractor"
    ],
    "src:geom":"simplegeo",
    "wof:belongsto":[],
    "wof:breaches":[],
    "wof:concordances":{
        "sg:id":"SG_6CMoB6eW1ZxybhENLJJSrR_37.180369_-76.476001@1294252573"
    },
    "wof:country":"US",
    "wof:created":1461893972,
    "wof:geomhash":"8240b3778aeba25199a593fe087c2bb9",
    "wof:hierarchy":[],
    "wof:id":723048117,
    "wof:lastmodified":1461893972,
    "wof:name":"Just Plumbing",
    "wof:parent_id":420547335,
    "wof:placetype":"venue",
    "wof:superseded_by":[],
    "wof:supersedes":[],
    "wof:tags":[
        "plumbing",
        "contractor"
    ]
},
  "bbox": [
    -76.476001,
    37.180369,
    -76.476001,
    37.180369
],
  "geometry": {"coordinates":[-76.476001,37.180369],"type":"Point"}
}