{
  "id": 739344425,
  "type": "Feature",
  "properties": {
    "edtf:cessation":"uuuu",
    "edtf:inception":"uuuu",
    "geom:area":0.0,
    "geom:bbox":"-78.181882,39.154972,-78.181882,39.154972",
    "geom:latitude":39.154972,
    "geom:longitude":-78.181882,
    "iso:country":"US",
    "sg:address":"205 Peppertree Ln",
    "sg:city":"Winchester",
    "sg:classifiers":[
        {
            "category":"Retail",
            "subcategory":"Repair Shop",
            "type":"Services"
        }
    ],
    "sg:owner":"simplegeo",
    "sg:phone":"+1 540 720 9217",
    "sg:postcode":"22601",
    "sg:province":"VA",
    "src:geom":"simplegeo",
    "wof:belongsto":[],
    "wof:breaches":[],
    "wof:concordances":{
        "sg:id":"SG_3jcLHNDk2hSaYpKihrQUvK_39.154972_-78.181882@1294252573"
    },
    "wof:country":"US",
    "wof:created":1461905482,
    "wof:geomhash":"1c2f31ccd8a0dbe679d7653cd1b8464d",
    "wof:hierarchy":[],
    "wof:id":739344425,
    "wof:lastmodified":1461905482,
    "wof:name":"Double Trouble Racing",
    "wof:parent_id":-1,
    "wof:placetype":"venue",
    "wof:superseded_by":[],
    "wof:supersedes":[],
    "wof:tags":[]
},
  "bbox": [
    -78.181882,
    39.154972,
    -78.181882,
    39.154972
],
  "geometry": {"coordinates":[-78.181882,39.154972],"type":"Point"}
}