{
  "id": 722968963,
  "type": "Feature",
  "properties": {
    "edtf:cessation":"uuuu",
    "edtf:inception":"uuuu",
    "geom:area":0.0,
    "geom:bbox":"-81.584656,36.612445,-81.584656,36.612445",
    "geom:latitude":36.612445,
    "geom:longitude":-81.584656,
    "iso:country":"US",
    "sg:address":"15771 Highlands Pkwy",
    "sg:city":"Whitetop",
    "sg:classifiers":[
        {
            "category":"Organizations",
            "subcategory":"Religious Organization",
            "type":"Services"
        }
    ],
    "sg:owner":"simplegeo",
    "sg:phone":"+1 276 388 3246",
    "sg:postcode":"24292",
    "sg:province":"VA",
    "src:geom":"simplegeo",
    "wof:belongsto":[],
    "wof:breaches":[],
    "wof:concordances":{
        "sg:id":"SG_573GKcy8iWDbuosN6pzvr0_36.612445_-81.584656@1294252573"
    },
    "wof:country":"US",
    "wof:created":1461892211,
    "wof:geomhash":"3c486a5118458b6766cf213bf41089b7",
    "wof:hierarchy":[],
    "wof:id":722968963,
    "wof:lastmodified":1461892211,
    "wof:name":"Whitetop Baptist Church",
    "wof:parent_id":-1,
    "wof:placetype":"venue",
    "wof:superseded_by":[],
    "wof:supersedes":[],
    "wof:tags":[]
},
  "bbox": [
    -81.584656,
    36.612445,
    -81.584656,
    36.612445
],
  "geometry": {"coordinates":[-81.584656,36.612445],"type":"Point"}
}