{
  "id": 739348279,
  "type": "Feature",
  "properties": {
    "edtf:cessation":"uuuu",
    "edtf:inception":"uuuu",
    "geom:area":0.0,
    "geom:bbox":"-77.571181,37.659595,-77.571181,37.659595",
    "geom:latitude":37.659595,
    "geom:longitude":-77.571181,
    "iso:country":"US",
    "sg:address":"4606 Breithorne Ct",
    "sg:city":"Glen Allen",
    "sg:classifiers":[
        {
            "category":"Insurance",
            "subcategory":"Insurance Agent",
            "type":"Services"
        }
    ],
    "sg:owner":"simplegeo",
    "sg:phone":"+1 804 346 8144",
    "sg:postcode":"23060",
    "sg:province":"VA",
    "src:geom":"simplegeo",
    "wof:belongsto":[],
    "wof:breaches":[],
    "wof:concordances":{
        "sg:id":"SG_2i7XZKQ3xqX3ziEErJEbe0_37.659595_-77.571181@1294252573"
    },
    "wof:country":"US",
    "wof:created":1461905575,
    "wof:geomhash":"f3a8b509df78a97d192e7c204ccf8141",
    "wof:hierarchy":[],
    "wof:id":739348279,
    "wof:lastmodified":1461905575,
    "wof:name":"Turner F Smith Co",
    "wof:parent_id":-1,
    "wof:placetype":"venue",
    "wof:superseded_by":[],
    "wof:supersedes":[],
    "wof:tags":[]
},
  "bbox": [
    -77.571181,
    37.659595,
    -77.571181,
    37.659595
],
  "geometry": {"coordinates":[-77.571181,37.659595],"type":"Point"}
}