{
  "id": 722964485,
  "type": "Feature",
  "properties": {
    "edtf:cessation":"uuuu",
    "edtf:inception":"uuuu",
    "geom:area":0.0,
    "geom:bbox":"-77.498854,38.896815,-77.498854,38.896815",
    "geom:latitude":38.896815,
    "geom:longitude":-77.498854,
    "iso:country":"US",
    "sg:address":"43453 Parish St",
    "sg:city":"Chantilly",
    "sg:classifiers":[
        {
            "category":"Health Services",
            "subcategory":"Clinic",
            "type":"Services"
        }
    ],
    "sg:owner":"simplegeo",
    "sg:phone":"+1 703 327 5323",
    "sg:postcode":"20152",
    "sg:province":"VA",
    "src:geom":"simplegeo",
    "wof:belongsto":[],
    "wof:breaches":[],
    "wof:concordances":{
        "sg:id":"SG_0Fk1TkmJSkhpyvGbUQnC8N_38.896815_-77.498854@1294252573"
    },
    "wof:country":"US",
    "wof:created":1461892126,
    "wof:geomhash":"41e64b4d2af33f0560aa7cbc6c2d9156",
    "wof:hierarchy":[],
    "wof:id":722964485,
    "wof:lastmodified":1461892126,
    "wof:name":"South Riding Speech Therapy",
    "wof:parent_id":-1,
    "wof:placetype":"venue",
    "wof:superseded_by":[],
    "wof:supersedes":[],
    "wof:tags":[]
},
  "bbox": [
    -77.498854,
    38.896815,
    -77.498854,
    38.896815
],
  "geometry": {"coordinates":[-77.49885399999999,38.896815],"type":"Point"}
}