{
  "id": 739696559,
  "type": "Feature",
  "properties": {
    "edtf:cessation":"uuuu",
    "edtf:inception":"uuuu",
    "geom:area":0.0,
    "geom:bbox":"-78.258934,38.649162,-78.258934,38.649162",
    "geom:latitude":38.649162,
    "geom:longitude":-78.258934,
    "iso:country":"US",
    "sg:address":"11692 Lee Hwy",
    "sg:city":"Sperryville",
    "sg:classifiers":[],
    "sg:owner":"simplegeo",
    "sg:phone":"+1 540 987 9122",
    "sg:postcode":"22740",
    "sg:province":"VA",
    "src:geom":"simplegeo",
    "wof:belongsto":[],
    "wof:breaches":[],
    "wof:concordances":{
        "sg:id":"SG_2ccBm99vU4gxjFDvwY2x37_38.649162_-78.258934@1303262547"
    },
    "wof:country":"US",
    "wof:created":1461912474,
    "wof:geomhash":"5e12d78be45200441fee32dd8b595cfe",
    "wof:hierarchy":[],
    "wof:id":739696559,
    "wof:lastmodified":1461912474,
    "wof:name":"Triple Oak Bakery",
    "wof:parent_id":-1,
    "wof:placetype":"venue",
    "wof:superseded_by":[],
    "wof:supersedes":[],
    "wof:tags":[]
},
  "bbox": [
    -78.258934,
    38.649162,
    -78.258934,
    38.649162
],
  "geometry": {"coordinates":[-78.258934,38.649162],"type":"Point"}
}