{
  "id": 722835653,
  "type": "Feature",
  "properties": {
    "edtf:cessation":"uuuu",
    "edtf:inception":"uuuu",
    "geom:area":0.0,
    "geom:bbox":"-77.628472,37.638951,-77.628472,37.638951",
    "geom:latitude":37.638951,
    "geom:longitude":-77.628472,
    "iso:country":"US",
    "sg:address":"2812 Glen Gary Dr",
    "sg:city":"Richmond",
    "sg:classifiers":[
        {
            "category":"Professional",
            "subcategory":"",
            "type":"Services"
        }
    ],
    "sg:owner":"simplegeo",
    "sg:phone":"+1 804 360 9589",
    "sg:postcode":"23233",
    "sg:province":"VA",
    "src:geom":"simplegeo",
    "wof:belongsto":[],
    "wof:breaches":[],
    "wof:concordances":{
        "sg:id":"SG_1RpKYXpBp9Om5ihR2FOltD_37.638951_-77.628472@1294252573"
    },
    "wof:country":"US",
    "wof:created":1461889549,
    "wof:geomhash":"6a2d58eec9b7e6d79d868516f7017244",
    "wof:hierarchy":[],
    "wof:id":722835653,
    "wof:lastmodified":1461889549,
    "wof:name":"Phillips Creations",
    "wof:parent_id":-1,
    "wof:placetype":"venue",
    "wof:superseded_by":[],
    "wof:supersedes":[],
    "wof:tags":[]
},
  "bbox": [
    -77.628472,
    37.638951,
    -77.628472,
    37.638951
],
  "geometry": {"coordinates":[-77.628472,37.638951],"type":"Point"}
}