{
  "id": 739715771,
  "type": "Feature",
  "properties": {
    "edtf:cessation":"uuuu",
    "edtf:inception":"uuuu",
    "geom:area":0.0,
    "geom:bbox":"-77.399199,37.572587,-77.399199,37.572587",
    "geom:latitude":37.572587,
    "geom:longitude":-77.399199,
    "iso:country":"US",
    "sg:address":"3406 Mechanicsville Tpke",
    "sg:city":"Richmond",
    "sg:classifiers":[
        {
            "category":"Restaurant",
            "subcategory":"",
            "type":"Food & Drink"
        }
    ],
    "sg:owner":"simplegeo",
    "sg:phone":"+1 804 321 1880",
    "sg:postcode":"23223",
    "sg:province":"VA",
    "src:geom":"simplegeo",
    "wof:belongsto":[],
    "wof:breaches":[],
    "wof:concordances":{
        "sg:id":"SG_6gu1rpSihwO5PTAC7D4Kz8_37.572587_-77.399199@1303262549"
    },
    "wof:country":"US",
    "wof:created":1461912905,
    "wof:geomhash":"384e486ceb9430f1ec331b2d4f48119a",
    "wof:hierarchy":[],
    "wof:id":739715771,
    "wof:lastmodified":1461912905,
    "wof:name":"Mama Mary's Sugar And Spice",
    "wof:parent_id":-1,
    "wof:placetype":"venue",
    "wof:superseded_by":[],
    "wof:supersedes":[],
    "wof:tags":[]
},
  "bbox": [
    -77.399199,
    37.572587,
    -77.399199,
    37.572587
],
  "geometry": {"coordinates":[-77.399199,37.572587],"type":"Point"}
}