{
  "id": 722722089,
  "type": "Feature",
  "properties": {
    "edtf:cessation":"uuuu",
    "edtf:inception":"uuuu",
    "geom:area":0.0,
    "geom:bbox":"-82.598749,37.119721,-82.598749,37.119721",
    "geom:latitude":37.119721,
    "geom:longitude":-82.598749,
    "iso:country":"US",
    "sg:address":"11219 Indian Creek Rd",
    "sg:city":"Pound",
    "sg:classifiers":[
        {
            "category":"Cinema",
            "subcategory":"Movie Rental",
            "type":"Entertainment"
        }
    ],
    "sg:owner":"simplegeo",
    "sg:phone":"+1 276 796 4330",
    "sg:postcode":"24279",
    "sg:province":"VA",
    "sg:tags":[
        "leasing",
        "video",
        "disc",
        "tape"
    ],
    "src:geom":"simplegeo",
    "wof:belongsto":[],
    "wof:breaches":[],
    "wof:concordances":{
        "sg:id":"SG_68LRE1oJMWT17sEykDDaEp_37.119721_-82.598749@1294252573"
    },
    "wof:country":"US",
    "wof:created":1461887385,
    "wof:geomhash":"4e72ecab624091470167eb471df6b61a",
    "wof:hierarchy":[],
    "wof:id":722722089,
    "wof:lastmodified":1461887385,
    "wof:name":"Video World",
    "wof:parent_id":420547321,
    "wof:placetype":"venue",
    "wof:superseded_by":[],
    "wof:supersedes":[],
    "wof:tags":[
        "leasing",
        "video",
        "disc",
        "tape"
    ]
},
  "bbox": [
    -82.598749,
    37.119721,
    -82.598749,
    37.119721
],
  "geometry": {"coordinates":[-82.598749,37.119721],"type":"Point"}
}