{
  "id": 723221297,
  "type": "Feature",
  "properties": {
    "edtf:cessation":"uuuu",
    "edtf:inception":"uuuu",
    "geom:area":0.0,
    "geom:bbox":"-78.109789,37.933864,-78.109789,37.933864",
    "geom:latitude":37.933864,
    "geom:longitude":-78.109789,
    "iso:country":"US",
    "sg:address":"98 Courthouse Rd",
    "sg:city":"Louisa",
    "sg:classifiers":[
        {
            "category":"Organizations",
            "subcategory":"Religious Organization",
            "type":"Services"
        }
    ],
    "sg:owner":"simplegeo",
    "sg:phone":"+1 540 967 0636",
    "sg:postcode":"23093",
    "sg:province":"VA",
    "sg:tags":[
        "church"
    ],
    "src:geom":"simplegeo",
    "wof:belongsto":[],
    "wof:breaches":[],
    "wof:concordances":{
        "sg:id":"SG_1vh71kgNMs68Wz2X9Xh5zx_37.933864_-78.109789@1294252573"
    },
    "wof:country":"US",
    "wof:created":1461897527,
    "wof:geomhash":"0a3d7aa326810babfe9ff29c8f277255",
    "wof:hierarchy":[],
    "wof:id":723221297,
    "wof:lastmodified":1461897527,
    "wof:name":"Memorial Baptist Church-Louisa",
    "wof:parent_id":-1,
    "wof:placetype":"venue",
    "wof:superseded_by":[],
    "wof:supersedes":[],
    "wof:tags":[
        "church"
    ]
},
  "bbox": [
    -78.109789,
    37.933864,
    -78.109789,
    37.933864
],
  "geometry": {"coordinates":[-78.10978900000001,37.933864],"type":"Point"}
}