{
  "id": 722579737,
  "type": "Feature",
  "properties": {
    "edtf:cessation":"uuuu",
    "edtf:inception":"uuuu",
    "geom:area":0.0,
    "geom:bbox":"-78.162258,39.184734,-78.162258,39.184734",
    "geom:latitude":39.184734,
    "geom:longitude":-78.162258,
    "iso:country":"US",
    "sg:address":"107 N Kent St",
    "sg:city":"Winchester",
    "sg:classifiers":[
        {
            "category":"Government",
            "subcategory":"Office",
            "type":"Public Place"
        }
    ],
    "sg:owner":"simplegeo",
    "sg:phone":"+1 540 665 5620",
    "sg:postcode":"22601",
    "sg:province":"VA",
    "src:geom":"simplegeo",
    "wof:belongsto":[],
    "wof:breaches":[],
    "wof:concordances":{
        "sg:id":"SG_1ztiadxIOiBHc6RNZ94z8n_39.184734_-78.162258@1294252573"
    },
    "wof:country":"US",
    "wof:created":1461884598,
    "wof:geomhash":"66500ef296a7ee3584d88f2b51c3ada6",
    "wof:hierarchy":[],
    "wof:id":722579737,
    "wof:lastmodified":1461884598,
    "wof:name":"Frederick County Data Prcssng",
    "wof:parent_id":-1,
    "wof:placetype":"venue",
    "wof:superseded_by":[],
    "wof:supersedes":[],
    "wof:tags":[]
},
  "bbox": [
    -78.162258,
    39.184734,
    -78.162258,
    39.184734
],
  "geometry": {"coordinates":[-78.16225799999999,39.184734],"type":"Point"}
}