{
  "id": 739296095,
  "type": "Feature",
  "properties": {
    "edtf:cessation":"uuuu",
    "edtf:inception":"uuuu",
    "geom:area":0.0,
    "geom:bbox":"-77.595533,38.759877,-77.595533,38.759877",
    "geom:latitude":38.759877,
    "geom:longitude":-77.595533,
    "iso:country":"US",
    "sg:address":"9362 Worthington Dr",
    "sg:city":"Bristow",
    "sg:classifiers":[
        {
            "category":"Building & Trades",
            "subcategory":"Cleaning & Sanitation",
            "type":"Services"
        }
    ],
    "sg:owner":"simplegeo",
    "sg:phone":"+1 703 753 9221",
    "sg:postcode":"20136",
    "sg:province":"VA",
    "sg:tags":[
        "maintenance"
    ],
    "src:geom":"simplegeo",
    "wof:belongsto":[],
    "wof:breaches":[],
    "wof:concordances":{
        "sg:id":"SG_11zNthIZBR6kTcpVvz0FBv_38.759877_-77.595533@1294252573"
    },
    "wof:country":"US",
    "wof:created":1461904484,
    "wof:geomhash":"d5c3ac3d802d85493ae517ac9dd7f391",
    "wof:hierarchy":[],
    "wof:id":739296095,
    "wof:lastmodified":1461904484,
    "wof:name":"Jenkins & Jenkins LLC",
    "wof:parent_id":-1,
    "wof:placetype":"venue",
    "wof:superseded_by":[],
    "wof:supersedes":[],
    "wof:tags":[
        "maintenance"
    ]
},
  "bbox": [
    -77.595533,
    38.759877,
    -77.595533,
    38.759877
],
  "geometry": {"coordinates":[-77.595533,38.759877],"type":"Point"}
}