{
  "id": 723248675,
  "type": "Feature",
  "properties": {
    "edtf:cessation":"uuuu",
    "edtf:inception":"uuuu",
    "geom:area":0.0,
    "geom:bbox":"-77.443814,37.240213,-77.443814,37.240213",
    "geom:latitude":37.240213,
    "geom:longitude":-77.443814,
    "iso:country":"US",
    "sg:address":"21003 Butler Ct",
    "sg:city":"Petersburg",
    "sg:classifiers":[
        {
            "category":"Professional",
            "subcategory":"",
            "type":"Services"
        }
    ],
    "sg:owner":"simplegeo",
    "sg:phone":"+1 804 520 5737",
    "sg:postcode":"23803",
    "sg:province":"VA",
    "src:geom":"simplegeo",
    "wof:belongsto":[],
    "wof:breaches":[],
    "wof:concordances":{
        "sg:id":"SG_1osyd3cQqnnH1Y1ebSORnj_37.240213_-77.443814@1294252573"
    },
    "wof:country":"US",
    "wof:created":1461898090,
    "wof:geomhash":"db699cebf4d0fba7752b0e60d942587f",
    "wof:hierarchy":[],
    "wof:id":723248675,
    "wof:lastmodified":1461898090,
    "wof:name":"Glenn Judicial Enforcers",
    "wof:parent_id":-1,
    "wof:placetype":"venue",
    "wof:superseded_by":[],
    "wof:supersedes":[],
    "wof:tags":[]
},
  "bbox": [
    -77.443814,
    37.240213,
    -77.443814,
    37.240213
],
  "geometry": {"coordinates":[-77.443814,37.240213],"type":"Point"}
}