{
  "id": 739686215,
  "type": "Feature",
  "properties": {
    "edtf:cessation":"uuuu",
    "edtf:inception":"uuuu",
    "geom:area":0.0,
    "geom:bbox":"-77.118292,38.840165,-77.118292,38.840165",
    "geom:latitude":38.840165,
    "geom:longitude":-77.118292,
    "iso:country":"US",
    "sg:address":"5226 Dawes Ave",
    "sg:city":"Alexandria",
    "sg:classifiers":[
        {
            "category":"Health Services",
            "subcategory":"Doctor",
            "type":"Services"
        }
    ],
    "sg:owner":"simplegeo",
    "sg:phone":"+1 703 379 9111",
    "sg:postcode":"22311",
    "sg:province":"VA",
    "src:geom":"simplegeo",
    "wof:belongsto":[],
    "wof:breaches":[],
    "wof:concordances":{
        "sg:id":"SG_7mZOJfen00HBvkjKPpZpPf_38.840165_-77.118292@1303262546"
    },
    "wof:country":"US",
    "wof:created":1461912269,
    "wof:geomhash":"b9bcd5bf0c8564f2e096af90d3c4d1c6",
    "wof:hierarchy":[],
    "wof:id":739686215,
    "wof:lastmodified":1461912269,
    "wof:name":"Mangipudy Jotika P MD",
    "wof:parent_id":-1,
    "wof:placetype":"venue",
    "wof:superseded_by":[],
    "wof:supersedes":[],
    "wof:tags":[]
},
  "bbox": [
    -77.118292,
    38.840165,
    -77.118292,
    38.840165
],
  "geometry": {"coordinates":[-77.118292,38.840165],"type":"Point"}
}