{
  "id": 739517771,
  "type": "Feature",
  "properties": {
    "edtf:cessation":"uuuu",
    "edtf:inception":"uuuu",
    "geom:area":0.0,
    "geom:bbox":"-77.436345,37.416357,-77.436345,37.416357",
    "geom:latitude":37.416357,
    "geom:longitude":-77.436345,
    "iso:country":"US",
    "sg:address":"8000 Jefferson Davis Hwy",
    "sg:city":"Richmond",
    "sg:classifiers":[
        {
            "category":"Building & Trades",
            "subcategory":"Construction",
            "type":"Services"
        }
    ],
    "sg:owner":"simplegeo",
    "sg:phone":"+1 804 279 0173",
    "sg:postcode":"23237",
    "sg:province":"VA",
    "sg:tags":[
        "residential",
        "gas"
    ],
    "src:geom":"simplegeo",
    "wof:belongsto":[],
    "wof:breaches":[],
    "wof:concordances":{
        "sg:id":"SG_0oErLX1R3znfW1AQypSM73_37.416357_-77.436345@1294252573"
    },
    "wof:country":"US",
    "wof:created":1461908751,
    "wof:geomhash":"3a9966e1346f8582edab097b3b54d1ca",
    "wof:hierarchy":[],
    "wof:id":739517771,
    "wof:lastmodified":1461908751,
    "wof:name":"Virtexco Corp",
    "wof:parent_id":-1,
    "wof:placetype":"venue",
    "wof:superseded_by":[],
    "wof:supersedes":[],
    "wof:tags":[
        "residential",
        "gas"
    ]
},
  "bbox": [
    -77.436345,
    37.416357,
    -77.436345,
    37.416357
],
  "geometry": {"coordinates":[-77.436345,37.416357],"type":"Point"}
}