{
  "id": 722861035,
  "type": "Feature",
  "properties": {
    "edtf:cessation":"uuuu",
    "edtf:inception":"uuuu",
    "geom:area":0.0,
    "geom:bbox":"-77.902183,36.812919,-77.902183,36.812919",
    "geom:latitude":36.812919,
    "geom:longitude":-77.902183,
    "iso:country":"US",
    "sg:address":"22355 Christanna Hwy",
    "sg:city":"Lawrenceville",
    "sg:classifiers":[
        {
            "category":"Organizations",
            "subcategory":"Religious Organization",
            "type":"Services"
        }
    ],
    "sg:owner":"simplegeo",
    "sg:phone":"+1 434 848 2932",
    "sg:postcode":"23868",
    "sg:province":"VA",
    "sg:tags":[
        "church"
    ],
    "src:geom":"simplegeo",
    "wof:belongsto":[],
    "wof:breaches":[],
    "wof:concordances":{
        "sg:id":"SG_4h2YfM3WE9Sd2kam7R411J_36.812919_-77.902183@1294252573"
    },
    "wof:country":"US",
    "wof:created":1461890035,
    "wof:geomhash":"0c214f968992e166b3bc9b4e57cfd237",
    "wof:hierarchy":[],
    "wof:id":722861035,
    "wof:lastmodified":1461890035,
    "wof:name":"Oak Grove Baptist Church",
    "wof:parent_id":-1,
    "wof:placetype":"venue",
    "wof:superseded_by":[],
    "wof:supersedes":[],
    "wof:tags":[
        "church"
    ]
},
  "bbox": [
    -77.902183,
    36.812919,
    -77.902183,
    36.812919
],
  "geometry": {"coordinates":[-77.90218299999999,36.812919],"type":"Point"}
}