{
  "id": 722914913,
  "type": "Feature",
  "properties": {
    "edtf:cessation":"uuuu",
    "edtf:inception":"uuuu",
    "geom:area":0.0,
    "geom:bbox":"-77.198107,38.740898,-77.198107,38.740898",
    "geom:latitude":38.740898,
    "geom:longitude":-77.198107,
    "iso:country":"US",
    "sg:address":"7373 Boston Blvd",
    "sg:city":"Springfield",
    "sg:classifiers":[
        {
            "category":"Health Services",
            "subcategory":"Optometrist",
            "type":"Services"
        }
    ],
    "sg:owner":"simplegeo",
    "sg:phone":"+1 703 455 6002",
    "sg:postcode":"22153",
    "sg:province":"VA",
    "src:geom":"simplegeo",
    "wof:belongsto":[],
    "wof:breaches":[],
    "wof:concordances":{
        "sg:id":"SG_2vbSj2YcDETsjE57HNckN7_38.740898_-77.198107@1294252573"
    },
    "wof:country":"US",
    "wof:created":1461891081,
    "wof:geomhash":"73a114647dd44cff6b483a8a625ab180",
    "wof:hierarchy":[],
    "wof:id":722914913,
    "wof:lastmodified":1461891081,
    "wof:name":"Cosco",
    "wof:parent_id":-1,
    "wof:placetype":"venue",
    "wof:superseded_by":[],
    "wof:supersedes":[],
    "wof:tags":[]
},
  "bbox": [
    -77.198107,
    38.740898,
    -77.198107,
    38.740898
],
  "geometry": {"coordinates":[-77.19810699999999,38.740898],"type":"Point"}
}