{
  "id": 723265867,
  "type": "Feature",
  "properties": {
    "edtf:cessation":"uuuu",
    "edtf:inception":"uuuu",
    "geom:area":0.0,
    "geom:bbox":"-76.510584,37.293525,-76.510584,37.293525",
    "geom:latitude":37.293525,
    "geom:longitude":-76.510584,
    "iso:country":"US",
    "sg:address":"7088 Hayes Shopping Ct",
    "sg:city":"Hayes",
    "sg:classifiers":[
        {
            "category":"Restaurant",
            "subcategory":"",
            "type":"Food & Drink"
        }
    ],
    "sg:owner":"simplegeo",
    "sg:phone":"+1 804 684 0909",
    "sg:postcode":"23072",
    "sg:province":"VA",
    "sg:tags":[
        "eating"
    ],
    "src:geom":"simplegeo",
    "wof:belongsto":[],
    "wof:breaches":[],
    "wof:concordances":{
        "sg:id":"SG_3DdU0yjtUtLVc0vLLmTOiP_37.293525_-76.510584@1294252573"
    },
    "wof:country":"US",
    "wof:created":1461898420,
    "wof:geomhash":"ceb73ad5dd436e11a6f53b5c958239f3",
    "wof:hierarchy":[],
    "wof:id":723265867,
    "wof:lastmodified":1461898420,
    "wof:name":"King China Inc",
    "wof:parent_id":-1,
    "wof:placetype":"venue",
    "wof:superseded_by":[],
    "wof:supersedes":[],
    "wof:tags":[
        "eating"
    ]
},
  "bbox": [
    -76.510584,
    37.293525,
    -76.510584,
    37.293525
],
  "geometry": {"coordinates":[-76.51058399999999,37.293525],"type":"Point"}
}