{
  "id": 723233711,
  "type": "Feature",
  "properties": {
    "edtf:cessation":"uuuu",
    "edtf:inception":"uuuu",
    "geom:area":0.0,
    "geom:bbox":"-77.149774,38.871671,-77.149774,38.871671",
    "geom:latitude":38.871671,
    "geom:longitude":-77.149774,
    "iso:country":"US",
    "sg:address":"6129 Willston Dr",
    "sg:city":"Falls Church",
    "sg:classifiers":[
        {
            "category":"Social Services",
            "subcategory":"Child Care",
            "type":"Services"
        }
    ],
    "sg:owner":"simplegeo",
    "sg:phone":"+1 703 532 4262",
    "sg:postcode":"22044",
    "sg:province":"VA",
    "sg:tags":[
        "day"
    ],
    "src:geom":"simplegeo",
    "wof:belongsto":[],
    "wof:breaches":[],
    "wof:concordances":{
        "sg:id":"SG_5Ov6Wa8fJ1TZEXg3Z5FCFK_38.871671_-77.149774@1294252573"
    },
    "wof:country":"US",
    "wof:created":1461897784,
    "wof:geomhash":"1be920d60097f3b663887fe0fbc8a229",
    "wof:hierarchy":[],
    "wof:id":723233711,
    "wof:lastmodified":1461897784,
    "wof:name":"Seven Corners Day Care Center",
    "wof:parent_id":-1,
    "wof:placetype":"venue",
    "wof:superseded_by":[],
    "wof:supersedes":[],
    "wof:tags":[
        "day"
    ]
},
  "bbox": [
    -77.149774,
    38.871671,
    -77.149774,
    38.871671
],
  "geometry": {"coordinates":[-77.14977399999999,38.871671],"type":"Point"}
}