{
  "id": 739539043,
  "type": "Feature",
  "properties": {
    "edtf:cessation":"uuuu",
    "edtf:inception":"uuuu",
    "geom:area":0.0,
    "geom:bbox":"-77.352452,38.718285,-77.352452,38.718285",
    "geom:latitude":38.718285,
    "geom:longitude":-77.352452,
    "iso:country":"US",
    "sg:address":"4800 Occoquan Overlook",
    "sg:city":"Woodbridge",
    "sg:classifiers":[
        {
            "category":"Real Estate",
            "subcategory":"Real Estate Services",
            "type":"Services"
        }
    ],
    "sg:owner":"simplegeo",
    "sg:phone":"+1 703 869 7574",
    "sg:postcode":"22192",
    "sg:province":"VA",
    "sg:tags":[
        "company",
        "title"
    ],
    "src:geom":"simplegeo",
    "wof:belongsto":[],
    "wof:breaches":[],
    "wof:concordances":{
        "sg:id":"SG_6v6JRVnSDJaw92Nqk21aaR_38.718285_-77.352452@1294252573"
    },
    "wof:country":"US",
    "wof:created":1461909137,
    "wof:geomhash":"e0f9ce0434e4cefa05c9061e6c54b75c",
    "wof:hierarchy":[],
    "wof:id":739539043,
    "wof:lastmodified":1461909137,
    "wof:name":"Davis Title Svc",
    "wof:parent_id":-1,
    "wof:placetype":"venue",
    "wof:superseded_by":[],
    "wof:supersedes":[],
    "wof:tags":[
        "company",
        "title"
    ]
},
  "bbox": [
    -77.352452,
    38.718285,
    -77.352452,
    38.718285
],
  "geometry": {"coordinates":[-77.352452,38.718285],"type":"Point"}
}