{
  "id": 722976859,
  "type": "Feature",
  "properties": {
    "edtf:cessation":"uuuu",
    "edtf:inception":"uuuu",
    "geom:area":0.0,
    "geom:bbox":"-77.583413,39.112514,-77.583413,39.112514",
    "geom:latitude":39.112514,
    "geom:longitude":-77.583413,
    "iso:country":"US",
    "sg:address":"343 Deer Path Ave SW",
    "sg:city":"Leesburg",
    "sg:classifiers":[
        {
            "category":"Recreation",
            "subcategory":"",
            "type":"Entertainment"
        }
    ],
    "sg:owner":"simplegeo",
    "sg:phone":"+1 703 777 9627",
    "sg:postcode":"20175",
    "sg:province":"VA",
    "sg:tags":[
        "club",
        "membership"
    ],
    "src:geom":"simplegeo",
    "wof:belongsto":[],
    "wof:breaches":[],
    "wof:concordances":{
        "sg:id":"SG_5DFIkg1pTtzHCYisORoEVO_39.112514_-77.583413@1294252573"
    },
    "wof:country":"US",
    "wof:created":1461892396,
    "wof:geomhash":"8bb980c13f6675171e32e78b9479fcd5",
    "wof:hierarchy":[],
    "wof:id":722976859,
    "wof:lastmodified":1461892396,
    "wof:name":"Foxridge Homeowners Assoc",
    "wof:parent_id":-1,
    "wof:placetype":"venue",
    "wof:superseded_by":[],
    "wof:supersedes":[],
    "wof:tags":[
        "club",
        "membership"
    ]
},
  "bbox": [
    -77.583413,
    39.112514,
    -77.583413,
    39.112514
],
  "geometry": {"coordinates":[-77.58341299999999,39.112514],"type":"Point"}
}