{
  "id": 722626913,
  "type": "Feature",
  "properties": {
    "edtf:cessation":"uuuu",
    "edtf:inception":"uuuu",
    "geom:area":0.0,
    "geom:bbox":"-77.381289,37.668128,-77.381289,37.668128",
    "geom:latitude":37.668128,
    "geom:longitude":-77.381289,
    "iso:country":"US",
    "sg:address":"9462 Doral Pl",
    "sg:city":"Mechanicsville",
    "sg:classifiers":[
        {
            "category":"Professional",
            "subcategory":"",
            "type":"Services"
        }
    ],
    "sg:owner":"simplegeo",
    "sg:phone":"+1 804 559 8589",
    "sg:postcode":"23116",
    "sg:province":"VA",
    "src:geom":"simplegeo",
    "wof:belongsto":[],
    "wof:breaches":[],
    "wof:concordances":{
        "sg:id":"SG_1ykxrkZSCmQWjfLDt3iycv_37.668128_-77.381289@1294252573"
    },
    "wof:country":"US",
    "wof:created":1461885532,
    "wof:geomhash":"1e320dea020da1c6701b1baa34ee4b38",
    "wof:hierarchy":[],
    "wof:id":722626913,
    "wof:lastmodified":1461885532,
    "wof:name":"Bmd Techiques",
    "wof:parent_id":-1,
    "wof:placetype":"venue",
    "wof:superseded_by":[],
    "wof:supersedes":[],
    "wof:tags":[]
},
  "bbox": [
    -77.381289,
    37.668128,
    -77.381289,
    37.668128
],
  "geometry": {"coordinates":[-77.381289,37.668128],"type":"Point"}
}