{
  "id": 722780147,
  "type": "Feature",
  "properties": {
    "edtf:cessation":"uuuu",
    "edtf:inception":"uuuu",
    "geom:area":0.0,
    "geom:bbox":"-77.506,37.587827,-77.506,37.587827",
    "geom:latitude":37.587827,
    "geom:longitude":-77.506,
    "iso:country":"US",
    "sg:address":"1801 Libbie Ave",
    "sg:city":"Richmond",
    "sg:classifiers":[
        {
            "category":"Education",
            "subcategory":"College",
            "type":"Public Place"
        }
    ],
    "sg:owner":"simplegeo",
    "sg:phone":"+1 804 282 9111",
    "sg:postcode":"23226",
    "sg:province":"VA",
    "sg:tags":[
        "academic",
        "school"
    ],
    "src:geom":"simplegeo",
    "wof:belongsto":[],
    "wof:breaches":[],
    "wof:concordances":{
        "sg:id":"SG_0PTHLOOMsCusBFpHuZwdzE_37.587827_-77.506000@1294252573"
    },
    "wof:country":"US",
    "wof:created":1461888502,
    "wof:geomhash":"09e753e08f25f16636395f183e29b844",
    "wof:hierarchy":[],
    "wof:id":722780147,
    "wof:lastmodified":1461888502,
    "wof:name":"Mary Baldwin College Adul",
    "wof:parent_id":-1,
    "wof:placetype":"venue",
    "wof:superseded_by":[],
    "wof:supersedes":[],
    "wof:tags":[
        "academic",
        "school"
    ]
},
  "bbox": [
    -77.506,
    37.587827,
    -77.506,
    37.587827
],
  "geometry": {"coordinates":[-77.506,37.587827],"type":"Point"}
}