{
  "id": 722618605,
  "type": "Feature",
  "properties": {
    "edtf:cessation":"uuuu",
    "edtf:inception":"uuuu",
    "geom:area":0.0,
    "geom:bbox":"-77.421834,37.407187,-77.421834,37.407187",
    "geom:latitude":37.407187,
    "geom:longitude":-77.421834,
    "iso:country":"US",
    "sg:address":"9138 Quinnford Blvd",
    "sg:city":"Richmond",
    "sg:classifiers":[
        {
            "category":"Organizations",
            "subcategory":"Religious Organization",
            "type":"Services"
        }
    ],
    "sg:owner":"simplegeo",
    "sg:phone":"+1 804 275 2836",
    "sg:postcode":"23237",
    "sg:province":"VA",
    "src:geom":"simplegeo",
    "wof:belongsto":[],
    "wof:breaches":[],
    "wof:concordances":{
        "sg:id":"SG_3lg7jJ3bszE3VGh4jmoJDG_37.407187_-77.421834@1294252573"
    },
    "wof:country":"US",
    "wof:created":1461885332,
    "wof:geomhash":"e38d04cce808229313579d8847a0bdca",
    "wof:hierarchy":[],
    "wof:id":722618605,
    "wof:lastmodified":1461885332,
    "wof:name":"Bellwood Baptist Church",
    "wof:parent_id":-1,
    "wof:placetype":"venue",
    "wof:superseded_by":[],
    "wof:supersedes":[],
    "wof:tags":[]
},
  "bbox": [
    -77.421834,
    37.407187,
    -77.421834,
    37.407187
],
  "geometry": {"coordinates":[-77.421834,37.407187],"type":"Point"}
}