{
  "id": 722626113,
  "type": "Feature",
  "properties": {
    "edtf:cessation":"uuuu",
    "edtf:inception":"uuuu",
    "geom:area":0.0,
    "geom:bbox":"-77.758549,39.145104,-77.758549,39.145104",
    "geom:latitude":39.145104,
    "geom:longitude":-77.758549,
    "iso:country":"US",
    "sg:address":"35998 Bell Rd",
    "sg:city":"Round Hill",
    "sg:classifiers":[
        {
            "category":"Professional",
            "subcategory":"",
            "type":"Services"
        }
    ],
    "sg:owner":"simplegeo",
    "sg:phone":"+1 540 338 0260",
    "sg:postcode":"20141",
    "sg:province":"VA",
    "src:geom":"simplegeo",
    "wof:belongsto":[],
    "wof:breaches":[],
    "wof:concordances":{
        "sg:id":"SG_1W6K0fcg5tbAGKcbrffBa2_39.145104_-77.758549@1294252573"
    },
    "wof:country":"US",
    "wof:created":1461885515,
    "wof:geomhash":"706ab5cecfc0403d31a2005a82fdbc0f",
    "wof:hierarchy":[],
    "wof:id":722626113,
    "wof:lastmodified":1461885515,
    "wof:name":"S Hammer Place",
    "wof:parent_id":-1,
    "wof:placetype":"venue",
    "wof:superseded_by":[],
    "wof:supersedes":[],
    "wof:tags":[]
},
  "bbox": [
    -77.758549,
    39.145104,
    -77.758549,
    39.145104
],
  "geometry": {"coordinates":[-77.758549,39.145104],"type":"Point"}
}