{
  "id": 722658991,
  "type": "Feature",
  "properties": {
    "edtf:cessation":"uuuu",
    "edtf:inception":"uuuu",
    "geom:area":0.0,
    "geom:bbox":"-78.816282,37.86398,-78.816282,37.86398",
    "geom:latitude":37.86398,
    "geom:longitude":-78.816282,
    "iso:country":"US",
    "sg:address":"1615 River Rd",
    "sg:city":"Faber",
    "sg:classifiers":[
        {
            "category":"Farming",
            "subcategory":"Livestock Farm",
            "type":"Manufacturing & Wholesale Goods"
        }
    ],
    "sg:owner":"simplegeo",
    "sg:phone":"+1 434 361 9205",
    "sg:postcode":"22938",
    "sg:province":"VA",
    "sg:tags":[
        "beef",
        "feedlot",
        "cattle"
    ],
    "src:geom":"simplegeo",
    "wof:belongsto":[],
    "wof:breaches":[],
    "wof:concordances":{
        "sg:id":"SG_6vwIAaxP9EXBCCp5KaaEiE_37.863980_-78.816282@1294252573"
    },
    "wof:country":"US",
    "wof:created":1461886186,
    "wof:geomhash":"c3e4aaa51f0fb49b3584bda693f432a3",
    "wof:hierarchy":[],
    "wof:id":722658991,
    "wof:lastmodified":1461886186,
    "wof:name":"Gordon Fletcher",
    "wof:parent_id":-1,
    "wof:placetype":"venue",
    "wof:superseded_by":[],
    "wof:supersedes":[],
    "wof:tags":[
        "beef",
        "feedlot",
        "cattle"
    ]
},
  "bbox": [
    -78.816282,
    37.86398,
    -78.816282,
    37.86398
],
  "geometry": {"coordinates":[-78.816282,37.86398],"type":"Point"}
}