{
  "id": 723324325,
  "type": "Feature",
  "properties": {
    "edtf:cessation":"uuuu",
    "edtf:inception":"uuuu",
    "geom:area":0.0,
    "geom:bbox":"-77.219142,38.701647,-77.219142,38.701647",
    "geom:latitude":38.701647,
    "geom:longitude":-77.219142,
    "iso:country":"US",
    "sg:address":"9550 Inverary Ct",
    "sg:city":"Lorton",
    "sg:classifiers":[
        {
            "category":"Professional",
            "subcategory":"",
            "type":"Services"
        }
    ],
    "sg:owner":"simplegeo",
    "sg:phone":"+1 703 339 1734",
    "sg:postcode":"22079",
    "sg:province":"VA",
    "src:geom":"simplegeo",
    "wof:belongsto":[],
    "wof:breaches":[],
    "wof:concordances":{
        "sg:id":"SG_2pGfawKkJnAJIzl1M2cp3R_38.701647_-77.219142@1294252573"
    },
    "wof:country":"US",
    "wof:created":1461899529,
    "wof:geomhash":"f8b5637d0bde548203270b0eb35ae078",
    "wof:hierarchy":[],
    "wof:id":723324325,
    "wof:lastmodified":1461899529,
    "wof:name":"Milagro D Funes",
    "wof:parent_id":-1,
    "wof:placetype":"venue",
    "wof:superseded_by":[],
    "wof:supersedes":[],
    "wof:tags":[]
},
  "bbox": [
    -77.219142,
    38.701647,
    -77.219142,
    38.701647
],
  "geometry": {"coordinates":[-77.21914200000001,38.701647],"type":"Point"}
}