{
  "id": 739384561,
  "type": "Feature",
  "properties": {
    "edtf:cessation":"uuuu",
    "edtf:inception":"uuuu",
    "geom:area":0.0,
    "geom:bbox":"-80.902427,36.739487,-80.902427,36.739487",
    "geom:latitude":36.739487,
    "geom:longitude":-80.902427,
    "iso:country":"US",
    "sg:address":"627 Pridemoore Rd",
    "sg:city":"Galax",
    "sg:classifiers":[
        {
            "category":"Professional",
            "subcategory":"",
            "type":"Services"
        }
    ],
    "sg:owner":"simplegeo",
    "sg:phone":"+1 276 236 7436",
    "sg:postcode":"24333",
    "sg:province":"VA",
    "src:geom":"simplegeo",
    "wof:belongsto":[],
    "wof:breaches":[],
    "wof:concordances":{
        "sg:id":"SG_0o9ADHeLsNSy58exkUBVjb_36.739487_-80.902427@1294252573"
    },
    "wof:country":"US",
    "wof:created":1461906276,
    "wof:geomhash":"0d1013a344c513a773512272d402e5a2",
    "wof:hierarchy":[],
    "wof:id":739384561,
    "wof:lastmodified":1461906276,
    "wof:name":"Gregory C Lineberry",
    "wof:parent_id":-1,
    "wof:placetype":"venue",
    "wof:superseded_by":[],
    "wof:supersedes":[],
    "wof:tags":[]
},
  "bbox": [
    -80.902427,
    36.739487,
    -80.902427,
    36.739487
],
  "geometry": {"coordinates":[-80.902427,36.739487],"type":"Point"}
}