{
  "id": 722777079,
  "type": "Feature",
  "properties": {
    "edtf:cessation":"uuuu",
    "edtf:inception":"uuuu",
    "geom:area":0.0,
    "geom:bbox":"-77.288176,38.998098,-77.288176,38.998098",
    "geom:latitude":38.998098,
    "geom:longitude":-77.288176,
    "iso:country":"US",
    "sg:address":"9830 Georgetown Pike",
    "sg:city":"Great Falls",
    "sg:classifiers":[
        {
            "category":"Education",
            "subcategory":"Library",
            "type":"Public Place"
        }
    ],
    "sg:owner":"simplegeo",
    "sg:phone":"+1 703 757 8560",
    "sg:postcode":"22066",
    "sg:province":"VA",
    "src:geom":"simplegeo",
    "wof:belongsto":[],
    "wof:breaches":[],
    "wof:concordances":{
        "sg:id":"SG_1M9SlXbekB41byH9zj0ODp_38.998098_-77.288176@1294252573"
    },
    "wof:country":"US",
    "wof:created":1461888444,
    "wof:geomhash":"7ae85e73cab33cc74e94a8b5be3ac207",
    "wof:hierarchy":[],
    "wof:id":722777079,
    "wof:lastmodified":1461888444,
    "wof:name":"Public Library Systems",
    "wof:parent_id":-1,
    "wof:placetype":"venue",
    "wof:superseded_by":[],
    "wof:supersedes":[],
    "wof:tags":[]
},
  "bbox": [
    -77.288176,
    38.998098,
    -77.288176,
    38.998098
],
  "geometry": {"coordinates":[-77.28817600000001,38.998098],"type":"Point"}
}