{
  "id": 723127135,
  "type": "Feature",
  "properties": {
    "edtf:cessation":"uuuu",
    "edtf:inception":"uuuu",
    "geom:area":0.0,
    "geom:bbox":"-77.495265,37.581754,-77.495265,37.581754",
    "geom:latitude":37.581754,
    "geom:longitude":-77.495265,
    "iso:country":"US",
    "sg:address":"4915 Caskie St",
    "sg:city":"Richmond",
    "sg:classifiers":[
        {
            "category":"Personal",
            "subcategory":"Tattoo Parlor",
            "type":"Services"
        }
    ],
    "sg:owner":"simplegeo",
    "sg:phone":"+1 804 340 1800",
    "sg:postcode":"23230",
    "sg:province":"VA",
    "sg:tags":[
        "tattooing"
    ],
    "src:geom":"simplegeo",
    "wof:belongsto":[],
    "wof:breaches":[],
    "wof:concordances":{
        "sg:id":"SG_196dbeKuALTR1BZ3aBSsx7_37.581754_-77.495265@1294252573"
    },
    "wof:country":"US",
    "wof:created":1461895646,
    "wof:geomhash":"2fc156d66438ea7dfd6e6d2f4bab50ab",
    "wof:hierarchy":[],
    "wof:id":723127135,
    "wof:lastmodified":1461895646,
    "wof:name":"Red Dragon Tattoo",
    "wof:parent_id":-1,
    "wof:placetype":"venue",
    "wof:superseded_by":[],
    "wof:supersedes":[],
    "wof:tags":[
        "tattooing"
    ]
},
  "bbox": [
    -77.495265,
    37.581754,
    -77.495265,
    37.581754
],
  "geometry": {"coordinates":[-77.495265,37.581754],"type":"Point"}
}