{
  "id": 723077205,
  "type": "Feature",
  "properties": {
    "edtf:cessation":"uuuu",
    "edtf:inception":"uuuu",
    "geom:area":0.0,
    "geom:bbox":"-77.861706,37.466477,-77.861706,37.466477",
    "geom:latitude":37.466477,
    "geom:longitude":-77.861706,
    "iso:country":"US",
    "sg:address":"3000 Skippers Ridge",
    "sg:city":"Powhatan",
    "sg:classifiers":[
        {
            "category":"Building & Trades",
            "subcategory":"Plumbing",
            "type":"Services"
        }
    ],
    "sg:owner":"simplegeo",
    "sg:phone":"+1 804 598 1458",
    "sg:postcode":"23139",
    "sg:province":"VA",
    "sg:tags":[
        "contractor"
    ],
    "src:geom":"simplegeo",
    "wof:belongsto":[],
    "wof:breaches":[],
    "wof:concordances":{
        "sg:id":"SG_4gSbyjVhtin6xnsE19MhLx_37.466477_-77.861706@1294252573"
    },
    "wof:country":"US",
    "wof:created":1461894626,
    "wof:geomhash":"8f1f025013279a4b90d0fd4157a00cdf",
    "wof:hierarchy":[],
    "wof:id":723077205,
    "wof:lastmodified":1461894626,
    "wof:name":"Central VA Plumbing & Heating",
    "wof:parent_id":-1,
    "wof:placetype":"venue",
    "wof:superseded_by":[],
    "wof:supersedes":[],
    "wof:tags":[
        "contractor"
    ]
},
  "bbox": [
    -77.861706,
    37.466477,
    -77.861706,
    37.466477
],
  "geometry": {"coordinates":[-77.861706,37.466477],"type":"Point"}
}