{
  "id": 722959831,
  "type": "Feature",
  "properties": {
    "edtf:cessation":"uuuu",
    "edtf:inception":"uuuu",
    "geom:area":0.0,
    "geom:bbox":"-77.348831,37.503361,-77.348831,37.503361",
    "geom:latitude":37.503361,
    "geom:longitude":-77.348831,
    "iso:country":"US",
    "sg:address":"2745 Charles City Rd",
    "sg:city":"Richmond",
    "sg:classifiers":[
        {
            "category":"Shopping",
            "subcategory":"Musical Instruments",
            "type":"Retail Goods"
        }
    ],
    "sg:owner":"simplegeo",
    "sg:phone":"+1 804 222 6711",
    "sg:postcode":"23231",
    "sg:province":"VA",
    "src:geom":"simplegeo",
    "wof:belongsto":[],
    "wof:breaches":[],
    "wof:concordances":{
        "sg:id":"SG_7Qp4eszKuqfBYung2DjyEV_37.503361_-77.348831@1294252573"
    },
    "wof:country":"US",
    "wof:created":1461892031,
    "wof:geomhash":"7c1424ade6bb8c041e516e85231c5ac1",
    "wof:hierarchy":[],
    "wof:id":722959831,
    "wof:lastmodified":1461892031,
    "wof:name":"Guitar Affects",
    "wof:parent_id":-1,
    "wof:placetype":"venue",
    "wof:superseded_by":[],
    "wof:supersedes":[],
    "wof:tags":[]
},
  "bbox": [
    -77.348831,
    37.503361,
    -77.348831,
    37.503361
],
  "geometry": {"coordinates":[-77.348831,37.503361],"type":"Point"}
}