{
  "id": 739583777,
  "type": "Feature",
  "properties": {
    "edtf:cessation":"uuuu",
    "edtf:inception":"uuuu",
    "geom:area":0.0,
    "geom:bbox":"-78.166067,39.159439,-78.166067,39.159439",
    "geom:latitude":39.159439,
    "geom:longitude":-78.166067,
    "iso:country":"US",
    "sg:address":"1850 Apple Blossom Dr",
    "sg:city":"Winchester",
    "sg:classifiers":[
        {
            "category":"Coffee & Tea",
            "subcategory":"",
            "type":"Food & Drink"
        },
        {
            "category":"Bakery",
            "subcategory":"",
            "type":"Food & Drink"
        }
    ],
    "sg:menulink":"http://www.allmenus.com/va/winchester/165097-daily-grind/menu/",
    "sg:owner":"simplegeo",
    "sg:phone":"+1 540 678 9080",
    "sg:postcode":"22601",
    "sg:province":"VA",
    "sg:tags":[
        "wrap",
        "american",
        "sandwich",
        "diner",
        "pastry"
    ],
    "src:geom":"simplegeo",
    "wof:belongsto":[],
    "wof:breaches":[],
    "wof:concordances":{
        "sg:id":"SG_5krAy9YJKKxKd6Y8Jlsyp0_39.159439_-78.166067@1299784598"
    },
    "wof:country":"US",
    "wof:created":1461910085,
    "wof:geomhash":"5506b297330ae40b102b24b48018eb44",
    "wof:hierarchy":[],
    "wof:id":739583777,
    "wof:lastmodified":1461910085,
    "wof:name":"Daily Grind",
    "wof:parent_id":-1,
    "wof:placetype":"venue",
    "wof:superseded_by":[],
    "wof:supersedes":[],
    "wof:tags":[
        "wrap",
        "american",
        "sandwich",
        "diner",
        "pastry"
    ]
},
  "bbox": [
    -78.166067,
    39.159439,
    -78.166067,
    39.159439
],
  "geometry": {"coordinates":[-78.166067,39.159439],"type":"Point"}
}