{
  "id": 722718617,
  "type": "Feature",
  "properties": {
    "edtf:cessation":"uuuu",
    "edtf:inception":"uuuu",
    "geom:area":0.0,
    "geom:bbox":"-79.957535,36.936197,-79.957535,36.936197",
    "geom:latitude":36.936197,
    "geom:longitude":-79.957535,
    "iso:country":"US",
    "sg:address":"4411 Waidsboro Rd",
    "sg:city":"Ferrum",
    "sg:classifiers":[
        {
            "category":"Organizations",
            "subcategory":"Membership Organization",
            "type":"Services"
        }
    ],
    "sg:owner":"simplegeo",
    "sg:phone":"+1 540 483 1775",
    "sg:postcode":"24088",
    "sg:province":"VA",
    "src:geom":"simplegeo",
    "wof:belongsto":[],
    "wof:breaches":[],
    "wof:concordances":{
        "sg:id":"SG_3xLUGydHJjiJHpDEkw6U5V_36.936197_-79.957535@1294252573"
    },
    "wof:country":"US",
    "wof:created":1461887316,
    "wof:geomhash":"ae0e3df3182c4618b134a8a3607daa17",
    "wof:hierarchy":[],
    "wof:id":722718617,
    "wof:lastmodified":1461887316,
    "wof:name":"Salvation Army",
    "wof:parent_id":-1,
    "wof:placetype":"venue",
    "wof:superseded_by":[],
    "wof:supersedes":[],
    "wof:tags":[]
},
  "bbox": [
    -79.957535,
    36.936197,
    -79.957535,
    36.936197
],
  "geometry": {"coordinates":[-79.95753499999999,36.936197],"type":"Point"}
}