{
  "id": 722661461,
  "type": "Feature",
  "properties": {
    "edtf:cessation":"uuuu",
    "edtf:inception":"uuuu",
    "geom:area":0.0,
    "geom:bbox":"-77.339017,38.851005,-77.339017,38.851005",
    "geom:latitude":38.851005,
    "geom:longitude":-77.339017,
    "iso:country":"US",
    "sg:address":"11334 Lee Hwy",
    "sg:city":"Fairfax",
    "sg:classifiers":[
        {
            "category":"Retail",
            "subcategory":"Auto Rental",
            "type":"Services"
        }
    ],
    "sg:owner":"simplegeo",
    "sg:phone":"+1 703 591 2242",
    "sg:postcode":"22030",
    "sg:province":"VA",
    "sg:tags":[
        "renting",
        "truck",
        "leasing"
    ],
    "src:geom":"simplegeo",
    "wof:belongsto":[],
    "wof:breaches":[],
    "wof:concordances":{
        "sg:id":"SG_24XsNIio0ALKjdNBGE6mBj_38.851005_-77.339017@1294252573"
    },
    "wof:country":"US",
    "wof:created":1461886229,
    "wof:geomhash":"4f43c4994ffee1e2e03e8421578a8507",
    "wof:hierarchy":[],
    "wof:id":722661461,
    "wof:lastmodified":1461886229,
    "wof:name":"Budget Car & Truck Rental",
    "wof:parent_id":-1,
    "wof:placetype":"venue",
    "wof:superseded_by":[],
    "wof:supersedes":[],
    "wof:tags":[
        "renting",
        "truck",
        "leasing"
    ]
},
  "bbox": [
    -77.339017,
    38.851005,
    -77.339017,
    38.851005
],
  "geometry": {"coordinates":[-77.339017,38.851005],"type":"Point"}
}