{
  "id": 722851055,
  "type": "Feature",
  "properties": {
    "edtf:cessation":"uuuu",
    "edtf:inception":"uuuu",
    "geom:area":0.0,
    "geom:bbox":"-77.645011,37.448719,-77.645011,37.448719",
    "geom:latitude":37.448719,
    "geom:longitude":-77.645011,
    "iso:country":"US",
    "sg:address":"13513 E Boundary Rd",
    "sg:city":"Midlothian",
    "sg:classifiers":[
        {
            "category":"Professional",
            "subcategory":"Advertising",
            "type":"Services"
        }
    ],
    "sg:owner":"simplegeo",
    "sg:phone":"+1 804 744 5821",
    "sg:postcode":"23112",
    "sg:province":"VA",
    "sg:tags":[
        "mail",
        "direct"
    ],
    "src:geom":"simplegeo",
    "wof:belongsto":[],
    "wof:breaches":[],
    "wof:concordances":{
        "sg:id":"SG_2gKwuJ3UK55Su3lTKFPvAW_37.448719_-77.645011@1294252573"
    },
    "wof:country":"US",
    "wof:created":1461889842,
    "wof:geomhash":"5008e87f076c389a1ccc77cc1401f98d",
    "wof:hierarchy":[],
    "wof:id":722851055,
    "wof:lastmodified":1461889842,
    "wof:name":"Collegiate Marketing Concepts",
    "wof:parent_id":-1,
    "wof:placetype":"venue",
    "wof:superseded_by":[],
    "wof:supersedes":[],
    "wof:tags":[
        "mail",
        "direct"
    ]
},
  "bbox": [
    -77.645011,
    37.448719,
    -77.645011,
    37.448719
],
  "geometry": {"coordinates":[-77.645011,37.448719],"type":"Point"}
}