{
  "id": 722665921,
  "type": "Feature",
  "properties": {
    "edtf:cessation":"uuuu",
    "edtf:inception":"uuuu",
    "geom:area":0.0,
    "geom:bbox":"-77.239315,37.235489,-77.239315,37.235489",
    "geom:latitude":37.235489,
    "geom:longitude":-77.239315,
    "iso:country":"US",
    "sg:address":"9300 Old Stage Rd",
    "sg:city":"Prince George",
    "sg:classifiers":[
        {
            "category":"Wholesale",
            "subcategory":"Construction Materials",
            "type":"Manufacturing & Wholesale Goods"
        }
    ],
    "sg:owner":"simplegeo",
    "sg:phone":"+1 804 458 0124",
    "sg:postcode":"23875",
    "sg:province":"VA",
    "sg:tags":[
        "timberland",
        "company",
        "timber"
    ],
    "src:geom":"simplegeo",
    "wof:belongsto":[],
    "wof:breaches":[],
    "wof:concordances":{
        "sg:id":"SG_6DRBkacjjUapKzCZtsuoAS_37.235489_-77.239315@1294252573"
    },
    "wof:country":"US",
    "wof:created":1461886318,
    "wof:geomhash":"9d0c49acd272f183e9ad47b131a051c5",
    "wof:hierarchy":[],
    "wof:id":722665921,
    "wof:lastmodified":1461886318,
    "wof:name":"Hopewell Hardwood Sales",
    "wof:parent_id":-1,
    "wof:placetype":"venue",
    "wof:superseded_by":[],
    "wof:supersedes":[],
    "wof:tags":[
        "timberland",
        "company",
        "timber"
    ]
},
  "bbox": [
    -77.239315,
    37.235489,
    -77.239315,
    37.235489
],
  "geometry": {"coordinates":[-77.239315,37.235489],"type":"Point"}
}