{
  "id": 739602141,
  "type": "Feature",
  "properties": {
    "edtf:cessation":"uuuu",
    "edtf:inception":"uuuu",
    "geom:area":0.0,
    "geom:bbox":"-77.519501,38.805199,-77.519501,38.805199",
    "geom:latitude":38.805199,
    "geom:longitude":-77.519501,
    "iso:country":"US",
    "sg:address":"10801 Battleview Pkwy",
    "sg:city":"Manassas",
    "sg:classifiers":[
        {
            "category":"Restaurant",
            "subcategory":"",
            "type":"Food & Drink"
        }
    ],
    "sg:owner":"simplegeo",
    "sg:phone":"+1 703 369 4641",
    "sg:postcode":"20109",
    "sg:province":"VA",
    "sg:tags":[
        "southern"
    ],
    "sg:website":"www.crackerbarrel.com",
    "src:geom":"simplegeo",
    "wof:belongsto":[],
    "wof:breaches":[],
    "wof:concordances":{
        "sg:id":"SG_4TLVkysOgNtT5KrSiczxvS_38.805199_-77.519501@1303262495"
    },
    "wof:country":"US",
    "wof:created":1461910452,
    "wof:geomhash":"62eb64ec53955fc6490989b76f14d402",
    "wof:hierarchy":[],
    "wof:id":739602141,
    "wof:lastmodified":1461910452,
    "wof:name":"Cracker Barrel Old Country Store",
    "wof:parent_id":-1,
    "wof:placetype":"venue",
    "wof:superseded_by":[],
    "wof:supersedes":[],
    "wof:tags":[
        "southern"
    ]
},
  "bbox": [
    -77.519501,
    38.805199,
    -77.519501,
    38.805199
],
  "geometry": {"coordinates":[-77.51950100000001,38.805199],"type":"Point"}
}