{
  "id": 722894747,
  "type": "Feature",
  "properties": {
    "edtf:cessation":"uuuu",
    "edtf:inception":"uuuu",
    "geom:area":0.0,
    "geom:bbox":"-77.224994,38.18518,-77.224994,38.18518",
    "geom:latitude":38.18518,
    "geom:longitude":-77.224994,
    "iso:country":"US",
    "sg:address":"24392 Hazelwood Ln",
    "sg:city":"Rappahannock Acd",
    "sg:classifiers":[
        {
            "category":"Professional",
            "subcategory":"Management & Consulting",
            "type":"Services"
        }
    ],
    "sg:owner":"simplegeo",
    "sg:phone":"+1 804 742 5780",
    "sg:postcode":"22538",
    "sg:province":"VA",
    "sg:tags":[
        "marketing",
        "program"
    ],
    "src:geom":"simplegeo",
    "wof:belongsto":[],
    "wof:breaches":[],
    "wof:concordances":{
        "sg:id":"SG_4KZSYIGJjl0odEIXalQMM9_38.185180_-77.224994@1294252573"
    },
    "wof:country":"US",
    "wof:created":1461890678,
    "wof:geomhash":"3c50318e34c4b7e631d5d5c247787827",
    "wof:hierarchy":[],
    "wof:id":722894747,
    "wof:lastmodified":1461890678,
    "wof:name":"Royal Marketing Brand LLC",
    "wof:parent_id":-1,
    "wof:placetype":"venue",
    "wof:superseded_by":[],
    "wof:supersedes":[],
    "wof:tags":[
        "marketing",
        "program"
    ]
},
  "bbox": [
    -77.224994,
    38.18518,
    -77.224994,
    38.18518
],
  "geometry": {"coordinates":[-77.224994,38.18518],"type":"Point"}
}