{
  "id": 723353861,
  "type": "Feature",
  "properties": {
    "edtf:cessation":"uuuu",
    "edtf:inception":"uuuu",
    "geom:area":0.0,
    "geom:bbox":"-77.61168,37.505061,-77.61168,37.505061",
    "geom:latitude":37.505061,
    "geom:longitude":-77.61168,
    "iso:country":"US",
    "sg:address":"11643 Midlothian Tpke",
    "sg:city":"Midlothian",
    "sg:classifiers":[
        {
            "category":"Restaurant",
            "subcategory":"",
            "type":"Food & Drink"
        }
    ],
    "sg:owner":"simplegeo",
    "sg:phone":"+1 804 378 0723",
    "sg:postcode":"23113",
    "sg:province":"VA",
    "src:geom":"simplegeo",
    "wof:belongsto":[],
    "wof:breaches":[],
    "wof:concordances":{
        "sg:id":"SG_5ki115KxcAIKdFhNSOzRZr_37.505061_-77.611680@1294252573"
    },
    "wof:country":"US",
    "wof:created":1461900069,
    "wof:geomhash":"a9297c5fd3a7404d34eaf3d140c247f2",
    "wof:hierarchy":[],
    "wof:id":723353861,
    "wof:lastmodified":1461900069,
    "wof:name":"Angelo's Italian Pizza",
    "wof:parent_id":-1,
    "wof:placetype":"venue",
    "wof:superseded_by":[],
    "wof:supersedes":[],
    "wof:tags":[]
},
  "bbox": [
    -77.61168,
    37.505061,
    -77.61168,
    37.505061
],
  "geometry": {"coordinates":[-77.61168000000001,37.505061],"type":"Point"}
}