{
  "id": 723366651,
  "type": "Feature",
  "properties": {
    "edtf:cessation":"uuuu",
    "edtf:inception":"uuuu",
    "geom:area":0.0,
    "geom:bbox":"-77.352064,37.521526,-77.352064,37.521526",
    "geom:latitude":37.521526,
    "geom:longitude":-77.352064,
    "iso:country":"US",
    "sg:address":"4796 Finlay St",
    "sg:city":"Richmond",
    "sg:classifiers":[
        {
            "category":"Health Services",
            "subcategory":"Health Practitioner",
            "type":"Services"
        }
    ],
    "sg:owner":"simplegeo",
    "sg:phone":"+1 804 226 9612",
    "sg:postcode":"23231",
    "sg:province":"VA",
    "sg:tags":[
        "therapist",
        "physical"
    ],
    "sg:website":"www.rehabilitationassociates.com",
    "src:geom":"simplegeo",
    "wof:belongsto":[],
    "wof:breaches":[],
    "wof:concordances":{
        "sg:id":"SG_1N65AatqRgj5TQp261z2hS_37.521526_-77.352064@1294252573"
    },
    "wof:country":"US",
    "wof:created":1461900316,
    "wof:geomhash":"9643c514706b9f664bf2915a10941a9f",
    "wof:hierarchy":[],
    "wof:id":723366651,
    "wof:lastmodified":1461900316,
    "wof:name":"Rehabilitation Associates PC",
    "wof:parent_id":-1,
    "wof:placetype":"venue",
    "wof:superseded_by":[],
    "wof:supersedes":[],
    "wof:tags":[
        "therapist",
        "physical"
    ]
},
  "bbox": [
    -77.352064,
    37.521526,
    -77.352064,
    37.521526
],
  "geometry": {"coordinates":[-77.352064,37.521526],"type":"Point"}
}