{
  "id": 739247523,
  "type": "Feature",
  "properties": {
    "edtf:cessation":"uuuu",
    "edtf:inception":"uuuu",
    "geom:area":0.0,
    "geom:bbox":"-77.524368,38.777235,-77.524368,38.777235",
    "geom:latitude":38.777235,
    "geom:longitude":-77.524368,
    "iso:country":"US",
    "sg:address":"10902 Pope St",
    "sg:city":"Manassas",
    "sg:classifiers":[
        {
            "category":"Utilities",
            "subcategory":"Telephone",
            "type":"Services"
        }
    ],
    "sg:owner":"simplegeo",
    "sg:phone":"+1 703 331 0975",
    "sg:postcode":"20109",
    "sg:province":"VA",
    "sg:tags":[
        "telecommunication"
    ],
    "src:geom":"simplegeo",
    "wof:belongsto":[],
    "wof:breaches":[],
    "wof:concordances":{
        "sg:id":"SG_7TkElgqGFGQls392oCeW9D_38.777235_-77.524368@1294252573"
    },
    "wof:country":"US",
    "wof:created":1461903426,
    "wof:geomhash":"314215b969e74ed601d82d667af844f4",
    "wof:hierarchy":[],
    "wof:id":739247523,
    "wof:lastmodified":1461903426,
    "wof:name":"Atgs",
    "wof:parent_id":-1,
    "wof:placetype":"venue",
    "wof:superseded_by":[],
    "wof:supersedes":[],
    "wof:tags":[
        "telecommunication"
    ]
},
  "bbox": [
    -77.524368,
    38.777235,
    -77.524368,
    38.777235
],
  "geometry": {"coordinates":[-77.524368,38.777235],"type":"Point"}
}