{
  "id": 722729849,
  "type": "Feature",
  "properties": {
    "edtf:cessation":"uuuu",
    "edtf:inception":"uuuu",
    "geom:area":0.0,
    "geom:bbox":"-76.425302,37.904087,-76.425302,37.904087",
    "geom:latitude":37.904087,
    "geom:longitude":-76.425302,
    "iso:country":"US",
    "sg:address":"9020 Northumberland Hwy",
    "sg:city":"Heathsville",
    "sg:classifiers":[
        {
            "category":"Education",
            "subcategory":"School",
            "type":"Public Place"
        }
    ],
    "sg:owner":"simplegeo",
    "sg:phone":"+1 804 580 5753",
    "sg:postcode":"22473",
    "sg:province":"VA",
    "src:geom":"simplegeo",
    "wof:belongsto":[],
    "wof:breaches":[],
    "wof:concordances":{
        "sg:id":"SG_1ekkrJieuCaUJVWYEa16HB_37.904087_-76.425302@1294252573"
    },
    "wof:country":"US",
    "wof:created":1461887523,
    "wof:geomhash":"53dd482be9ab3ff2dfa806ae1142b20f",
    "wof:hierarchy":[],
    "wof:id":722729849,
    "wof:lastmodified":1461887523,
    "wof:name":"Northumberland Middle School",
    "wof:parent_id":-1,
    "wof:placetype":"venue",
    "wof:superseded_by":[],
    "wof:supersedes":[],
    "wof:tags":[]
},
  "bbox": [
    -76.425302,
    37.904087,
    -76.425302,
    37.904087
],
  "geometry": {"coordinates":[-76.425302,37.904087],"type":"Point"}
}