{
  "id": 722938639,
  "type": "Feature",
  "properties": {
    "edtf:cessation":"uuuu",
    "edtf:inception":"uuuu",
    "geom:area":0.0,
    "geom:bbox":"-78.176733,39.150832,-78.176733,39.150832",
    "geom:latitude":39.150832,
    "geom:longitude":-78.176733,
    "iso:country":"US",
    "sg:address":"116 Bruce Dr",
    "sg:city":"Winchester",
    "sg:classifiers":[
        {
            "category":"Manufacturing",
            "subcategory":"Tools & Machinery",
            "type":"Manufacturing & Wholesale Goods"
        }
    ],
    "sg:owner":"simplegeo",
    "sg:phone":"+1 540 662 5927",
    "sg:postcode":"22601",
    "sg:province":"VA",
    "sg:tags":[
        "repair",
        "industry",
        "scale",
        "com",
        "mfg"
    ],
    "src:geom":"simplegeo",
    "wof:belongsto":[],
    "wof:breaches":[],
    "wof:concordances":{
        "sg:id":"SG_1JQ0IjP9hWsT63tIwg7UHf_39.150832_-78.176733@1294252573"
    },
    "wof:country":"US",
    "wof:created":1461891604,
    "wof:geomhash":"399aab109f8ecf01fbfcd9cd10a6a47b",
    "wof:hierarchy":[],
    "wof:id":722938639,
    "wof:lastmodified":1461891604,
    "wof:name":"MTS Equipment Co",
    "wof:parent_id":-1,
    "wof:placetype":"venue",
    "wof:superseded_by":[],
    "wof:supersedes":[],
    "wof:tags":[
        "repair",
        "industry",
        "scale",
        "com",
        "mfg"
    ]
},
  "bbox": [
    -78.176733,
    39.150832,
    -78.176733,
    39.150832
],
  "geometry": {"coordinates":[-78.176733,39.150832],"type":"Point"}
}