{
  "id": 723131205,
  "type": "Feature",
  "properties": {
    "edtf:cessation":"uuuu",
    "edtf:inception":"uuuu",
    "geom:area":0.0,
    "geom:bbox":"-78.579093,36.967353,-78.579093,36.967353",
    "geom:latitude":36.967353,
    "geom:longitude":-78.579093,
    "iso:country":"US",
    "sg:address":"7170 Craftons Gate Hwy",
    "sg:city":"Drakes Branch",
    "sg:classifiers":[
        {
            "category":"Food & Beverages",
            "subcategory":"Groceries & Convenience Stores",
            "type":"Retail Goods"
        }
    ],
    "sg:owner":"simplegeo",
    "sg:phone":"+1 434 568 5403",
    "sg:postcode":"23937",
    "sg:province":"VA",
    "sg:tags":[
        "grocer"
    ],
    "src:geom":"simplegeo",
    "wof:belongsto":[],
    "wof:breaches":[],
    "wof:concordances":{
        "sg:id":"SG_2wHQRENlqB0RSEXSg29fRH_36.967353_-78.579093@1294252573"
    },
    "wof:country":"US",
    "wof:created":1461895722,
    "wof:geomhash":"1e13ec39ae0405bbff9bf4d1cf297c23",
    "wof:hierarchy":[],
    "wof:id":723131205,
    "wof:lastmodified":1461895722,
    "wof:name":"T & V Mart",
    "wof:parent_id":-1,
    "wof:placetype":"venue",
    "wof:superseded_by":[],
    "wof:supersedes":[],
    "wof:tags":[
        "grocer"
    ]
},
  "bbox": [
    -78.579093,
    36.967353,
    -78.579093,
    36.967353
],
  "geometry": {"coordinates":[-78.579093,36.967353],"type":"Point"}
}