{
  "id": 722792111,
  "type": "Feature",
  "properties": {
    "edtf:cessation":"uuuu",
    "edtf:inception":"uuuu",
    "geom:area":0.0,
    "geom:bbox":"-77.493017,38.787108,-77.493017,38.787108",
    "geom:latitude":38.787108,
    "geom:longitude":-77.493017,
    "iso:country":"US",
    "sg:address":"9700 King George Dr",
    "sg:city":"Manassas",
    "sg:classifiers":[
        {
            "category":"Building & Trades",
            "subcategory":"Construction",
            "type":"Services"
        }
    ],
    "sg:owner":"simplegeo",
    "sg:phone":"+1 703 330 8699",
    "sg:postcode":"20109",
    "sg:province":"VA",
    "sg:tags":[
        "painter"
    ],
    "src:geom":"simplegeo",
    "wof:belongsto":[],
    "wof:breaches":[],
    "wof:concordances":{
        "sg:id":"SG_0wabJZw2O0dBWMGLsw7dec_38.787108_-77.493017@1294252573"
    },
    "wof:country":"US",
    "wof:created":1461888732,
    "wof:geomhash":"92efdeacc25bf38ae8cdfa303d5e4fee",
    "wof:hierarchy":[],
    "wof:id":722792111,
    "wof:lastmodified":1461888732,
    "wof:name":"Solises Painting",
    "wof:parent_id":-1,
    "wof:placetype":"venue",
    "wof:superseded_by":[],
    "wof:supersedes":[],
    "wof:tags":[
        "painter"
    ]
},
  "bbox": [
    -77.493017,
    38.787108,
    -77.493017,
    38.787108
],
  "geometry": {"coordinates":[-77.49301699999999,38.787108],"type":"Point"}
}