{
  "id": 739360597,
  "type": "Feature",
  "properties": {
    "edtf:cessation":"uuuu",
    "edtf:inception":"uuuu",
    "geom:area":0.0,
    "geom:bbox":"-78.387878,36.670983,-78.387878,36.670983",
    "geom:latitude":36.670983,
    "geom:longitude":-78.387878,
    "iso:country":"US",
    "sg:address":"626 Washington St",
    "sg:city":"Boydton",
    "sg:classifiers":[
        {
            "category":"Personal",
            "subcategory":"",
            "type":"Services"
        }
    ],
    "sg:owner":"simplegeo",
    "sg:phone":"+1 434 738 0081",
    "sg:postcode":"23917",
    "sg:province":"VA",
    "sg:tags":[
        "home",
        "improvement",
        "contractor"
    ],
    "src:geom":"simplegeo",
    "wof:belongsto":[],
    "wof:breaches":[],
    "wof:concordances":{
        "sg:id":"SG_4zoOklQoNM8TtNel9FooCl_36.670983_-78.387878@1294252573"
    },
    "wof:country":"US",
    "wof:created":1461905826,
    "wof:geomhash":"a5440244fe682841cbbdc64dabc4d350",
    "wof:hierarchy":[],
    "wof:id":739360597,
    "wof:lastmodified":1461905826,
    "wof:name":"Handy Tax",
    "wof:parent_id":-1,
    "wof:placetype":"venue",
    "wof:superseded_by":[],
    "wof:supersedes":[],
    "wof:tags":[
        "home",
        "improvement",
        "contractor"
    ]
},
  "bbox": [
    -78.387878,
    36.670983,
    -78.387878,
    36.670983
],
  "geometry": {"coordinates":[-78.387878,36.670983],"type":"Point"}
}