{
  "id": 723127143,
  "type": "Feature",
  "properties": {
    "edtf:cessation":"uuuu",
    "edtf:inception":"uuuu",
    "geom:area":0.0,
    "geom:bbox":"-77.308977,38.722226,-77.308977,38.722226",
    "geom:latitude":38.722226,
    "geom:longitude":-77.308977,
    "iso:country":"US",
    "sg:address":"10504 Beaver Pond Ct",
    "sg:city":"Fairfax Station",
    "sg:classifiers":[
        {
            "category":"Professional",
            "subcategory":"",
            "type":"Services"
        }
    ],
    "sg:owner":"simplegeo",
    "sg:phone":"+1 703 250 0139",
    "sg:postcode":"22039",
    "sg:province":"VA",
    "src:geom":"simplegeo",
    "wof:belongsto":[],
    "wof:breaches":[],
    "wof:concordances":{
        "sg:id":"SG_2nroeLUC7oTyrGp1sSNKut_38.722226_-77.308977@1294252573"
    },
    "wof:country":"US",
    "wof:created":1461895647,
    "wof:geomhash":"984c934dbf9c3b1935250be0e3e96114",
    "wof:hierarchy":[],
    "wof:id":723127143,
    "wof:lastmodified":1461895647,
    "wof:name":"Carbill Inc",
    "wof:parent_id":-1,
    "wof:placetype":"venue",
    "wof:superseded_by":[],
    "wof:supersedes":[],
    "wof:tags":[]
},
  "bbox": [
    -77.308977,
    38.722226,
    -77.308977,
    38.722226
],
  "geometry": {"coordinates":[-77.308977,38.722226],"type":"Point"}
}