{
  "id": 739710643,
  "type": "Feature",
  "properties": {
    "edtf:cessation":"uuuu",
    "edtf:inception":"uuuu",
    "geom:area":0.0,
    "geom:bbox":"-77.606392,37.52507,-77.606392,37.52507",
    "geom:latitude":37.52507,
    "geom:longitude":-77.606392,
    "iso:country":"US",
    "sg:address":"11300 Polo Pl",
    "sg:city":"Midlothian",
    "sg:classifiers":[
        {
            "category":"Real Estate",
            "subcategory":"Developer",
            "type":"Services"
        }
    ],
    "sg:owner":"simplegeo",
    "sg:phone":"+1 804 378 1405",
    "sg:postcode":"23113",
    "sg:province":"VA",
    "sg:tags":[
        "investing"
    ],
    "src:geom":"simplegeo",
    "wof:belongsto":[],
    "wof:breaches":[],
    "wof:concordances":{
        "sg:id":"SG_7GYxMxlx8pTl4CGgvEJfdJ_37.525070_-77.606392@1303262549"
    },
    "wof:country":"US",
    "wof:created":1461912796,
    "wof:geomhash":"af4696fcc6e9ccd421aa4656be9e999e",
    "wof:hierarchy":[],
    "wof:id":739710643,
    "wof:lastmodified":1461912796,
    "wof:name":"J F James",
    "wof:parent_id":-1,
    "wof:placetype":"venue",
    "wof:superseded_by":[],
    "wof:supersedes":[],
    "wof:tags":[
        "investing"
    ]
},
  "bbox": [
    -77.606392,
    37.52507,
    -77.606392,
    37.52507
],
  "geometry": {"coordinates":[-77.606392,37.52507],"type":"Point"}
}