{
  "id": 722660987,
  "type": "Feature",
  "properties": {
    "edtf:cessation":"uuuu",
    "edtf:inception":"uuuu",
    "geom:area":0.0,
    "geom:bbox":"-77.561476,37.66363,-77.561476,37.66363",
    "geom:latitude":37.66363,
    "geom:longitude":-77.561476,
    "iso:country":"US",
    "sg:address":"9745 Fireside Dr",
    "sg:city":"Glen Allen",
    "sg:classifiers":[
        {
            "category":"Organizations",
            "subcategory":"Religious Organization",
            "type":"Services"
        }
    ],
    "sg:owner":"simplegeo",
    "sg:phone":"+1 804 273 6001",
    "sg:postcode":"23060",
    "sg:province":"VA",
    "sg:tags":[
        "church"
    ],
    "sg:website":"www.casualchurch.com",
    "src:geom":"simplegeo",
    "wof:belongsto":[],
    "wof:breaches":[],
    "wof:concordances":{
        "sg:id":"SG_3BLoYyvjo90Ptp9nCtVtSY_37.663630_-77.561476@1294252573"
    },
    "wof:country":"US",
    "wof:created":1461886220,
    "wof:geomhash":"1b23c64dd4ac624ef0f2e7526bb37a40",
    "wof:hierarchy":[],
    "wof:id":722660987,
    "wof:lastmodified":1461886220,
    "wof:name":"Crossroads Christian Church",
    "wof:parent_id":-1,
    "wof:placetype":"venue",
    "wof:superseded_by":[],
    "wof:supersedes":[],
    "wof:tags":[
        "church"
    ]
},
  "bbox": [
    -77.561476,
    37.66363,
    -77.561476,
    37.66363
],
  "geometry": {"coordinates":[-77.561476,37.66363],"type":"Point"}
}