{
  "id": 722983111,
  "type": "Feature",
  "properties": {
    "edtf:cessation":"uuuu",
    "edtf:inception":"uuuu",
    "geom:area":0.0,
    "geom:bbox":"-79.304366,37.370619,-79.304366,37.370619",
    "geom:latitude":37.370619,
    "geom:longitude":-79.304366,
    "iso:country":"US",
    "sg:address":"14417 Forest Rd",
    "sg:city":"Forest",
    "sg:classifiers":[
        {
            "category":"Banks & Credit Unions",
            "subcategory":"Bank",
            "type":"Services"
        }
    ],
    "sg:owner":"simplegeo",
    "sg:phone":"+1 434 534 0451",
    "sg:postcode":"24551",
    "sg:province":"VA",
    "src:geom":"simplegeo",
    "wof:belongsto":[],
    "wof:breaches":[],
    "wof:concordances":{
        "sg:id":"SG_3UKzeu1meG5VVjXNwHNe4r_37.370619_-79.304366@1294252573"
    },
    "wof:country":"US",
    "wof:created":1461892516,
    "wof:geomhash":"8a94b3ed579d0db5be75179676bfbd53",
    "wof:hierarchy":[],
    "wof:id":722983111,
    "wof:lastmodified":1461892516,
    "wof:name":"First National Bank-Altavista",
    "wof:parent_id":-1,
    "wof:placetype":"venue",
    "wof:superseded_by":[],
    "wof:supersedes":[],
    "wof:tags":[]
},
  "bbox": [
    -79.304366,
    37.370619,
    -79.304366,
    37.370619
],
  "geometry": {"coordinates":[-79.304366,37.370619],"type":"Point"}
}