{
  "id": 722748335,
  "type": "Feature",
  "properties": {
    "edtf:cessation":"uuuu",
    "edtf:inception":"uuuu",
    "geom:area":0.0,
    "geom:bbox":"-76.530462,37.368957,-76.530462,37.368957",
    "geom:latitude":37.368957,
    "geom:longitude":-76.530462,
    "iso:country":"US",
    "sg:address":"6105 George Washington Memorial Hwy",
    "sg:city":"Zanoni",
    "sg:classifiers":[
        {
            "category":"Shopping",
            "subcategory":"",
            "type":"Retail Goods"
        }
    ],
    "sg:owner":"simplegeo",
    "sg:phone":"+1 804 695 1199",
    "sg:postcode":"23061",
    "sg:province":"VA",
    "sg:tags":[
        "hearing",
        "equipment",
        "supply",
        "impaired"
    ],
    "src:geom":"simplegeo",
    "wof:belongsto":[],
    "wof:breaches":[],
    "wof:concordances":{
        "sg:id":"SG_7KR7oZPZmhRjp0zhEmMPjl_37.368957_-76.530462@1294252573"
    },
    "wof:country":"US",
    "wof:created":1461887909,
    "wof:geomhash":"5737abf972f64594e44b8f76bdfa7a1f",
    "wof:hierarchy":[],
    "wof:id":722748335,
    "wof:lastmodified":1461887909,
    "wof:name":"Audiology Offices",
    "wof:parent_id":-1,
    "wof:placetype":"venue",
    "wof:superseded_by":[],
    "wof:supersedes":[],
    "wof:tags":[
        "hearing",
        "equipment",
        "supply",
        "impaired"
    ]
},
  "bbox": [
    -76.530462,
    37.368957,
    -76.530462,
    37.368957
],
  "geometry": {"coordinates":[-76.530462,37.368957],"type":"Point"}
}