{
  "id": 723136061,
  "type": "Feature",
  "properties": {
    "edtf:cessation":"uuuu",
    "edtf:inception":"uuuu",
    "geom:area":0.0,
    "geom:bbox":"-77.608925,37.463005,-77.608925,37.463005",
    "geom:latitude":37.463005,
    "geom:longitude":-77.608925,
    "iso:country":"US",
    "sg:address":"2912 Providence Creek Rd",
    "sg:city":"Richmond",
    "sg:classifiers":[
        {
            "category":"Banks & Credit Unions",
            "subcategory":"Bank",
            "type":"Services"
        }
    ],
    "sg:owner":"simplegeo",
    "sg:phone":"+1 804 276 1856",
    "sg:postcode":"23236",
    "sg:province":"VA",
    "src:geom":"simplegeo",
    "wof:belongsto":[],
    "wof:breaches":[],
    "wof:concordances":{
        "sg:id":"SG_4BXnOYUxBEg4wXId9RMwbO_37.463005_-77.608925@1294252573"
    },
    "wof:country":"US",
    "wof:created":1461895811,
    "wof:geomhash":"5e152ae5276d6798392386e55ed89e1f",
    "wof:hierarchy":[],
    "wof:id":723136061,
    "wof:lastmodified":1461895811,
    "wof:name":"Franklin Bank Ssb",
    "wof:parent_id":-1,
    "wof:placetype":"venue",
    "wof:superseded_by":[],
    "wof:supersedes":[],
    "wof:tags":[]
},
  "bbox": [
    -77.608925,
    37.463005,
    -77.608925,
    37.463005
],
  "geometry": {"coordinates":[-77.608925,37.463005],"type":"Point"}
}