{
  "id": 723419205,
  "type": "Feature",
  "properties": {
    "edtf:cessation":"uuuu",
    "edtf:inception":"uuuu",
    "geom:area":0.0,
    "geom:bbox":"-78.137452,39.163337,-78.137452,39.163337",
    "geom:latitude":39.163337,
    "geom:longitude":-78.137452,
    "iso:country":"US",
    "sg:address":"213 Fairfield Dr",
    "sg:city":"Winchester",
    "sg:classifiers":[
        {
            "category":"Organizations",
            "subcategory":"Labor Organization",
            "type":"Services"
        }
    ],
    "sg:owner":"simplegeo",
    "sg:phone":"+1 540 542 6161",
    "sg:postcode":"22602",
    "sg:province":"VA",
    "src:geom":"simplegeo",
    "wof:belongsto":[],
    "wof:breaches":[],
    "wof:concordances":{
        "sg:id":"SG_6naOaDA3ucJmObKrCSxBCF_39.163337_-78.137452@1294252573"
    },
    "wof:country":"US",
    "wof:created":1461901344,
    "wof:geomhash":"692d5b421a60300902fb859bf9ca6be7",
    "wof:hierarchy":[],
    "wof:id":723419205,
    "wof:lastmodified":1461901344,
    "wof:name":"Fulton Enterprises Lc",
    "wof:parent_id":-1,
    "wof:placetype":"venue",
    "wof:superseded_by":[],
    "wof:supersedes":[],
    "wof:tags":[]
},
  "bbox": [
    -78.137452,
    39.163337,
    -78.137452,
    39.163337
],
  "geometry": {"coordinates":[-78.137452,39.163337],"type":"Point"}
}