{
  "id": 722823601,
  "type": "Feature",
  "properties": {
    "edtf:cessation":"uuuu",
    "edtf:inception":"uuuu",
    "geom:area":0.0,
    "geom:bbox":"-77.41492,38.737677,-77.41492,38.737677",
    "geom:latitude":38.737677,
    "geom:longitude":-77.41492,
    "iso:country":"US",
    "sg:address":"10270 Greystone Rd",
    "sg:city":"Manassas",
    "sg:classifiers":[
        {
            "category":"Professional",
            "subcategory":"Computer Services",
            "type":"Services"
        }
    ],
    "sg:owner":"simplegeo",
    "sg:phone":"+1 703 393 8143",
    "sg:postcode":"20111",
    "sg:province":"VA",
    "sg:tags":[
        "related",
        "software"
    ],
    "src:geom":"simplegeo",
    "wof:belongsto":[],
    "wof:breaches":[],
    "wof:concordances":{
        "sg:id":"SG_1XTtnWPisHI2RD5RK5bn8w_38.737677_-77.414920@1294252573"
    },
    "wof:country":"US",
    "wof:created":1461889329,
    "wof:geomhash":"660321eee39c32a3eab7eccbf819dd0d",
    "wof:hierarchy":[],
    "wof:id":722823601,
    "wof:lastmodified":1461889329,
    "wof:name":"Immusys LLC",
    "wof:parent_id":-1,
    "wof:placetype":"venue",
    "wof:superseded_by":[],
    "wof:supersedes":[],
    "wof:tags":[
        "related",
        "software"
    ]
},
  "bbox": [
    -77.41492,
    38.737677,
    -77.41492,
    38.737677
],
  "geometry": {"coordinates":[-77.41492,38.737677],"type":"Point"}
}