{
  "id": 739300643,
  "type": "Feature",
  "properties": {
    "edtf:cessation":"uuuu",
    "edtf:inception":"uuuu",
    "geom:area":0.0,
    "geom:bbox":"-77.359178,37.514518,-77.359178,37.514518",
    "geom:latitude":37.514518,
    "geom:longitude":-77.359178,
    "iso:country":"US",
    "sg:address":"4329 Eubank Rd",
    "sg:city":"Richmond",
    "sg:classifiers":[
        {
            "category":"Manufacturing",
            "subcategory":"Chemicals & Compounds",
            "type":"Manufacturing & Wholesale Goods"
        }
    ],
    "sg:owner":"simplegeo",
    "sg:phone":"+1 804 236 8100",
    "sg:postcode":"23231",
    "sg:province":"VA",
    "sg:tags":[
        "lithographing",
        "ink"
    ],
    "sg:website":"www.jmfryinks.com",
    "src:geom":"simplegeo",
    "wof:belongsto":[],
    "wof:breaches":[],
    "wof:concordances":{
        "sg:id":"SG_2Bm7bw0mgKSjMY6uTvN6h5_37.514518_-77.359178@1294252573"
    },
    "wof:country":"US",
    "wof:created":1461904592,
    "wof:geomhash":"6ffd1ab13090d68bbaea8fcf52f97367",
    "wof:hierarchy":[],
    "wof:id":739300643,
    "wof:lastmodified":1461904592,
    "wof:name":"J M Fry Co",
    "wof:parent_id":-1,
    "wof:placetype":"venue",
    "wof:superseded_by":[],
    "wof:supersedes":[],
    "wof:tags":[
        "lithographing",
        "ink"
    ]
},
  "bbox": [
    -77.359178,
    37.514518,
    -77.359178,
    37.514518
],
  "geometry": {"coordinates":[-77.359178,37.514518],"type":"Point"}
}