{
  "id": 723003775,
  "type": "Feature",
  "properties": {
    "edtf:cessation":"uuuu",
    "edtf:inception":"uuuu",
    "geom:area":0.0,
    "geom:bbox":"-77.064771,38.825776,-77.064771,38.825776",
    "geom:latitude":38.825776,
    "geom:longitude":-77.064771,
    "iso:country":"US",
    "sg:address":"25 Rosecrest Ave",
    "sg:city":"Alexandria",
    "sg:classifiers":[
        {
            "category":"Building & Trades",
            "subcategory":"Construction",
            "type":"Services"
        }
    ],
    "sg:owner":"simplegeo",
    "sg:phone":"+1 703 549 1543",
    "sg:postcode":"22301",
    "sg:province":"VA",
    "sg:tags":[
        "house"
    ],
    "src:geom":"simplegeo",
    "wof:belongsto":[
        85688747,
        102191575,
        85633793,
        101728581,
        102080641,
        85814135
    ],
    "wof:breaches":[],
    "wof:concordances":{
        "sg:id":"SG_32jwEe60NyB8KvHhgTZUv3_38.825776_-77.064771@1294252573"
    },
    "wof:country":"US",
    "wof:created":1461893015,
    "wof:geomhash":"c68a8bbde0f05d9c3aa8e899c2160de4",
    "wof:hierarchy":[
        {
            "continent_id":102191575,
            "country_id":85633793,
            "county_id":102080641,
            "locality_id":101728581,
            "neighbourhood_id":85814135,
            "region_id":85688747,
            "venue_id":723003775
        }
    ],
    "wof:id":723003775,
    "wof:lastmodified":1461893015,
    "wof:name":"Robert T Mannel Custom Bldg",
    "wof:parent_id":85814135,
    "wof:placetype":"venue",
    "wof:superseded_by":[],
    "wof:supersedes":[],
    "wof:tags":[
        "house"
    ]
},
  "bbox": [
    -77.064771,
    38.825776,
    -77.064771,
    38.825776
],
  "geometry": {"coordinates":[-77.06477099999999,38.825776],"type":"Point"}
}