{
  "id": 722644033,
  "type": "Feature",
  "properties": {
    "edtf:cessation":"uuuu",
    "edtf:inception":"uuuu",
    "geom:area":0.0,
    "geom:bbox":"-77.52122,39.020006,-77.52122,39.020006",
    "geom:latitude":39.020006,
    "geom:longitude":-77.52122,
    "iso:country":"US",
    "sg:address":"42786 Oatyer Ct",
    "sg:city":"Ashburn",
    "sg:classifiers":[
        {
            "category":"Professional",
            "subcategory":"",
            "type":"Services"
        }
    ],
    "sg:owner":"simplegeo",
    "sg:phone":"+1 703 729 6085",
    "sg:postcode":"20148",
    "sg:province":"VA",
    "sg:tags":[
        "establishment"
    ],
    "sg:website":"www.rbechtold.com",
    "src:geom":"simplegeo",
    "wof:belongsto":[],
    "wof:breaches":[],
    "wof:concordances":{
        "sg:id":"SG_32qqImCtsstprIX8aOSmYY_39.020006_-77.521220@1294252573"
    },
    "wof:country":"US",
    "wof:created":1461885911,
    "wof:geomhash":"96e2e32419a83a12b68e3a0849b382f4",
    "wof:hierarchy":[],
    "wof:id":722644033,
    "wof:lastmodified":1461885911,
    "wof:name":"Abridge Technology",
    "wof:parent_id":-1,
    "wof:placetype":"venue",
    "wof:superseded_by":[],
    "wof:supersedes":[],
    "wof:tags":[
        "establishment"
    ]
},
  "bbox": [
    -77.52122,
    39.020006,
    -77.52122,
    39.020006
],
  "geometry": {"coordinates":[-77.52122,39.020006],"type":"Point"}
}