{
  "id": 723145345,
  "type": "Feature",
  "properties": {
    "edtf:cessation":"uuuu",
    "edtf:inception":"uuuu",
    "geom:area":0.0,
    "geom:bbox":"-76.327878,37.05651,-76.327878,37.05651",
    "geom:latitude":37.05651,
    "geom:longitude":-76.327878,
    "iso:country":"US",
    "sg:address":"227 Fox Hill Rd",
    "sg:city":"Hampton",
    "sg:classifiers":[
        {
            "category":"Shopping",
            "subcategory":"Gifts & Souvenirs",
            "type":"Retail Goods"
        }
    ],
    "sg:owner":"simplegeo",
    "sg:phone":"+1 757 220 6772",
    "sg:postcode":"23669",
    "sg:province":"VA",
    "src:geom":"simplegeo",
    "wof:belongsto":[],
    "wof:breaches":[],
    "wof:concordances":{
        "sg:id":"SG_37aBgICUq27Q6gaNbNivIY_37.056510_-76.327878@1294252573"
    },
    "wof:country":"US",
    "wof:created":1461896000,
    "wof:geomhash":"6fab43a7d2babd9d7636f4f06be5355b",
    "wof:hierarchy":[],
    "wof:id":723145345,
    "wof:lastmodified":1461896000,
    "wof:name":"Administration Office",
    "wof:parent_id":-1,
    "wof:placetype":"venue",
    "wof:superseded_by":[],
    "wof:supersedes":[],
    "wof:tags":[]
},
  "bbox": [
    -76.327878,
    37.05651,
    -76.327878,
    37.05651
],
  "geometry": {"coordinates":[-76.327878,37.05651],"type":"Point"}
}