{
  "id": 722705729,
  "type": "Feature",
  "properties": {
    "edtf:cessation":"uuuu",
    "edtf:inception":"uuuu",
    "geom:area":0.0,
    "geom:bbox":"-76.504743,37.519368,-76.504743,37.519368",
    "geom:latitude":37.519368,
    "geom:longitude":-76.504743,
    "iso:country":"US",
    "sg:address":"12404 Harcum Rd",
    "sg:city":"Gloucester",
    "sg:classifiers":[
        {
            "category":"Building & Trades",
            "subcategory":"Construction",
            "type":"Services"
        }
    ],
    "sg:owner":"simplegeo",
    "sg:phone":"+1 804 694 8169",
    "sg:postcode":"23061",
    "sg:province":"VA",
    "sg:tags":[
        "house"
    ],
    "src:geom":"simplegeo",
    "wof:belongsto":[],
    "wof:breaches":[],
    "wof:concordances":{
        "sg:id":"SG_4jJsI9oAP9CaB2K6aSfQaT_37.519368_-76.504743@1294252573"
    },
    "wof:country":"US",
    "wof:created":1461887073,
    "wof:geomhash":"7376bde187e9c78fccd23444986cdbb0",
    "wof:hierarchy":[],
    "wof:id":722705729,
    "wof:lastmodified":1461887073,
    "wof:name":"R P Shannahan/Son",
    "wof:parent_id":-1,
    "wof:placetype":"venue",
    "wof:superseded_by":[],
    "wof:supersedes":[],
    "wof:tags":[
        "house"
    ]
},
  "bbox": [
    -76.504743,
    37.519368,
    -76.504743,
    37.519368
],
  "geometry": {"coordinates":[-76.504743,37.519368],"type":"Point"}
}