{
  "id": 722682869,
  "type": "Feature",
  "properties": {
    "edtf:cessation":"uuuu",
    "edtf:inception":"uuuu",
    "geom:area":0.0,
    "geom:bbox":"-78.048344,37.562238,-78.048344,37.562238",
    "geom:latitude":37.562238,
    "geom:longitude":-78.048344,
    "iso:country":"US",
    "sg:address":"5631 Anderson Hwy",
    "sg:city":"Powhatan",
    "sg:classifiers":[
        {
            "category":"Government",
            "subcategory":"Fire Station",
            "type":"Public Place"
        }
    ],
    "sg:owner":"simplegeo",
    "sg:phone":"+1 804 598 4519",
    "sg:postcode":"23139",
    "sg:province":"VA",
    "sg:tags":[
        "protection"
    ],
    "src:geom":"simplegeo",
    "wof:belongsto":[],
    "wof:breaches":[],
    "wof:concordances":{
        "sg:id":"SG_4OjFMfOuwaQP5gxaUplAjF_37.562238_-78.048344@1294252573"
    },
    "wof:country":"US",
    "wof:created":1461886640,
    "wof:geomhash":"d77808e2208b6e4708b2a7cea5b7a114",
    "wof:hierarchy":[],
    "wof:id":722682869,
    "wof:lastmodified":1461886640,
    "wof:name":"Deep Creek Volunteer Fire Dept",
    "wof:parent_id":-1,
    "wof:placetype":"venue",
    "wof:superseded_by":[],
    "wof:supersedes":[],
    "wof:tags":[
        "protection"
    ]
},
  "bbox": [
    -78.048344,
    37.562238,
    -78.048344,
    37.562238
],
  "geometry": {"coordinates":[-78.048344,37.562238],"type":"Point"}
}