{
  "id": 739325245,
  "type": "Feature",
  "properties": {
    "edtf:cessation":"uuuu",
    "edtf:inception":"uuuu",
    "geom:area":0.0,
    "geom:bbox":"-77.561748,38.26199,-77.561748,38.26199",
    "geom:latitude":38.26199,
    "geom:longitude":-77.561748,
    "iso:country":"US",
    "sg:address":"11300 Fisher Creek Dr",
    "sg:city":"Fredericksburg",
    "sg:classifiers":[
        {
            "category":"Building & Trades",
            "subcategory":"Construction",
            "type":"Services"
        }
    ],
    "sg:owner":"simplegeo",
    "sg:phone":"+1 540 786 6880",
    "sg:postcode":"22407",
    "sg:province":"VA",
    "sg:tags":[
        "contractor"
    ],
    "src:geom":"simplegeo",
    "wof:belongsto":[],
    "wof:breaches":[],
    "wof:concordances":{
        "sg:id":"SG_1sMqBsMI3qsfQUZdc4tlyY_38.261990_-77.561748@1294252573"
    },
    "wof:country":"US",
    "wof:created":1461905084,
    "wof:geomhash":"c937830bb727dc81b81102cffb3a92b3",
    "wof:hierarchy":[],
    "wof:id":739325245,
    "wof:lastmodified":1461905084,
    "wof:name":"Fisher Building Co",
    "wof:parent_id":-1,
    "wof:placetype":"venue",
    "wof:superseded_by":[],
    "wof:supersedes":[],
    "wof:tags":[
        "contractor"
    ]
},
  "bbox": [
    -77.561748,
    38.26199,
    -77.561748,
    38.26199
],
  "geometry": {"coordinates":[-77.56174799999999,38.26199],"type":"Point"}
}