{
  "id": 739345251,
  "type": "Feature",
  "properties": {
    "edtf:cessation":"uuuu",
    "edtf:inception":"uuuu",
    "geom:area":0.0,
    "geom:bbox":"-77.511885,38.283256,-77.511885,38.283256",
    "geom:latitude":38.283256,
    "geom:longitude":-77.511885,
    "iso:country":"US",
    "sg:address":"11925 Burgess Ln",
    "sg:city":"Fredericksburg",
    "sg:classifiers":[
        {
            "category":"Organizations",
            "subcategory":"Religious Organization",
            "type":"Services"
        }
    ],
    "sg:owner":"simplegeo",
    "sg:phone":"+1 540 786 4848",
    "sg:postcode":"22407",
    "sg:province":"VA",
    "sg:tags":[
        "church"
    ],
    "sg:website":"www.nlicc.org",
    "src:geom":"simplegeo",
    "wof:belongsto":[],
    "wof:breaches":[],
    "wof:concordances":{
        "sg:id":"SG_1iItw8pFd8el2G5SxRL16T_38.283256_-77.511885@1294252573"
    },
    "wof:country":"US",
    "wof:created":1461905506,
    "wof:geomhash":"90f743d6558e679acdfe2e53acf9fd55",
    "wof:hierarchy":[],
    "wof:id":739345251,
    "wof:lastmodified":1461905506,
    "wof:name":"New Life In Christ Church",
    "wof:parent_id":-1,
    "wof:placetype":"venue",
    "wof:superseded_by":[],
    "wof:supersedes":[],
    "wof:tags":[
        "church"
    ]
},
  "bbox": [
    -77.511885,
    38.283256,
    -77.511885,
    38.283256
],
  "geometry": {"coordinates":[-77.51188500000001,38.283256],"type":"Point"}
}