{
  "id": 739408161,
  "type": "Feature",
  "properties": {
    "edtf:cessation":"uuuu",
    "edtf:inception":"uuuu",
    "geom:area":0.0,
    "geom:bbox":"-77.329486,37.60341,-77.329486,37.60341",
    "geom:latitude":37.60341,
    "geom:longitude":-77.329486,
    "iso:country":"US",
    "sg:address":"7252 Bluebird Way",
    "sg:city":"Mechanicsville",
    "sg:classifiers":[
        {
            "category":"Building & Trades",
            "subcategory":"Construction",
            "type":"Services"
        }
    ],
    "sg:owner":"simplegeo",
    "sg:phone":"+1 804 746 5800",
    "sg:postcode":"23111",
    "sg:province":"VA",
    "sg:tags":[
        "house"
    ],
    "src:geom":"simplegeo",
    "wof:belongsto":[],
    "wof:breaches":[],
    "wof:concordances":{
        "sg:id":"SG_4OQSLahHvkS1JyzIT3ci5T_37.603410_-77.329486@1294252573"
    },
    "wof:country":"US",
    "wof:created":1461906736,
    "wof:geomhash":"37e1a846e6dcb4cdb0f4857e484541e6",
    "wof:hierarchy":[],
    "wof:id":739408161,
    "wof:lastmodified":1461906736,
    "wof:name":"Wilson Construction",
    "wof:parent_id":-1,
    "wof:placetype":"venue",
    "wof:superseded_by":[],
    "wof:supersedes":[],
    "wof:tags":[
        "house"
    ]
},
  "bbox": [
    -77.329486,
    37.60341,
    -77.329486,
    37.60341
],
  "geometry": {"coordinates":[-77.329486,37.60341],"type":"Point"}
}