{
  "id": 723314189,
  "type": "Feature",
  "properties": {
    "edtf:cessation":"uuuu",
    "edtf:inception":"uuuu",
    "geom:area":0.0,
    "geom:bbox":"-77.565044,39.114149,-77.565044,39.114149",
    "geom:latitude":39.114149,
    "geom:longitude":-77.565044,
    "iso:country":"US",
    "sg:address":"7 Loudoun St SE",
    "sg:city":"Leesburg",
    "sg:classifiers":[
        {
            "category":"Real Estate",
            "subcategory":"Real Estate Services",
            "type":"Services"
        }
    ],
    "sg:owner":"simplegeo",
    "sg:phone":"+1 703 771 7638",
    "sg:postcode":"20175",
    "sg:province":"VA",
    "sg:tags":[
        "company",
        "title"
    ],
    "src:geom":"simplegeo",
    "wof:belongsto":[],
    "wof:breaches":[],
    "wof:concordances":{
        "sg:id":"SG_1Z0AVNfl9pu9XXtINv7hh9_39.114149_-77.565044@1294252573"
    },
    "wof:country":"US",
    "wof:created":1461899339,
    "wof:geomhash":"fb2eeceaae285a88072e2728b5940bfb",
    "wof:hierarchy":[],
    "wof:id":723314189,
    "wof:lastmodified":1461899339,
    "wof:name":"Breen Titles",
    "wof:parent_id":-1,
    "wof:placetype":"venue",
    "wof:superseded_by":[],
    "wof:supersedes":[],
    "wof:tags":[
        "company",
        "title"
    ]
},
  "bbox": [
    -77.565044,
    39.114149,
    -77.565044,
    39.114149
],
  "geometry": {"coordinates":[-77.565044,39.114149],"type":"Point"}
}