{
  "id": 722660879,
  "type": "Feature",
  "properties": {
    "edtf:cessation":"uuuu",
    "edtf:inception":"uuuu",
    "geom:area":0.0,
    "geom:bbox":"-78.188826,39.233381,-78.188826,39.233381",
    "geom:latitude":39.233381,
    "geom:longitude":-78.188826,
    "iso:country":"US",
    "sg:address":"260 Golds Hill Rd",
    "sg:city":"Winchester",
    "sg:classifiers":[
        {
            "category":"Professional",
            "subcategory":"",
            "type":"Services"
        }
    ],
    "sg:owner":"simplegeo",
    "sg:phone":"+1 540 545 7272",
    "sg:postcode":"22603",
    "sg:province":"VA",
    "sg:tags":[
        "establishment"
    ],
    "src:geom":"simplegeo",
    "wof:belongsto":[],
    "wof:breaches":[],
    "wof:concordances":{
        "sg:id":"SG_0p1rejUUk74PFU6nrVa7Jb_39.233381_-78.188826@1294252573"
    },
    "wof:country":"US",
    "wof:created":1461886219,
    "wof:geomhash":"1010d9756a51f32ee7c2fdb167ca953e",
    "wof:hierarchy":[],
    "wof:id":722660879,
    "wof:lastmodified":1461886219,
    "wof:name":"Bonometti & Bonometti",
    "wof:parent_id":-1,
    "wof:placetype":"venue",
    "wof:superseded_by":[],
    "wof:supersedes":[],
    "wof:tags":[
        "establishment"
    ]
},
  "bbox": [
    -78.188826,
    39.233381,
    -78.188826,
    39.233381
],
  "geometry": {"coordinates":[-78.18882600000001,39.233381],"type":"Point"}
}