{
  "id": 739338367,
  "type": "Feature",
  "properties": {
    "edtf:cessation":"uuuu",
    "edtf:inception":"uuuu",
    "geom:area":0.0,
    "geom:bbox":"-77.285974,38.993319,-77.285974,38.993319",
    "geom:latitude":38.993319,
    "geom:longitude":-77.285974,
    "iso:country":"US",
    "sg:address":"9803 Thunderhill Ct",
    "sg:city":"Great Falls",
    "sg:classifiers":[
        {
            "category":"Professional",
            "subcategory":"Management & Consulting",
            "type":"Services"
        }
    ],
    "sg:owner":"simplegeo",
    "sg:phone":"+1 703 757 8088",
    "sg:postcode":"22066",
    "sg:province":"VA",
    "sg:tags":[
        "training",
        "compliance"
    ],
    "src:geom":"simplegeo",
    "wof:belongsto":[],
    "wof:breaches":[],
    "wof:concordances":{
        "sg:id":"SG_5YRwMCRWUCu5cHwYgCCSym_38.993319_-77.285974@1294252573"
    },
    "wof:country":"US",
    "wof:created":1461905351,
    "wof:geomhash":"7baacb5bbada2b28789e5cebdfccf636",
    "wof:hierarchy":[],
    "wof:id":739338367,
    "wof:lastmodified":1461905351,
    "wof:name":"Content Enablers Inc",
    "wof:parent_id":-1,
    "wof:placetype":"venue",
    "wof:superseded_by":[],
    "wof:supersedes":[],
    "wof:tags":[
        "training",
        "compliance"
    ]
},
  "bbox": [
    -77.285974,
    38.993319,
    -77.285974,
    38.993319
],
  "geometry": {"coordinates":[-77.285974,38.993319],"type":"Point"}
}