{
  "id": 739470921,
  "type": "Feature",
  "properties": {
    "edtf:cessation":"uuuu",
    "edtf:inception":"uuuu",
    "geom:area":0.0,
    "geom:bbox":"-77.498548,38.264505,-77.498548,38.264505",
    "geom:latitude":38.264505,
    "geom:longitude":-77.498548,
    "iso:country":"US",
    "sg:address":"329 Wallace Ln",
    "sg:city":"Fredericksburg",
    "sg:classifiers":[
        {
            "category":"Retail",
            "subcategory":"Repair Shop",
            "type":"Services"
        }
    ],
    "sg:owner":"simplegeo",
    "sg:phone":"+1 540 710 6944",
    "sg:postcode":"22408",
    "sg:province":"VA",
    "sg:tags":[
        "welding"
    ],
    "src:geom":"simplegeo",
    "wof:belongsto":[],
    "wof:breaches":[],
    "wof:concordances":{
        "sg:id":"SG_7cPZSZCmF7JhezWhTzK5jS_38.264505_-77.498548@1294252573"
    },
    "wof:country":"US",
    "wof:created":1461907902,
    "wof:geomhash":"f8f819a9a45d031911710f01110d8206",
    "wof:hierarchy":[],
    "wof:id":739470921,
    "wof:lastmodified":1461907902,
    "wof:name":"Arco Welding Inc",
    "wof:parent_id":-1,
    "wof:placetype":"venue",
    "wof:superseded_by":[],
    "wof:supersedes":[],
    "wof:tags":[
        "welding"
    ]
},
  "bbox": [
    -77.498548,
    38.264505,
    -77.498548,
    38.264505
],
  "geometry": {"coordinates":[-77.498548,38.264505],"type":"Point"}
}