{
  "id": 723125953,
  "type": "Feature",
  "properties": {
    "edtf:cessation":"uuuu",
    "edtf:inception":"uuuu",
    "geom:area":0.0,
    "geom:bbox":"-77.503465,38.26265,-77.503465,38.26265",
    "geom:latitude":38.26265,
    "geom:longitude":-77.503465,
    "iso:country":"US",
    "sg:address":"247 Industrial Ct",
    "sg:city":"Fredericksburg",
    "sg:classifiers":[
        {
            "category":"Professional",
            "subcategory":"Computer Services",
            "type":"Services"
        }
    ],
    "sg:owner":"simplegeo",
    "sg:phone":"+1 540 891 5872",
    "sg:postcode":"22408",
    "sg:province":"VA",
    "sg:tags":[
        "processing",
        "datum"
    ],
    "src:geom":"simplegeo",
    "wof:belongsto":[],
    "wof:breaches":[],
    "wof:concordances":{
        "sg:id":"SG_5yvtmKlwAlykSscAaLZ8Ca_38.262650_-77.503465@1294252573"
    },
    "wof:country":"US",
    "wof:created":1461895619,
    "wof:geomhash":"b92aba50cc8baf8314aefe39d9896e38",
    "wof:hierarchy":[],
    "wof:id":723125953,
    "wof:lastmodified":1461895619,
    "wof:name":"Affiliated Computer Services",
    "wof:parent_id":-1,
    "wof:placetype":"venue",
    "wof:superseded_by":[],
    "wof:supersedes":[],
    "wof:tags":[
        "processing",
        "datum"
    ]
},
  "bbox": [
    -77.503465,
    38.26265,
    -77.503465,
    38.26265
],
  "geometry": {"coordinates":[-77.50346500000001,38.26265],"type":"Point"}
}