{
  "id": 723309077,
  "type": "Feature",
  "properties": {
    "edtf:cessation":"uuuu",
    "edtf:inception":"uuuu",
    "geom:area":0.0,
    "geom:bbox":"-77.190356,37.698969,-77.190356,37.698969",
    "geom:latitude":37.698969,
    "geom:longitude":-77.190356,
    "iso:country":"US",
    "sg:address":"1006 Dabneys Mill Rd",
    "sg:city":"Manquin",
    "sg:classifiers":[
        {
            "category":"Farming",
            "subcategory":"Dairy Farm",
            "type":"Manufacturing & Wholesale Goods"
        }
    ],
    "sg:owner":"simplegeo",
    "sg:phone":"+1 804 769 1366",
    "sg:postcode":"23106",
    "sg:province":"VA",
    "src:geom":"simplegeo",
    "wof:belongsto":[],
    "wof:breaches":[],
    "wof:concordances":{
        "sg:id":"SG_3gzqDGIz5CFZ13UN7Gl7le_37.698969_-77.190356@1294252573"
    },
    "wof:country":"US",
    "wof:created":1461899246,
    "wof:geomhash":"d41c20471d0bba53297dacfa8382c8a4",
    "wof:hierarchy":[],
    "wof:id":723309077,
    "wof:lastmodified":1461899246,
    "wof:name":"Queenfield Farm",
    "wof:parent_id":-1,
    "wof:placetype":"venue",
    "wof:superseded_by":[],
    "wof:supersedes":[],
    "wof:tags":[]
},
  "bbox": [
    -77.190356,
    37.698969,
    -77.190356,
    37.698969
],
  "geometry": {"coordinates":[-77.19035599999999,37.698969],"type":"Point"}
}