{
  "id": 723349511,
  "type": "Feature",
  "properties": {
    "edtf:cessation":"uuuu",
    "edtf:inception":"uuuu",
    "geom:area":0.0,
    "geom:bbox":"-77.560016,37.640606,-77.560016,37.640606",
    "geom:latitude":37.640606,
    "geom:longitude":-77.560016,
    "iso:country":"US",
    "sg:address":"9525 W Broad St",
    "sg:city":"Richmond",
    "sg:classifiers":[
        {
            "category":"Autos & Motor Vehicles",
            "subcategory":"Fuel & Gas Station",
            "type":"Retail Goods"
        }
    ],
    "sg:owner":"simplegeo",
    "sg:phone":"+1 804 270 3747",
    "sg:postcode":"23294",
    "sg:province":"VA",
    "sg:tags":[
        "convenience",
        "gasoline",
        "store"
    ],
    "src:geom":"simplegeo",
    "wof:belongsto":[],
    "wof:breaches":[],
    "wof:concordances":{
        "sg:id":"SG_5jVd1EShBMR22rbkLR8Hki_37.640606_-77.560016@1294252573"
    },
    "wof:country":"US",
    "wof:created":1461899985,
    "wof:geomhash":"00607882e9384fca4d97dd8c2f5530f6",
    "wof:hierarchy":[],
    "wof:id":723349511,
    "wof:lastmodified":1461899985,
    "wof:name":"Exxon",
    "wof:parent_id":-1,
    "wof:placetype":"venue",
    "wof:superseded_by":[],
    "wof:supersedes":[],
    "wof:tags":[
        "convenience",
        "gasoline",
        "store"
    ]
},
  "bbox": [
    -77.560016,
    37.640606,
    -77.560016,
    37.640606
],
  "geometry": {"coordinates":[-77.560016,37.640606],"type":"Point"}
}