{
  "id": 722943401,
  "type": "Feature",
  "properties": {
    "edtf:cessation":"uuuu",
    "edtf:inception":"uuuu",
    "geom:area":0.0,
    "geom:bbox":"-76.425108,37.903723,-76.425108,37.903723",
    "geom:latitude":37.903723,
    "geom:longitude":-76.425108,
    "iso:country":"US",
    "sg:address":"9360 Northumberland Hwy",
    "sg:city":"Heathsville",
    "sg:classifiers":[
        {
            "category":"Professional",
            "subcategory":"",
            "type":"Services"
        }
    ],
    "sg:owner":"simplegeo",
    "sg:phone":"+1 804 580 4540",
    "sg:postcode":"22473",
    "sg:province":"VA",
    "sg:tags":[
        "establishment"
    ],
    "src:geom":"simplegeo",
    "wof:belongsto":[],
    "wof:breaches":[],
    "wof:concordances":{
        "sg:id":"SG_7RAhQbuRPdtx66BMzsclMI_37.903723_-76.425108@1294252573"
    },
    "wof:country":"US",
    "wof:created":1461891698,
    "wof:geomhash":"a2766959555854d329f6f945f4850b40",
    "wof:hierarchy":[],
    "wof:id":722943401,
    "wof:lastmodified":1461891698,
    "wof:name":"Richmond Times",
    "wof:parent_id":-1,
    "wof:placetype":"venue",
    "wof:superseded_by":[],
    "wof:supersedes":[],
    "wof:tags":[
        "establishment"
    ]
},
  "bbox": [
    -76.425108,
    37.903723,
    -76.425108,
    37.903723
],
  "geometry": {"coordinates":[-76.42510799999999,37.903723],"type":"Point"}
}