{
  "id": 723305985,
  "type": "Feature",
  "properties": {
    "edtf:cessation":"uuuu",
    "edtf:inception":"uuuu",
    "geom:area":0.0,
    "geom:bbox":"-77.441409,37.450384,-77.441409,37.450384",
    "geom:latitude":37.450384,
    "geom:longitude":-77.441409,
    "iso:country":"US",
    "sg:address":"2621 Cogbill Rd",
    "sg:city":"Richmond",
    "sg:classifiers":[
        {
            "category":"Manufacturing",
            "subcategory":"Food",
            "type":"Manufacturing & Wholesale Goods"
        }
    ],
    "sg:owner":"simplegeo",
    "sg:phone":"+1 804 271 7414",
    "sg:postcode":"23234",
    "sg:province":"VA",
    "sg:tags":[
        "product",
        "mfg"
    ],
    "src:geom":"simplegeo",
    "wof:belongsto":[],
    "wof:breaches":[],
    "wof:concordances":{
        "sg:id":"SG_7YiDQdBDWbzEKCwWn85w8Q_37.450384_-77.441409@1294252573"
    },
    "wof:country":"US",
    "wof:created":1461899192,
    "wof:geomhash":"84d32145775919cc1c9e353ad4be3ce5",
    "wof:hierarchy":[],
    "wof:id":723305985,
    "wof:lastmodified":1461899192,
    "wof:name":"Kotarides Bakery Bargain Store",
    "wof:parent_id":-1,
    "wof:placetype":"venue",
    "wof:superseded_by":[],
    "wof:supersedes":[],
    "wof:tags":[
        "product",
        "mfg"
    ]
},
  "bbox": [
    -77.441409,
    37.450384,
    -77.441409,
    37.450384
],
  "geometry": {"coordinates":[-77.44140899999999,37.450384],"type":"Point"}
}