{
  "id": 723159915,
  "type": "Feature",
  "properties": {
    "edtf:cessation":"uuuu",
    "edtf:inception":"uuuu",
    "geom:area":0.0,
    "geom:bbox":"-77.59446,37.82598,-77.59446,37.82598",
    "geom:latitude":37.82598,
    "geom:longitude":-77.59446,
    "iso:country":"US",
    "sg:address":"14363 W Patrick Henry Rd",
    "sg:city":"Doswell",
    "sg:classifiers":[
        {
            "category":"Professional",
            "subcategory":"Business Services",
            "type":"Services"
        }
    ],
    "sg:owner":"simplegeo",
    "sg:phone":"+1 804 883 5061",
    "sg:postcode":"23047",
    "sg:province":"VA",
    "src:geom":"simplegeo",
    "wof:belongsto":[],
    "wof:breaches":[],
    "wof:concordances":{
        "sg:id":"SG_6Cpi04OmsgU6nLQIzSY8jS_37.825980_-77.594460@1294252573"
    },
    "wof:country":"US",
    "wof:created":1461896287,
    "wof:geomhash":"e60b38426c8d82afcd529cddb736048f",
    "wof:hierarchy":[],
    "wof:id":723159915,
    "wof:lastmodified":1461896287,
    "wof:name":"Hank Tassitano",
    "wof:parent_id":-1,
    "wof:placetype":"venue",
    "wof:superseded_by":[],
    "wof:supersedes":[],
    "wof:tags":[]
},
  "bbox": [
    -77.59446,
    37.82598,
    -77.59446,
    37.82598
],
  "geometry": {"coordinates":[-77.59446,37.82598],"type":"Point"}
}