{
  "id": 722732365,
  "type": "Feature",
  "properties": {
    "edtf:cessation":"uuuu",
    "edtf:inception":"uuuu",
    "geom:area":0.0,
    "geom:bbox":"-77.483652,36.98188,-77.483652,36.98188",
    "geom:latitude":36.98188,
    "geom:longitude":-77.483652,
    "iso:country":"US",
    "sg:address":"24717 Black Branch Rd",
    "sg:city":"Stony Creek",
    "sg:classifiers":[
        {
            "category":"Shopping",
            "subcategory":"Bicycles & Sporting Goods",
            "type":"Retail Goods"
        }
    ],
    "sg:owner":"simplegeo",
    "sg:phone":"+1 804 469 9254",
    "sg:postcode":"23882",
    "sg:province":"VA",
    "src:geom":"simplegeo",
    "wof:belongsto":[],
    "wof:breaches":[],
    "wof:concordances":{
        "sg:id":"SG_4fCZNSPzG2ouIz2R0rsBgI_36.981880_-77.483652@1294252573"
    },
    "wof:country":"US",
    "wof:created":1461887592,
    "wof:geomhash":"4519d564122819e774c3912d1647fba7",
    "wof:hierarchy":[],
    "wof:id":722732365,
    "wof:lastmodified":1461887592,
    "wof:name":"New China Limited",
    "wof:parent_id":-1,
    "wof:placetype":"venue",
    "wof:superseded_by":[],
    "wof:supersedes":[],
    "wof:tags":[]
},
  "bbox": [
    -77.483652,
    36.98188,
    -77.483652,
    36.98188
],
  "geometry": {"coordinates":[-77.48365200000001,36.98188],"type":"Point"}
}