{
  "id": 739323755,
  "type": "Feature",
  "properties": {
    "edtf:cessation":"uuuu",
    "edtf:inception":"uuuu",
    "geom:area":0.0,
    "geom:bbox":"-76.267643,36.628456,-76.267643,36.628456",
    "geom:latitude":36.628456,
    "geom:longitude":-76.267643,
    "iso:country":"US",
    "sg:address":"1401 Benefit Rd",
    "sg:city":"Chesapeake",
    "sg:classifiers":[
        {
            "category":"Wholesale",
            "subcategory":"Stationery",
            "type":"Manufacturing & Wholesale Goods"
        }
    ],
    "sg:owner":"simplegeo",
    "sg:phone":"+1 757 502 0303",
    "sg:postcode":"23322",
    "sg:province":"VA",
    "sg:tags":[
        "paper"
    ],
    "src:geom":"simplegeo",
    "wof:belongsto":[
        85688747,
        102191575,
        85633793,
        101728797,
        102087265,
        420558631
    ],
    "wof:breaches":[],
    "wof:concordances":{
        "sg:id":"SG_6cWAEOUuCByCe2U6Py8bxl_36.628456_-76.267643@1294252573"
    },
    "wof:country":"US",
    "wof:created":1461905055,
    "wof:geomhash":"c0703ed41dd7bc585d7cb7e1c556b432",
    "wof:hierarchy":[
        {
            "continent_id":102191575,
            "country_id":85633793,
            "county_id":102087265,
            "locality_id":101728797,
            "neighbourhood_id":420558631,
            "region_id":85688747,
            "venue_id":739323755
        }
    ],
    "wof:id":739323755,
    "wof:lastmodified":1461905055,
    "wof:name":"Queen Anns Rubber Stamps",
    "wof:parent_id":420558631,
    "wof:placetype":"venue",
    "wof:superseded_by":[],
    "wof:supersedes":[],
    "wof:tags":[
        "paper"
    ]
},
  "bbox": [
    -76.267643,
    36.628456,
    -76.267643,
    36.628456
],
  "geometry": {"coordinates":[-76.26764300000001,36.628456],"type":"Point"}
}