{
  "id": 722668565,
  "type": "Feature",
  "properties": {
    "edtf:cessation":"uuuu",
    "edtf:inception":"uuuu",
    "geom:area":0.0,
    "geom:bbox":"-77.605753,37.496808,-77.605753,37.496808",
    "geom:latitude":37.496808,
    "geom:longitude":-77.605753,
    "iso:country":"US",
    "sg:address":"411 Branchway Rd",
    "sg:city":"Richmond",
    "sg:classifiers":[
        {
            "category":"Professional",
            "subcategory":"Advertising",
            "type":"Services"
        }
    ],
    "sg:owner":"simplegeo",
    "sg:phone":"+1 804 794 2871",
    "sg:postcode":"23236",
    "sg:province":"VA",
    "sg:tags":[
        "agency"
    ],
    "src:geom":"simplegeo",
    "wof:belongsto":[],
    "wof:breaches":[],
    "wof:concordances":{
        "sg:id":"SG_6aGWH5M0iqnwoZuwMKkZrC_37.496808_-77.605753@1294252573"
    },
    "wof:country":"US",
    "wof:created":1461886371,
    "wof:geomhash":"a3fe85d6d8209a7871446f2a584635ef",
    "wof:hierarchy":[],
    "wof:id":722668565,
    "wof:lastmodified":1461886371,
    "wof:name":"Wf of R",
    "wof:parent_id":-1,
    "wof:placetype":"venue",
    "wof:superseded_by":[],
    "wof:supersedes":[],
    "wof:tags":[
        "agency"
    ]
},
  "bbox": [
    -77.605753,
    37.496808,
    -77.605753,
    37.496808
],
  "geometry": {"coordinates":[-77.60575300000001,37.496808],"type":"Point"}
}