{
  "id": 722767391,
  "type": "Feature",
  "properties": {
    "edtf:cessation":"uuuu",
    "edtf:inception":"uuuu",
    "geom:area":0.0,
    "geom:bbox":"-77.52499,37.462668,-77.52499,37.462668",
    "geom:latitude":37.462668,
    "geom:longitude":-77.52499,
    "iso:country":"US",
    "sg:address":"3209 Able Pl",
    "sg:city":"Chesterfield",
    "sg:classifiers":[
        {
            "category":"Retail",
            "subcategory":"Repair Shop",
            "type":"Services"
        }
    ],
    "sg:owner":"simplegeo",
    "sg:phone":"+1 804 745 4833",
    "sg:postcode":"23832",
    "sg:province":"VA",
    "sg:tags":[
        "refinishing",
        "furniture"
    ],
    "src:geom":"simplegeo",
    "wof:belongsto":[],
    "wof:breaches":[],
    "wof:concordances":{
        "sg:id":"SG_0M4QrxSu13QMJ5mDt4n969_37.462668_-77.524990@1294252573"
    },
    "wof:country":"US",
    "wof:created":1461888268,
    "wof:geomhash":"5dfd1be5901568199d3bbd18f4ec8af8",
    "wof:hierarchy":[],
    "wof:id":722767391,
    "wof:lastmodified":1461888268,
    "wof:name":"Mack Furniture Svc",
    "wof:parent_id":420546613,
    "wof:placetype":"venue",
    "wof:superseded_by":[],
    "wof:supersedes":[],
    "wof:tags":[
        "refinishing",
        "furniture"
    ]
},
  "bbox": [
    -77.52499,
    37.462668,
    -77.52499,
    37.462668
],
  "geometry": {"coordinates":[-77.52499,37.462668],"type":"Point"}
}