{
  "id": 739353427,
  "type": "Feature",
  "properties": {
    "edtf:cessation":"uuuu",
    "edtf:inception":"uuuu",
    "geom:area":0.0,
    "geom:bbox":"-77.362951,37.479102,-77.362951,37.479102",
    "geom:latitude":37.479102,
    "geom:longitude":-77.362951,
    "iso:country":"US",
    "sg:address":"6851 S Laburnum Ave",
    "sg:city":"Richmond",
    "sg:classifiers":[
        {
            "category":"Organizations",
            "subcategory":"Religious Organization",
            "type":"Services"
        }
    ],
    "sg:owner":"simplegeo",
    "sg:phone":"+1 804 222 8110",
    "sg:postcode":"23231",
    "sg:province":"VA",
    "sg:tags":[
        "church"
    ],
    "sg:website":"www.mcfmanna.com",
    "src:geom":"simplegeo",
    "wof:belongsto":[],
    "wof:breaches":[],
    "wof:concordances":{
        "sg:id":"SG_0yKNOqyRKw2Vwtzw9q7ec6_37.479102_-77.362951@1294252573"
    },
    "wof:country":"US",
    "wof:created":1461905686,
    "wof:geomhash":"306f47a33041a390c27250ea67560245",
    "wof:hierarchy":[],
    "wof:id":739353427,
    "wof:lastmodified":1461905686,
    "wof:name":"Manna Christian Fellowship",
    "wof:parent_id":-1,
    "wof:placetype":"venue",
    "wof:superseded_by":[],
    "wof:supersedes":[],
    "wof:tags":[
        "church"
    ]
},
  "bbox": [
    -77.362951,
    37.479102,
    -77.362951,
    37.479102
],
  "geometry": {"coordinates":[-77.362951,37.479102],"type":"Point"}
}