{
  "id": 722735989,
  "type": "Feature",
  "properties": {
    "edtf:cessation":"uuuu",
    "edtf:inception":"uuuu",
    "geom:area":0.0,
    "geom:bbox":"-77.509175,37.659343,-77.509175,37.659343",
    "geom:latitude":37.659343,
    "geom:longitude":-77.509175,
    "iso:country":"US",
    "sg:address":"10207 Steuben Dr",
    "sg:city":"Glen Allen",
    "sg:classifiers":[
        {
            "category":"Food & Beverages",
            "subcategory":"Groceries & Convenience Stores",
            "type":"Retail Goods"
        }
    ],
    "sg:owner":"simplegeo",
    "sg:phone":"+1 804 672 7604",
    "sg:postcode":"23060",
    "sg:province":"VA",
    "src:geom":"simplegeo",
    "wof:belongsto":[],
    "wof:breaches":[],
    "wof:concordances":{
        "sg:id":"SG_42eacAlBee1UR8SrsI1mHs_37.659343_-77.509175@1294252573"
    },
    "wof:country":"US",
    "wof:created":1461887666,
    "wof:geomhash":"88eecadf1179c509053ffa52cb9224a5",
    "wof:hierarchy":[],
    "wof:id":722735989,
    "wof:lastmodified":1461887666,
    "wof:name":"Mkt Box",
    "wof:parent_id":-1,
    "wof:placetype":"venue",
    "wof:superseded_by":[],
    "wof:supersedes":[],
    "wof:tags":[]
},
  "bbox": [
    -77.509175,
    37.659343,
    -77.509175,
    37.659343
],
  "geometry": {"coordinates":[-77.509175,37.659343],"type":"Point"}
}