{
  "id": 722596681,
  "type": "Feature",
  "properties": {
    "edtf:cessation":"uuuu",
    "edtf:inception":"uuuu",
    "geom:area":0.0,
    "geom:bbox":"-78.099069,38.759198,-78.099069,38.759198",
    "geom:latitude":38.759198,
    "geom:longitude":-78.099069,
    "iso:country":"US",
    "sg:address":"301 Ben Venue Rd",
    "sg:city":"Flint Hill",
    "sg:classifiers":[
        {
            "category":"Retail",
            "subcategory":"Repair Shop",
            "type":"Services"
        }
    ],
    "sg:owner":"simplegeo",
    "sg:phone":"+1 540 675 1937",
    "sg:postcode":"22627",
    "sg:province":"VA",
    "src:geom":"simplegeo",
    "wof:belongsto":[],
    "wof:breaches":[],
    "wof:concordances":{
        "sg:id":"SG_285Mk1HvCRCaHTPBsNWkKp_38.759198_-78.099069@1294252573"
    },
    "wof:country":"US",
    "wof:created":1461884913,
    "wof:geomhash":"b437ea9e6f4b5960750fd832e15986b6",
    "wof:hierarchy":[],
    "wof:id":722596681,
    "wof:lastmodified":1461884913,
    "wof:name":"Don Burke Piano Technician",
    "wof:parent_id":-1,
    "wof:placetype":"venue",
    "wof:superseded_by":[],
    "wof:supersedes":[],
    "wof:tags":[]
},
  "bbox": [
    -78.099069,
    38.759198,
    -78.099069,
    38.759198
],
  "geometry": {"coordinates":[-78.099069,38.759198],"type":"Point"}
}