{
  "id": 722597903,
  "type": "Feature",
  "properties": {
    "edtf:cessation":"uuuu",
    "edtf:inception":"uuuu",
    "geom:area":0.0,
    "geom:bbox":"-77.903663,37.497884,-77.903663,37.497884",
    "geom:latitude":37.497884,
    "geom:longitude":-77.903663,
    "iso:country":"US",
    "sg:address":"1500 Palmore Rd",
    "sg:city":"Powhatan",
    "sg:classifiers":[
        {
            "category":"Farming",
            "subcategory":"Dairy Farm",
            "type":"Manufacturing & Wholesale Goods"
        }
    ],
    "sg:owner":"simplegeo",
    "sg:phone":"+1 804 598 5461",
    "sg:postcode":"23139",
    "sg:province":"VA",
    "src:geom":"simplegeo",
    "wof:belongsto":[],
    "wof:breaches":[],
    "wof:concordances":{
        "sg:id":"SG_4HIvUeybmiUqWFmI3SPZHm_37.497884_-77.903663@1294252573"
    },
    "wof:country":"US",
    "wof:created":1461884933,
    "wof:geomhash":"b3be00ed8e3da639e7bd51840ce190bb",
    "wof:hierarchy":[],
    "wof:id":722597903,
    "wof:lastmodified":1461884933,
    "wof:name":"Acoma Dairy",
    "wof:parent_id":-1,
    "wof:placetype":"venue",
    "wof:superseded_by":[],
    "wof:supersedes":[],
    "wof:tags":[]
},
  "bbox": [
    -77.903663,
    37.497884,
    -77.903663,
    37.497884
],
  "geometry": {"coordinates":[-77.90366299999999,37.497884],"type":"Point"}
}