{
  "id": 723306125,
  "type": "Feature",
  "properties": {
    "edtf:cessation":"uuuu",
    "edtf:inception":"uuuu",
    "geom:area":0.0,
    "geom:bbox":"-77.423721,38.768523,-77.423721,38.768523",
    "geom:latitude":38.768523,
    "geom:longitude":-77.423721,
    "iso:country":"US",
    "sg:address":"9423 Katelyn Ct",
    "sg:city":"Manassas Park",
    "sg:classifiers":[
        {
            "category":"Building & Trades",
            "subcategory":"Plumbing",
            "type":"Services"
        }
    ],
    "sg:owner":"simplegeo",
    "sg:phone":"+1 703 369 3318",
    "sg:postcode":"20111",
    "sg:province":"VA",
    "sg:tags":[
        "plumbing",
        "air",
        "heating",
        "contractor"
    ],
    "src:geom":"simplegeo",
    "wof:belongsto":[],
    "wof:breaches":[],
    "wof:concordances":{
        "sg:id":"SG_3He8CvLMdPT2hAQVl4T7Vm_38.768523_-77.423721@1294252573"
    },
    "wof:country":"US",
    "wof:created":1461899194,
    "wof:geomhash":"d0f8bab298e8ccc55b35800417f037e2",
    "wof:hierarchy":[],
    "wof:id":723306125,
    "wof:lastmodified":1461899194,
    "wof:name":"R J Wren Heating & Cooling",
    "wof:parent_id":-1,
    "wof:placetype":"venue",
    "wof:superseded_by":[],
    "wof:supersedes":[],
    "wof:tags":[
        "plumbing",
        "air",
        "heating",
        "contractor"
    ]
},
  "bbox": [
    -77.423721,
    38.768523,
    -77.423721,
    38.768523
],
  "geometry": {"coordinates":[-77.423721,38.768523],"type":"Point"}
}