{
  "id": 723364087,
  "type": "Feature",
  "properties": {
    "edtf:cessation":"uuuu",
    "edtf:inception":"uuuu",
    "geom:area":0.0,
    "geom:bbox":"-80.63727,37.319925,-80.63727,37.319925",
    "geom:latitude":37.319925,
    "geom:longitude":-80.63727,
    "iso:country":"US",
    "sg:address":"504 Snidow St",
    "sg:city":"Pembroke",
    "sg:classifiers":[
        {
            "category":"Professional",
            "subcategory":"Business Services",
            "type":"Services"
        }
    ],
    "sg:owner":"simplegeo",
    "sg:phone":"+1 540 626 6111",
    "sg:postcode":"24136",
    "sg:province":"VA",
    "sg:tags":[
        "paging",
        "answering"
    ],
    "src:geom":"simplegeo",
    "wof:belongsto":[],
    "wof:breaches":[],
    "wof:concordances":{
        "sg:id":"SG_61fAv4AimubR38J1zVRS1x_37.319925_-80.637270@1294252573"
    },
    "wof:country":"US",
    "wof:created":1461900266,
    "wof:geomhash":"27113cc8ac42afad472bc92b08d187b2",
    "wof:hierarchy":[],
    "wof:id":723364087,
    "wof:lastmodified":1461900266,
    "wof:name":"Pemtel Long Distance",
    "wof:parent_id":-1,
    "wof:placetype":"venue",
    "wof:superseded_by":[],
    "wof:supersedes":[],
    "wof:tags":[
        "paging",
        "answering"
    ]
},
  "bbox": [
    -80.63727,
    37.319925,
    -80.63727,
    37.319925
],
  "geometry": {"coordinates":[-80.63727,37.319925],"type":"Point"}
}