{
  "id": 723277209,
  "type": "Feature",
  "properties": {
    "edtf:cessation":"uuuu",
    "edtf:inception":"uuuu",
    "geom:area":0.0,
    "geom:bbox":"-77.43668,38.837775,-77.43668,38.837775",
    "geom:latitude":38.837775,
    "geom:longitude":-77.43668,
    "iso:country":"US",
    "sg:address":"14200 Centreville Sq",
    "sg:city":"Centreville",
    "sg:classifiers":[
        {
            "category":"Food & Beverages",
            "subcategory":"Bakery",
            "type":"Retail Goods"
        }
    ],
    "sg:owner":"simplegeo",
    "sg:phone":"+1 703 988 9688",
    "sg:postcode":"20121",
    "sg:province":"VA",
    "sg:website":"www.happyeatery.com",
    "src:geom":"simplegeo",
    "wof:belongsto":[],
    "wof:breaches":[],
    "wof:concordances":{
        "sg:id":"SG_3vo1FXpeWWRZncWP2HnBTj_38.837775_-77.436680@1294252573"
    },
    "wof:country":"US",
    "wof:created":1461898629,
    "wof:geomhash":"d5066600483b4a48814bdb37e1d94140",
    "wof:hierarchy":[],
    "wof:id":723277209,
    "wof:lastmodified":1461898629,
    "wof:name":"Cakes By Happy Eatery",
    "wof:parent_id":-1,
    "wof:placetype":"venue",
    "wof:superseded_by":[],
    "wof:supersedes":[],
    "wof:tags":[]
},
  "bbox": [
    -77.43668,
    38.837775,
    -77.43668,
    38.837775
],
  "geometry": {"coordinates":[-77.43668,38.837775],"type":"Point"}
}