{
  "id": 723430261,
  "type": "Feature",
  "properties": {
    "edtf:cessation":"uuuu",
    "edtf:inception":"uuuu",
    "geom:area":0.0,
    "geom:bbox":"-77.55115,37.58939,-77.55115,37.58939",
    "geom:latitude":37.58939,
    "geom:longitude":-77.55115,
    "iso:country":"US",
    "sg:address":"910 Forest Ave",
    "sg:city":"Richmond",
    "sg:classifiers":[
        {
            "category":"Real Estate",
            "subcategory":"Real Estate Agent",
            "type":"Services"
        }
    ],
    "sg:owner":"simplegeo",
    "sg:phone":"+1 804 288 4455",
    "sg:postcode":"23229",
    "sg:province":"VA",
    "src:geom":"simplegeo",
    "wof:belongsto":[],
    "wof:breaches":[],
    "wof:concordances":{
        "sg:id":"SG_0BRPFNa8S6KkRxvfjJJ9cU_37.589390_-77.551150@1294252573"
    },
    "wof:country":"US",
    "wof:created":1461901572,
    "wof:geomhash":"4074d2fdb4160c9c08c2292d1e84372e",
    "wof:hierarchy":[],
    "wof:id":723430261,
    "wof:lastmodified":1461901572,
    "wof:name":"Jones Armstrong & Associa",
    "wof:parent_id":-1,
    "wof:placetype":"venue",
    "wof:superseded_by":[],
    "wof:supersedes":[],
    "wof:tags":[]
},
  "bbox": [
    -77.55115,
    37.58939,
    -77.55115,
    37.58939
],
  "geometry": {"coordinates":[-77.55115000000001,37.58939],"type":"Point"}
}