{
  "id": 723065453,
  "type": "Feature",
  "properties": {
    "edtf:cessation":"uuuu",
    "edtf:inception":"uuuu",
    "geom:area":0.0,
    "geom:bbox":"-80.033462,37.263415,-80.033462,37.263415",
    "geom:latitude":37.263415,
    "geom:longitude":-80.033462,
    "iso:country":"US",
    "sg:address":"1923 Electric Rd",
    "sg:city":"Salem",
    "sg:classifiers":[
        {
            "category":"Professional",
            "subcategory":"",
            "type":"Services"
        }
    ],
    "sg:owner":"simplegeo",
    "sg:phone":"+1 540 389 8441",
    "sg:postcode":"24153",
    "sg:province":"VA",
    "src:geom":"simplegeo",
    "wof:belongsto":[],
    "wof:breaches":[],
    "wof:concordances":{
        "sg:id":"SG_2uuYD0JhIG8NamjHdVAxvD_37.263415_-80.033462@1294252573"
    },
    "wof:country":"US",
    "wof:created":1461894334,
    "wof:geomhash":"5d0708614636f3bc1035d5884b62000c",
    "wof:hierarchy":[],
    "wof:id":723065453,
    "wof:lastmodified":1461894334,
    "wof:name":"Suncom A T & T Wireless Svcs",
    "wof:parent_id":-1,
    "wof:placetype":"venue",
    "wof:superseded_by":[],
    "wof:supersedes":[],
    "wof:tags":[]
},
  "bbox": [
    -80.033462,
    37.263415,
    -80.033462,
    37.263415
],
  "geometry": {"coordinates":[-80.033462,37.263415],"type":"Point"}
}