{
  "id": 723026341,
  "type": "Feature",
  "properties": {
    "edtf:cessation":"uuuu",
    "edtf:inception":"uuuu",
    "geom:area":0.0,
    "geom:bbox":"-77.402406,37.574499,-77.402406,37.574499",
    "geom:latitude":37.574499,
    "geom:longitude":-77.402406,
    "iso:country":"US",
    "sg:address":"2134 Rhudy St",
    "sg:city":"Richmond",
    "sg:classifiers":[
        {
            "category":"Retail",
            "subcategory":"Auto Repair",
            "type":"Services"
        }
    ],
    "sg:owner":"simplegeo",
    "sg:phone":"+1 804 228 3672",
    "sg:postcode":"23222",
    "sg:province":"VA",
    "sg:tags":[
        "automotive",
        "wrecker"
    ],
    "src:geom":"simplegeo",
    "wof:belongsto":[],
    "wof:breaches":[],
    "wof:concordances":{
        "sg:id":"SG_3vJqBIDlh33xCwd05B0Qyp_37.574499_-77.402406@1294252573"
    },
    "wof:country":"US",
    "wof:created":1461893530,
    "wof:geomhash":"d9cafbf50f5282657e14b1509b860279",
    "wof:hierarchy":[],
    "wof:id":723026341,
    "wof:lastmodified":1461893530,
    "wof:name":"Kross Roads Towing",
    "wof:parent_id":-1,
    "wof:placetype":"venue",
    "wof:superseded_by":[],
    "wof:supersedes":[],
    "wof:tags":[
        "automotive",
        "wrecker"
    ]
},
  "bbox": [
    -77.402406,
    37.574499,
    -77.402406,
    37.574499
],
  "geometry": {"coordinates":[-77.402406,37.574499],"type":"Point"}
}