{
  "id": 739471517,
  "type": "Feature",
  "properties": {
    "edtf:cessation":"uuuu",
    "edtf:inception":"uuuu",
    "geom:area":0.0,
    "geom:bbox":"-77.477008,39.055754,-77.477008,39.055754",
    "geom:latitude":39.055754,
    "geom:longitude":-77.477008,
    "iso:country":"US",
    "sg:address":"20257 Ordinary Pl",
    "sg:city":"Ashburn",
    "sg:classifiers":[
        {
            "category":"Personal",
            "subcategory":"Beauty Salon",
            "type":"Services"
        }
    ],
    "sg:owner":"simplegeo",
    "sg:phone":"+1 703 729 0567",
    "sg:postcode":"20147",
    "sg:province":"VA",
    "sg:tags":[
        "shop"
    ],
    "src:geom":"simplegeo",
    "wof:belongsto":[],
    "wof:breaches":[],
    "wof:concordances":{
        "sg:id":"SG_03qElvPcShyhRz3bGcHQgf_39.055754_-77.477008@1294252573"
    },
    "wof:country":"US",
    "wof:created":1461907912,
    "wof:geomhash":"0f159482fb58a02aa21034afa3e871e8",
    "wof:hierarchy":[],
    "wof:id":739471517,
    "wof:lastmodified":1461907912,
    "wof:name":"Hair Designs By Erma",
    "wof:parent_id":-1,
    "wof:placetype":"venue",
    "wof:superseded_by":[],
    "wof:supersedes":[],
    "wof:tags":[
        "shop"
    ]
},
  "bbox": [
    -77.477008,
    39.055754,
    -77.477008,
    39.055754
],
  "geometry": {"coordinates":[-77.477008,39.055754],"type":"Point"}
}