{
  "id": 739429841,
  "type": "Feature",
  "properties": {
    "edtf:cessation":"uuuu",
    "edtf:inception":"uuuu",
    "geom:area":0.0,
    "geom:bbox":"-77.773871,37.718318,-77.773871,37.718318",
    "geom:latitude":37.718318,
    "geom:longitude":-77.773871,
    "iso:country":"US",
    "sg:address":"2535 Turkey Creek Rd",
    "sg:city":"Oilville",
    "sg:classifiers":[
        {
            "category":"Organizations",
            "subcategory":"Professional Association",
            "type":"Services"
        }
    ],
    "sg:owner":"simplegeo",
    "sg:phone":"+1 804 749 8191",
    "sg:postcode":"23146",
    "sg:province":"VA",
    "src:geom":"simplegeo",
    "wof:belongsto":[],
    "wof:breaches":[],
    "wof:concordances":{
        "sg:id":"SG_5Pi4nzyR5lZ8hSwwfULsYc_37.718318_-77.773871@1294252573"
    },
    "wof:country":"US",
    "wof:created":1461907156,
    "wof:geomhash":"41bf3a753576a4a8ca393ce51fa2710a",
    "wof:hierarchy":[],
    "wof:id":739429841,
    "wof:lastmodified":1461907156,
    "wof:name":"Va Assn-Volunteer Rescue Squad",
    "wof:parent_id":-1,
    "wof:placetype":"venue",
    "wof:superseded_by":[],
    "wof:supersedes":[],
    "wof:tags":[]
},
  "bbox": [
    -77.773871,
    37.718318,
    -77.773871,
    37.718318
],
  "geometry": {"coordinates":[-77.773871,37.718318],"type":"Point"}
}