{
  "id": 722969821,
  "type": "Feature",
  "properties": {
    "edtf:cessation":"uuuu",
    "edtf:inception":"uuuu",
    "geom:area":0.0,
    "geom:bbox":"-77.404481,38.719262,-77.404481,38.719262",
    "geom:latitude":38.719262,
    "geom:longitude":-77.404481,
    "iso:country":"US",
    "sg:address":"6671 River Ford Ct",
    "sg:city":"Manassas",
    "sg:classifiers":[
        {
            "category":"Professional",
            "subcategory":"",
            "type":"Services"
        }
    ],
    "sg:owner":"simplegeo",
    "sg:phone":"+1 703 680 5600",
    "sg:postcode":"20112",
    "sg:province":"VA",
    "sg:tags":[
        "establishment"
    ],
    "src:geom":"simplegeo",
    "wof:belongsto":[],
    "wof:breaches":[],
    "wof:concordances":{
        "sg:id":"SG_5YlrDEoocDzTW1owf5bpSf_38.719262_-77.404481@1294252573"
    },
    "wof:country":"US",
    "wof:created":1461892230,
    "wof:geomhash":"a71d96a4efb040116b9dca81900e2b57",
    "wof:hierarchy":[],
    "wof:id":722969821,
    "wof:lastmodified":1461892230,
    "wof:name":"Detect Inc",
    "wof:parent_id":-1,
    "wof:placetype":"venue",
    "wof:superseded_by":[],
    "wof:supersedes":[],
    "wof:tags":[
        "establishment"
    ]
},
  "bbox": [
    -77.404481,
    38.719262,
    -77.404481,
    38.719262
],
  "geometry": {"coordinates":[-77.404481,38.719262],"type":"Point"}
}