{
  "id": 722642053,
  "type": "Feature",
  "properties": {
    "edtf:cessation":"uuuu",
    "edtf:inception":"uuuu",
    "geom:area":0.0,
    "geom:bbox":"-82.309757,36.902824,-82.309757,36.902824",
    "geom:latitude":36.902824,
    "geom:longitude":-82.309757,
    "iso:country":"US",
    "sg:address":"16620 E Riverside Dr",
    "sg:city":"St Paul",
    "sg:classifiers":[
        {
            "category":"Social Services",
            "subcategory":"",
            "type":"Services"
        }
    ],
    "sg:owner":"simplegeo",
    "sg:phone":"+1 276 762 0700",
    "sg:postcode":"24283",
    "sg:province":"VA",
    "sg:tags":[
        "care",
        "center",
        "day"
    ],
    "src:geom":"simplegeo",
    "wof:belongsto":[],
    "wof:breaches":[],
    "wof:concordances":{
        "sg:id":"SG_7O4GxKcaSntrFQuOJd5gsW_36.902824_-82.309757@1294252573"
    },
    "wof:country":"US",
    "wof:created":1461885879,
    "wof:geomhash":"a4f8f59f3c49fe31032d4ceff69213b9",
    "wof:hierarchy":[],
    "wof:id":722642053,
    "wof:lastmodified":1461885879,
    "wof:name":"Oxbow Center",
    "wof:parent_id":420547321,
    "wof:placetype":"venue",
    "wof:superseded_by":[],
    "wof:supersedes":[],
    "wof:tags":[
        "care",
        "center",
        "day"
    ]
},
  "bbox": [
    -82.309757,
    36.902824,
    -82.309757,
    36.902824
],
  "geometry": {"coordinates":[-82.309757,36.902824],"type":"Point"}
}