{
  "id": 723019053,
  "type": "Feature",
  "properties": {
    "edtf:cessation":"uuuu",
    "edtf:inception":"uuuu",
    "geom:area":0.0,
    "geom:bbox":"-78.231324,39.18224,-78.231324,39.18224",
    "geom:latitude":39.18224,
    "geom:longitude":-78.231324,
    "iso:country":"US",
    "sg:address":"492 Woodchuck Ln",
    "sg:city":"Winchester",
    "sg:classifiers":[
        {
            "category":"Professional",
            "subcategory":"",
            "type":"Services"
        }
    ],
    "sg:owner":"simplegeo",
    "sg:phone":"+1 540 662 8522",
    "sg:postcode":"22602",
    "sg:province":"VA",
    "src:geom":"simplegeo",
    "wof:belongsto":[],
    "wof:breaches":[],
    "wof:concordances":{
        "sg:id":"SG_1gWoAWstGccM5JVKI6wbmy_39.182240_-78.231324@1294252573"
    },
    "wof:country":"US",
    "wof:created":1461893355,
    "wof:geomhash":"d751f1a64494614646444496295360b1",
    "wof:hierarchy":[],
    "wof:id":723019053,
    "wof:lastmodified":1461893355,
    "wof:name":"Patsy A Bennett",
    "wof:parent_id":-1,
    "wof:placetype":"venue",
    "wof:superseded_by":[],
    "wof:supersedes":[],
    "wof:tags":[]
},
  "bbox": [
    -78.231324,
    39.18224,
    -78.231324,
    39.18224
],
  "geometry": {"coordinates":[-78.231324,39.18224],"type":"Point"}
}