{
  "id": 739610295,
  "type": "Feature",
  "properties": {
    "edtf:cessation":"uuuu",
    "edtf:inception":"uuuu",
    "geom:area":0.0,
    "geom:bbox":"-77.608097,38.796209,-77.608097,38.796209",
    "geom:latitude":38.796209,
    "geom:longitude":-77.608097,
    "iso:country":"US",
    "sg:address":"7356 Atlas Walk Way",
    "sg:city":"Gainesville",
    "sg:classifiers":[
        {
            "category":"Shopping",
            "subcategory":"Shoes",
            "type":"Retail Goods"
        }
    ],
    "sg:owner":"simplegeo",
    "sg:phone":"+1 571 261 3151",
    "sg:postcode":"20155",
    "sg:province":"VA",
    "sg:tags":[
        "store"
    ],
    "src:geom":"simplegeo",
    "wof:belongsto":[],
    "wof:breaches":[],
    "wof:concordances":{
        "sg:id":"SG_350oGw8XJYnsO3AqRe41sz_38.796209_-77.608097@1303262496"
    },
    "wof:country":"US",
    "wof:created":1461910606,
    "wof:geomhash":"d1e9aa059dc753c907f2921f17ac5c29",
    "wof:hierarchy":[],
    "wof:id":739610295,
    "wof:lastmodified":1461910606,
    "wof:name":"Town & Country Shoes Inc",
    "wof:parent_id":-1,
    "wof:placetype":"venue",
    "wof:superseded_by":[],
    "wof:supersedes":[],
    "wof:tags":[
        "store"
    ]
},
  "bbox": [
    -77.608097,
    38.796209,
    -77.608097,
    38.796209
],
  "geometry": {"coordinates":[-77.608097,38.796209],"type":"Point"}
}