{
  "id": 739695373,
  "type": "Feature",
  "properties": {
    "edtf:cessation":"uuuu",
    "edtf:inception":"uuuu",
    "geom:area":0.0,
    "geom:bbox":"-78.177107,39.169207,-78.177107,39.169207",
    "geom:latitude":39.169207,
    "geom:longitude":-78.177107,
    "iso:country":"US",
    "sg:address":"1814 Roberts St",
    "sg:city":"Winchester",
    "sg:classifiers":[
        {
            "category":"Insurance",
            "subcategory":"Hazard Insurance",
            "type":"Services"
        }
    ],
    "sg:owner":"simplegeo",
    "sg:phone":"+1 540 667 7133",
    "sg:postcode":"22601",
    "sg:province":"VA",
    "src:geom":"simplegeo",
    "wof:belongsto":[],
    "wof:breaches":[],
    "wof:concordances":{
        "sg:id":"SG_0ZWYBjNrYQqL34KCLNvrOA_39.169207_-78.177107@1303262547"
    },
    "wof:country":"US",
    "wof:created":1461912451,
    "wof:geomhash":"deb2f8f0ce384af8b6c015c12faf035c",
    "wof:hierarchy":[],
    "wof:id":739695373,
    "wof:lastmodified":1461912451,
    "wof:name":"Allstate Insurance Company - Mel Pine",
    "wof:parent_id":-1,
    "wof:placetype":"venue",
    "wof:superseded_by":[],
    "wof:supersedes":[],
    "wof:tags":[]
},
  "bbox": [
    -78.177107,
    39.169207,
    -78.177107,
    39.169207
],
  "geometry": {"coordinates":[-78.17710700000001,39.169207],"type":"Point"}
}