{
  "id": 723460229,
  "type": "Feature",
  "properties": {
    "edtf:cessation":"uuuu",
    "edtf:inception":"uuuu",
    "geom:area":0.0,
    "geom:bbox":"-79.849084,37.367375,-79.849084,37.367375",
    "geom:latitude":37.367375,
    "geom:longitude":-79.849084,
    "iso:country":"US",
    "sg:address":"1464 Laymantown Rd",
    "sg:city":"Troutville",
    "sg:classifiers":[
        {
            "category":"Organizations",
            "subcategory":"Religious Organization",
            "type":"Services"
        }
    ],
    "sg:owner":"simplegeo",
    "sg:phone":"+1 540 362 4843",
    "sg:postcode":"24175",
    "sg:province":"VA",
    "sg:tags":[
        "church"
    ],
    "src:geom":"simplegeo",
    "wof:belongsto":[],
    "wof:breaches":[],
    "wof:concordances":{
        "sg:id":"SG_5kt8FVV7szwes7jhlRDZGl_37.367375_-79.849084@1294252573"
    },
    "wof:country":"US",
    "wof:created":1461902126,
    "wof:geomhash":"3045e4532c786982f630b0efd881ab5a",
    "wof:hierarchy":[],
    "wof:id":723460229,
    "wof:lastmodified":1461902126,
    "wof:name":"New Haven Church Of Christ",
    "wof:parent_id":-1,
    "wof:placetype":"venue",
    "wof:superseded_by":[],
    "wof:supersedes":[],
    "wof:tags":[
        "church"
    ]
},
  "bbox": [
    -79.849084,
    37.367375,
    -79.849084,
    37.367375
],
  "geometry": {"coordinates":[-79.849084,37.367375],"type":"Point"}
}