{
  "id": 722615775,
  "type": "Feature",
  "properties": {
    "edtf:cessation":"uuuu",
    "edtf:inception":"uuuu",
    "geom:area":0.0,
    "geom:bbox":"-77.416556,38.25017,-77.416556,38.25017",
    "geom:latitude":38.25017,
    "geom:longitude":-77.416556,
    "iso:country":"US",
    "sg:address":"414 Hamilton St",
    "sg:city":"Fredericksburg",
    "sg:classifiers":[
        {
            "category":"Building & Trades",
            "subcategory":"Construction",
            "type":"Services"
        }
    ],
    "sg:owner":"simplegeo",
    "sg:phone":"+1 540 899 3865",
    "sg:postcode":"22408",
    "sg:province":"VA",
    "sg:tags":[
        "hanging",
        "painter",
        "contractor"
    ],
    "src:geom":"simplegeo",
    "wof:belongsto":[],
    "wof:breaches":[],
    "wof:concordances":{
        "sg:id":"SG_2T1LP8471SaZroQLmbXioi_38.250170_-77.416556@1294252573"
    },
    "wof:country":"US",
    "wof:created":1461885278,
    "wof:geomhash":"045969518b6d17191d639a9d201af7c9",
    "wof:hierarchy":[],
    "wof:id":722615775,
    "wof:lastmodified":1461885278,
    "wof:name":"Skinner's Painting",
    "wof:parent_id":-1,
    "wof:placetype":"venue",
    "wof:superseded_by":[],
    "wof:supersedes":[],
    "wof:tags":[
        "hanging",
        "painter",
        "contractor"
    ]
},
  "bbox": [
    -77.416556,
    38.25017,
    -77.416556,
    38.25017
],
  "geometry": {"coordinates":[-77.416556,38.25017],"type":"Point"}
}