{
  "id": 722621687,
  "type": "Feature",
  "properties": {
    "edtf:cessation":"uuuu",
    "edtf:inception":"uuuu",
    "geom:area":0.0,
    "geom:bbox":"-78.960423,37.964858,-78.960423,37.964858",
    "geom:latitude":37.964858,
    "geom:longitude":-78.960423,
    "iso:country":"US",
    "sg:address":"2434 Mt Torrey Rd",
    "sg:city":"Lyndhurst",
    "sg:classifiers":[
        {
            "category":"Real Estate",
            "subcategory":"Real Estate Operator",
            "type":"Services"
        }
    ],
    "sg:owner":"simplegeo",
    "sg:phone":"+1 540 943 2448",
    "sg:postcode":"22952",
    "sg:province":"VA",
    "sg:tags":[
        "property",
        "lessor"
    ],
    "src:geom":"simplegeo",
    "wof:belongsto":[],
    "wof:breaches":[],
    "wof:concordances":{
        "sg:id":"SG_5dDDXkUb7xRMdruDx1FU03_37.964858_-78.960423@1294252573"
    },
    "wof:country":"US",
    "wof:created":1461885421,
    "wof:geomhash":"766c94912014864766420d30d7e0abca",
    "wof:hierarchy":[],
    "wof:id":722621687,
    "wof:lastmodified":1461885421,
    "wof:name":"Warren Hatter",
    "wof:parent_id":-1,
    "wof:placetype":"venue",
    "wof:superseded_by":[],
    "wof:supersedes":[],
    "wof:tags":[
        "property",
        "lessor"
    ]
},
  "bbox": [
    -78.960423,
    37.964858,
    -78.960423,
    37.964858
],
  "geometry": {"coordinates":[-78.96042300000001,37.964858],"type":"Point"}
}