{
  "id": 739517747,
  "type": "Feature",
  "properties": {
    "edtf:cessation":"uuuu",
    "edtf:inception":"uuuu",
    "geom:area":0.0,
    "geom:bbox":"-77.596788,37.885695,-77.596788,37.885695",
    "geom:latitude":37.885695,
    "geom:longitude":-77.596788,
    "iso:country":"US",
    "sg:address":"17456 Hewlett Rd",
    "sg:city":"Beaverdam",
    "sg:classifiers":[
        {
            "category":"Insurance",
            "subcategory":"Insurance Agent",
            "type":"Services"
        }
    ],
    "sg:owner":"simplegeo",
    "sg:phone":"+1 804 449 6160",
    "sg:postcode":"23015",
    "sg:province":"VA",
    "src:geom":"simplegeo",
    "wof:belongsto":[],
    "wof:breaches":[],
    "wof:concordances":{
        "sg:id":"SG_4cpguyQyyRpcQlyKv53Hk7_37.885695_-77.596788@1294252573"
    },
    "wof:country":"US",
    "wof:created":1461908751,
    "wof:geomhash":"c51c93a78f76481ebfe0a6f3d44af600",
    "wof:hierarchy":[],
    "wof:id":739517747,
    "wof:lastmodified":1461908751,
    "wof:name":"Swager & Associates",
    "wof:parent_id":-1,
    "wof:placetype":"venue",
    "wof:superseded_by":[],
    "wof:supersedes":[],
    "wof:tags":[]
},
  "bbox": [
    -77.596788,
    37.885695,
    -77.596788,
    37.885695
],
  "geometry": {"coordinates":[-77.596788,37.885695],"type":"Point"}
}