{
  "id": 739271185,
  "type": "Feature",
  "properties": {
    "edtf:cessation":"uuuu",
    "edtf:inception":"uuuu",
    "geom:area":0.0,
    "geom:bbox":"-77.347911,37.239321,-77.347911,37.239321",
    "geom:latitude":37.239321,
    "geom:longitude":-77.347911,
    "iso:country":"US",
    "sg:address":"700 24th St",
    "sg:city":"Fort Lee",
    "sg:classifiers":[
        {
            "category":"Health Services",
            "subcategory":"Doctor",
            "type":"Services"
        }
    ],
    "sg:owner":"simplegeo",
    "sg:phone":"+1 804 734 9000",
    "sg:postcode":"23801",
    "sg:province":"VA",
    "sg:tags":[
        "clinic",
        "army"
    ],
    "src:geom":"simplegeo",
    "wof:belongsto":[],
    "wof:breaches":[],
    "wof:concordances":{
        "sg:id":"SG_23C2LxZRH4EiQMaAeeNHeP_37.239321_-77.347911@1294252573"
    },
    "wof:country":"US",
    "wof:created":1461903937,
    "wof:geomhash":"20af00729c26b8fb8b2a08cfb6684ea2",
    "wof:hierarchy":[],
    "wof:id":739271185,
    "wof:lastmodified":1461903937,
    "wof:name":"Kenner Army Health Clinic",
    "wof:parent_id":-1,
    "wof:placetype":"venue",
    "wof:superseded_by":[],
    "wof:supersedes":[],
    "wof:tags":[
        "clinic",
        "army"
    ]
},
  "bbox": [
    -77.347911,
    37.239321,
    -77.347911,
    37.239321
],
  "geometry": {"coordinates":[-77.347911,37.239321],"type":"Point"}
}