{
  "id": 722632313,
  "type": "Feature",
  "properties": {
    "edtf:cessation":"uuuu",
    "edtf:inception":"uuuu",
    "geom:area":0.0,
    "geom:bbox":"-77.523007,37.468927,-77.523007,37.468927",
    "geom:latitude":37.468927,
    "geom:longitude":-77.523007,
    "iso:country":"US",
    "sg:address":"2911 Turner Rd",
    "sg:city":"Richmond",
    "sg:classifiers":[
        {
            "category":"Professional",
            "subcategory":"Business Services",
            "type":"Services"
        }
    ],
    "sg:owner":"simplegeo",
    "sg:phone":"+1 804 745 2300",
    "sg:postcode":"23225",
    "sg:province":"VA",
    "sg:tags":[
        "broker"
    ],
    "src:geom":"simplegeo",
    "wof:belongsto":[],
    "wof:breaches":[],
    "wof:concordances":{
        "sg:id":"SG_4QydB53StWGDCeqRIarEG9_37.468927_-77.523007@1294252573"
    },
    "wof:country":"US",
    "wof:created":1461885690,
    "wof:geomhash":"5a5bb078aa6064db0e0820d12477c45f",
    "wof:hierarchy":[],
    "wof:id":722632313,
    "wof:lastmodified":1461885690,
    "wof:name":"Ethical Business Exchange",
    "wof:parent_id":-1,
    "wof:placetype":"venue",
    "wof:superseded_by":[],
    "wof:supersedes":[],
    "wof:tags":[
        "broker"
    ]
},
  "bbox": [
    -77.523007,
    37.468927,
    -77.523007,
    37.468927
],
  "geometry": {"coordinates":[-77.52300700000001,37.468927],"type":"Point"}
}