{
  "id": 739564291,
  "type": "Feature",
  "properties": {
    "edtf:cessation":"uuuu",
    "edtf:inception":"uuuu",
    "geom:area":0.0,
    "geom:bbox":"-77.980665,38.136227,-77.980665,38.136227",
    "geom:latitude":38.136227,
    "geom:longitude":-77.980665,
    "iso:country":"US",
    "sg:address":"20031 Ellisville Rd",
    "sg:city":"Orange",
    "sg:classifiers":[],
    "sg:owner":"simplegeo",
    "sg:phone":"+1 540 854 6751",
    "sg:postcode":"22960",
    "sg:province":"VA",
    "sg:tags":[
        "farm",
        "wheat",
        "grain",
        "cash",
        "soybean"
    ],
    "src:geom":"simplegeo",
    "wof:belongsto":[],
    "wof:breaches":[],
    "wof:concordances":{
        "sg:id":"SG_38vlKFspE7NAkzxXYllibf_38.136227_-77.980665@1294252573"
    },
    "wof:country":"US",
    "wof:created":1461909652,
    "wof:geomhash":"a6666f543c5e6fbd80f3657b2694fc47",
    "wof:hierarchy":[],
    "wof:id":739564291,
    "wof:lastmodified":1461909652,
    "wof:name":"Allen Jr C Dabney",
    "wof:parent_id":-1,
    "wof:placetype":"venue",
    "wof:superseded_by":[],
    "wof:supersedes":[],
    "wof:tags":[
        "farm",
        "wheat",
        "grain",
        "cash",
        "soybean"
    ]
},
  "bbox": [
    -77.980665,
    38.136227,
    -77.980665,
    38.136227
],
  "geometry": {"coordinates":[-77.980665,38.136227],"type":"Point"}
}