{
  "id": 722685569,
  "type": "Feature",
  "properties": {
    "edtf:cessation":"uuuu",
    "edtf:inception":"uuuu",
    "geom:area":0.0,
    "geom:bbox":"-77.417362,38.86153,-77.417362,38.86153",
    "geom:latitude":38.86153,
    "geom:longitude":-77.417362,
    "iso:country":"US",
    "sg:address":"13511 Granite Rock Dr",
    "sg:city":"Chantilly",
    "sg:classifiers":[
        {
            "category":"Building & Trades",
            "subcategory":"Construction",
            "type":"Services"
        }
    ],
    "sg:owner":"simplegeo",
    "sg:phone":"+1 703 263 1054",
    "sg:postcode":"20151",
    "sg:province":"VA",
    "sg:tags":[
        "contractor"
    ],
    "src:geom":"simplegeo",
    "wof:belongsto":[],
    "wof:breaches":[],
    "wof:concordances":{
        "sg:id":"SG_6yszNZ9P3syhgFl0HWINZy_38.861530_-77.417362@1294252573"
    },
    "wof:country":"US",
    "wof:created":1461886690,
    "wof:geomhash":"9bee86043aa1afbff9af35754925c76a",
    "wof:hierarchy":[],
    "wof:id":722685569,
    "wof:lastmodified":1461886690,
    "wof:name":"Metro Tile",
    "wof:parent_id":-1,
    "wof:placetype":"venue",
    "wof:superseded_by":[],
    "wof:supersedes":[],
    "wof:tags":[
        "contractor"
    ]
},
  "bbox": [
    -77.417362,
    38.86153,
    -77.417362,
    38.86153
],
  "geometry": {"coordinates":[-77.417362,38.86153],"type":"Point"}
}