{
  "id": 739394715,
  "type": "Feature",
  "properties": {
    "edtf:cessation":"uuuu",
    "edtf:inception":"uuuu",
    "geom:area":0.0,
    "geom:bbox":"-77.544027,37.627787,-77.544027,37.627787",
    "geom:latitude":37.627787,
    "geom:longitude":-77.544027,
    "iso:country":"US",
    "sg:address":"3103 Comet Rd",
    "sg:city":"Richmond",
    "sg:classifiers":[
        {
            "category":"Wholesale",
            "subcategory":"Auto Parts",
            "type":"Manufacturing & Wholesale Goods"
        }
    ],
    "sg:owner":"simplegeo",
    "sg:phone":"+1 804 353 7819",
    "sg:postcode":"23294",
    "sg:province":"VA",
    "src:geom":"simplegeo",
    "wof:belongsto":[],
    "wof:breaches":[],
    "wof:concordances":{
        "sg:id":"SG_50TDjMGDV7RF6rbdTijTeZ_37.627787_-77.544027@1294252573"
    },
    "wof:country":"US",
    "wof:created":1461906479,
    "wof:geomhash":"6907586f61d2585ef36a3c2aac80b875",
    "wof:hierarchy":[],
    "wof:id":739394715,
    "wof:lastmodified":1461906479,
    "wof:name":"Cost Plus Auto Parts",
    "wof:parent_id":-1,
    "wof:placetype":"venue",
    "wof:superseded_by":[],
    "wof:supersedes":[],
    "wof:tags":[]
},
  "bbox": [
    -77.544027,
    37.627787,
    -77.544027,
    37.627787
],
  "geometry": {"coordinates":[-77.544027,37.627787],"type":"Point"}
}