{
  "id": 723201971,
  "type": "Feature",
  "properties": {
    "edtf:cessation":"uuuu",
    "edtf:inception":"uuuu",
    "geom:area":0.0,
    "geom:bbox":"-76.932253,38.142139,-76.932253,38.142139",
    "geom:latitude":38.142139,
    "geom:longitude":-76.932253,
    "iso:country":"US",
    "sg:address":"1720 Grants Hill Church Rd",
    "sg:city":"Montross",
    "sg:classifiers":[
        {
            "category":"Retail",
            "subcategory":"Auto Repair",
            "type":"Services"
        }
    ],
    "sg:owner":"simplegeo",
    "sg:phone":"+1 804 224 2445",
    "sg:postcode":"22520",
    "sg:province":"VA",
    "sg:tags":[
        "repairing",
        "automobile"
    ],
    "src:geom":"simplegeo",
    "wof:belongsto":[],
    "wof:breaches":[],
    "wof:concordances":{
        "sg:id":"SG_5AkN3Hj4JzJRNyZ7lVGrwA_38.142139_-76.932253@1294252573"
    },
    "wof:country":"US",
    "wof:created":1461897112,
    "wof:geomhash":"a1cc9d5b2dccba257101c529345aa7e1",
    "wof:hierarchy":[],
    "wof:id":723201971,
    "wof:lastmodified":1461897112,
    "wof:name":"PC Garage",
    "wof:parent_id":-1,
    "wof:placetype":"venue",
    "wof:superseded_by":[],
    "wof:supersedes":[],
    "wof:tags":[
        "repairing",
        "automobile"
    ]
},
  "bbox": [
    -76.932253,
    38.142139,
    -76.932253,
    38.142139
],
  "geometry": {"coordinates":[-76.932253,38.142139],"type":"Point"}
}