{
  "id": 723326291,
  "type": "Feature",
  "properties": {
    "edtf:cessation":"uuuu",
    "edtf:inception":"uuuu",
    "geom:area":0.0,
    "geom:bbox":"-77.44528,37.543589,-77.44528,37.543589",
    "geom:latitude":37.543589,
    "geom:longitude":-77.44528,
    "iso:country":"US",
    "sg:address":"1 W Main St",
    "sg:city":"Richmond",
    "sg:classifiers":[
        {
            "category":"Recreation",
            "subcategory":"",
            "type":"Entertainment"
        }
    ],
    "sg:owner":"simplegeo",
    "sg:phone":"+1 804 340 0116",
    "sg:postcode":"23220",
    "sg:province":"VA",
    "src:geom":"simplegeo",
    "wof:belongsto":[],
    "wof:breaches":[],
    "wof:concordances":{
        "sg:id":"SG_3rRvTzQXYSJqzna6zlQrSG_37.543589_-77.445280@1294252573"
    },
    "wof:country":"US",
    "wof:created":1461899562,
    "wof:geomhash":"08e1e67265701f0ede66b4c3f33d9f15",
    "wof:hierarchy":[],
    "wof:id":723326291,
    "wof:lastmodified":1461899562,
    "wof:name":"Aikido In The Fan",
    "wof:parent_id":-1,
    "wof:placetype":"venue",
    "wof:superseded_by":[],
    "wof:supersedes":[],
    "wof:tags":[]
},
  "bbox": [
    -77.44528,
    37.543589,
    -77.44528,
    37.543589
],
  "geometry": {"coordinates":[-77.44528,37.543589],"type":"Point"}
}