{
  "id": 723393077,
  "type": "Feature",
  "properties": {
    "edtf:cessation":"uuuu",
    "edtf:inception":"uuuu",
    "geom:area":0.0,
    "geom:bbox":"-77.414563,37.206342,-77.414563,37.206342",
    "geom:latitude":37.206342,
    "geom:longitude":-77.414563,
    "iso:country":"US",
    "sg:address":"22 Edmonds Ave",
    "sg:city":"Petersburg",
    "sg:classifiers":[
        {
            "category":"Social Services",
            "subcategory":"",
            "type":"Services"
        }
    ],
    "sg:owner":"simplegeo",
    "sg:phone":"+1 804 733 9958",
    "sg:postcode":"23803",
    "sg:province":"VA",
    "sg:tags":[
        "pregnancy",
        "counseling",
        "information"
    ],
    "src:geom":"simplegeo",
    "wof:belongsto":[],
    "wof:breaches":[],
    "wof:concordances":{
        "sg:id":"SG_7kW1HmkBw89HMzByEA6duh_37.206342_-77.414563@1294252573"
    },
    "wof:country":"US",
    "wof:created":1461900838,
    "wof:geomhash":"c76c8d29b906737f36410ad7dfe134fb",
    "wof:hierarchy":[],
    "wof:id":723393077,
    "wof:lastmodified":1461900838,
    "wof:name":"Appomattox Pregnancy Issues",
    "wof:parent_id":-1,
    "wof:placetype":"venue",
    "wof:superseded_by":[],
    "wof:supersedes":[],
    "wof:tags":[
        "pregnancy",
        "counseling",
        "information"
    ]
},
  "bbox": [
    -77.414563,
    37.206342,
    -77.414563,
    37.206342
],
  "geometry": {"coordinates":[-77.414563,37.206342],"type":"Point"}
}