{
  "id": 739505329,
  "type": "Feature",
  "properties": {
    "edtf:cessation":"uuuu",
    "edtf:inception":"uuuu",
    "geom:area":0.0,
    "geom:bbox":"-78.401186,37.274389,-78.401186,37.274389",
    "geom:latitude":37.274389,
    "geom:longitude":-78.401186,
    "iso:country":"US",
    "sg:address":"2005 S Main St",
    "sg:city":"Farmville",
    "sg:classifiers":[
        {
            "category":"Restaurant",
            "subcategory":"",
            "type":"Food & Drink"
        }
    ],
    "sg:owner":"simplegeo",
    "sg:phone":"+1 434 392 7509",
    "sg:postcode":"23901",
    "sg:province":"VA",
    "src:geom":"simplegeo",
    "wof:belongsto":[],
    "wof:breaches":[],
    "wof:concordances":{
        "sg:id":"SG_4CzwCqiN9cdoDXfvsmyNbH_37.274389_-78.401186@1294252573"
    },
    "wof:country":"US",
    "wof:created":1461908525,
    "wof:geomhash":"c66d39ee6a96ba988c6e1f60c73747a6",
    "wof:hierarchy":[],
    "wof:id":739505329,
    "wof:lastmodified":1461908525,
    "wof:name":"Arby's",
    "wof:parent_id":-1,
    "wof:placetype":"venue",
    "wof:superseded_by":[],
    "wof:supersedes":[],
    "wof:tags":[]
},
  "bbox": [
    -78.401186,
    37.274389,
    -78.401186,
    37.274389
],
  "geometry": {"coordinates":[-78.401186,37.274389],"type":"Point"}
}