{
  "id": 739610679,
  "type": "Feature",
  "properties": {
    "edtf:cessation":"uuuu",
    "edtf:inception":"uuuu",
    "geom:area":0.0,
    "geom:bbox":"-77.605755,38.79626,-77.605755,38.79626",
    "geom:latitude":38.79626,
    "geom:longitude":-77.605755,
    "iso:country":"US",
    "sg:address":"13241 Gateway Center Dr",
    "sg:city":"Gainesville",
    "sg:classifiers":[
        {
            "category":"Shopping",
            "subcategory":"Pets & Pet Supplies",
            "type":"Retail Goods"
        }
    ],
    "sg:owner":"simplegeo",
    "sg:phone":"+1 571 248 4300",
    "sg:postcode":"20155",
    "sg:province":"VA",
    "sg:website":"www.petsmart.com",
    "src:geom":"simplegeo",
    "wof:belongsto":[],
    "wof:breaches":[],
    "wof:concordances":{
        "sg:id":"SG_11nkIwRuoQ9X0PgXjufMcQ_38.796260_-77.605755@1303262496"
    },
    "wof:country":"US",
    "wof:created":1461910613,
    "wof:geomhash":"133c9611c2623d46a222160bc82d55fc",
    "wof:hierarchy":[],
    "wof:id":739610679,
    "wof:lastmodified":1461910613,
    "wof:name":"Petsmart",
    "wof:parent_id":-1,
    "wof:placetype":"venue",
    "wof:superseded_by":[],
    "wof:supersedes":[],
    "wof:tags":[]
},
  "bbox": [
    -77.605755,
    38.79626,
    -77.605755,
    38.79626
],
  "geometry": {"coordinates":[-77.605755,38.79626],"type":"Point"}
}