{
  "id": 739302985,
  "type": "Feature",
  "properties": {
    "edtf:cessation":"uuuu",
    "edtf:inception":"uuuu",
    "geom:area":0.0,
    "geom:bbox":"-80.741032,37.330192,-80.741032,37.330192",
    "geom:latitude":37.330192,
    "geom:longitude":-80.741032,
    "iso:country":"US",
    "sg:address":"621 Morris Ave",
    "sg:city":"Pearisburg",
    "sg:classifiers":[
        {
            "category":"Organizations",
            "subcategory":"Religious Organization",
            "type":"Services"
        }
    ],
    "sg:owner":"simplegeo",
    "sg:phone":"+1 540 921 3901",
    "sg:postcode":"24134",
    "sg:province":"VA",
    "sg:tags":[
        "church"
    ],
    "src:geom":"simplegeo",
    "wof:belongsto":[],
    "wof:breaches":[],
    "wof:concordances":{
        "sg:id":"SG_7DZgvT5cKc2F7LKLPCHUQm_37.330192_-80.741032@1294252573"
    },
    "wof:country":"US",
    "wof:created":1461904633,
    "wof:geomhash":"a59226837dc35a53aa049a76a7f941f1",
    "wof:hierarchy":[],
    "wof:id":739302985,
    "wof:lastmodified":1461904633,
    "wof:name":"Church Of God Of Prophecy",
    "wof:parent_id":-1,
    "wof:placetype":"venue",
    "wof:superseded_by":[],
    "wof:supersedes":[],
    "wof:tags":[
        "church"
    ]
},
  "bbox": [
    -80.741032,
    37.330192,
    -80.741032,
    37.330192
],
  "geometry": {"coordinates":[-80.741032,37.330192],"type":"Point"}
}