{
  "id": 723003551,
  "type": "Feature",
  "properties": {
    "edtf:cessation":"uuuu",
    "edtf:inception":"uuuu",
    "geom:area":0.0,
    "geom:bbox":"-77.574705,37.445551,-77.574705,37.445551",
    "geom:latitude":37.445551,
    "geom:longitude":-77.574705,
    "iso:country":"US",
    "sg:address":"9601 Hull Street Rd",
    "sg:city":"Richmond",
    "sg:classifiers":[
        {
            "category":"Social Services",
            "subcategory":"Child Care",
            "type":"Services"
        }
    ],
    "sg:owner":"simplegeo",
    "sg:phone":"+1 804 276 8194",
    "sg:postcode":"23236",
    "sg:province":"VA",
    "sg:tags":[
        "kindergarten",
        "academic",
        "school",
        "day"
    ],
    "src:geom":"simplegeo",
    "wof:belongsto":[],
    "wof:breaches":[],
    "wof:concordances":{
        "sg:id":"SG_3P4gMWJIDKVhTJpE6yqeky_37.445551_-77.574705@1294252573"
    },
    "wof:country":"US",
    "wof:created":1461893010,
    "wof:geomhash":"5a1bc0759c4566949a5af0403e57811b",
    "wof:hierarchy":[],
    "wof:id":723003551,
    "wof:lastmodified":1461893010,
    "wof:name":"Giving Tree Pre School",
    "wof:parent_id":420546613,
    "wof:placetype":"venue",
    "wof:superseded_by":[],
    "wof:supersedes":[],
    "wof:tags":[
        "kindergarten",
        "academic",
        "school",
        "day"
    ]
},
  "bbox": [
    -77.574705,
    37.445551,
    -77.574705,
    37.445551
],
  "geometry": {"coordinates":[-77.57470499999999,37.445551],"type":"Point"}
}