{
  "id": 722844043,
  "type": "Feature",
  "properties": {
    "edtf:cessation":"uuuu",
    "edtf:inception":"uuuu",
    "geom:area":0.0,
    "geom:bbox":"-77.43393,37.585165,-77.43393,37.585165",
    "geom:latitude":37.585165,
    "geom:longitude":-77.43393,
    "iso:country":"US",
    "sg:address":"10 E Laburnum Ave",
    "sg:city":"Richmond",
    "sg:classifiers":[
        {
            "category":"Restaurant",
            "subcategory":"",
            "type":"Food & Drink"
        }
    ],
    "sg:owner":"simplegeo",
    "sg:phone":"+1 804 329 6709",
    "sg:postcode":"23222",
    "sg:province":"VA",
    "sg:tags":[
        "eating"
    ],
    "src:geom":"simplegeo",
    "wof:belongsto":[],
    "wof:breaches":[],
    "wof:concordances":{
        "sg:id":"SG_2KwnyY1lmbQWlJtNgCMgc7_37.585165_-77.433930@1294252573"
    },
    "wof:country":"US",
    "wof:created":1461889701,
    "wof:geomhash":"64f2388449e4e6b789f626ccde32d05d",
    "wof:hierarchy":[],
    "wof:id":722844043,
    "wof:lastmodified":1461889701,
    "wof:name":"Ho Ho Carry Out Restaurant",
    "wof:parent_id":-1,
    "wof:placetype":"venue",
    "wof:superseded_by":[],
    "wof:supersedes":[],
    "wof:tags":[
        "eating"
    ]
},
  "bbox": [
    -77.43393,
    37.585165,
    -77.43393,
    37.585165
],
  "geometry": {"coordinates":[-77.43393,37.585165],"type":"Point"}
}