{
  "id": 722978473,
  "type": "Feature",
  "properties": {
    "edtf:cessation":"uuuu",
    "edtf:inception":"uuuu",
    "geom:area":0.0,
    "geom:bbox":"-77.644371,37.63282,-77.644371,37.63282",
    "geom:latitude":37.63282,
    "geom:longitude":-77.644371,
    "iso:country":"US",
    "sg:address":"2611 Stoney Ct",
    "sg:city":"Richmond",
    "sg:classifiers":[
        {
            "category":"Professional",
            "subcategory":"Business Services",
            "type":"Services"
        }
    ],
    "sg:owner":"simplegeo",
    "sg:phone":"+1 804 360 1754",
    "sg:postcode":"23233",
    "sg:province":"VA",
    "src:geom":"simplegeo",
    "wof:belongsto":[],
    "wof:breaches":[],
    "wof:concordances":{
        "sg:id":"SG_6pLxwQYcOLVnaGSWVCgQWT_37.632820_-77.644371@1294252573"
    },
    "wof:country":"US",
    "wof:created":1461892425,
    "wof:geomhash":"e271e125ac0143bb61056a25bcf7fc68",
    "wof:hierarchy":[],
    "wof:id":722978473,
    "wof:lastmodified":1461892425,
    "wof:name":"Ra Designs",
    "wof:parent_id":-1,
    "wof:placetype":"venue",
    "wof:superseded_by":[],
    "wof:supersedes":[],
    "wof:tags":[]
},
  "bbox": [
    -77.644371,
    37.63282,
    -77.644371,
    37.63282
],
  "geometry": {"coordinates":[-77.64437100000001,37.63282],"type":"Point"}
}