{
  "id": 739274251,
  "type": "Feature",
  "properties": {
    "edtf:cessation":"uuuu",
    "edtf:inception":"uuuu",
    "geom:area":0.0,
    "geom:bbox":"-76.948219,36.669383,-76.948219,36.669383",
    "geom:latitude":36.669383,
    "geom:longitude":-76.948219,
    "iso:country":"US",
    "sg:address":"1421 Armory Dr",
    "sg:city":"Franklin",
    "sg:classifiers":[
        {
            "category":"Manufacturing",
            "subcategory":"Wood Products",
            "type":"Manufacturing & Wholesale Goods"
        }
    ],
    "sg:owner":"simplegeo",
    "sg:phone":"+1 757 562 3239",
    "sg:postcode":"23851",
    "sg:province":"VA",
    "sg:tags":[
        "pallet",
        "skid"
    ],
    "src:geom":"simplegeo",
    "wof:belongsto":[],
    "wof:breaches":[],
    "wof:concordances":{
        "sg:id":"SG_613SFGL00XcCkSBp4e2Inc_36.669383_-76.948219@1294252573"
    },
    "wof:country":"US",
    "wof:created":1461904015,
    "wof:geomhash":"f4d86f581d9cf70cdfef97605aa125d8",
    "wof:hierarchy":[],
    "wof:id":739274251,
    "wof:lastmodified":1461904015,
    "wof:name":"Blackwater Pallet Co",
    "wof:parent_id":-1,
    "wof:placetype":"venue",
    "wof:superseded_by":[],
    "wof:supersedes":[],
    "wof:tags":[
        "pallet",
        "skid"
    ]
},
  "bbox": [
    -76.948219,
    36.669383,
    -76.948219,
    36.669383
],
  "geometry": {"coordinates":[-76.94821899999999,36.669383],"type":"Point"}
}