{
  "id": 722946587,
  "type": "Feature",
  "properties": {
    "edtf:cessation":"uuuu",
    "edtf:inception":"uuuu",
    "geom:area":0.0,
    "geom:bbox":"-77.360946,37.517069,-77.360946,37.517069",
    "geom:latitude":37.517069,
    "geom:longitude":-77.360946,
    "iso:country":"US",
    "sg:address":"5220 Klockner Dr",
    "sg:city":"Richmond",
    "sg:classifiers":[
        {
            "category":"Manufacturing",
            "subcategory":"Soap",
            "type":"Manufacturing & Wholesale Goods"
        }
    ],
    "sg:owner":"simplegeo",
    "sg:phone":"+1 804 226 3787",
    "sg:postcode":"23231",
    "sg:province":"VA",
    "sg:tags":[
        "detergent",
        "mfg"
    ],
    "src:geom":"simplegeo",
    "wof:belongsto":[],
    "wof:breaches":[],
    "wof:concordances":{
        "sg:id":"SG_1YyLCcfCF0sXDOHZDqreb7_37.517069_-77.360946@1294252573"
    },
    "wof:country":"US",
    "wof:created":1461891763,
    "wof:geomhash":"45ec02bf6ce9d6ee3ac18c5003c3abdb",
    "wof:hierarchy":[],
    "wof:id":722946587,
    "wof:lastmodified":1461891763,
    "wof:name":"Chem Station of Virginia",
    "wof:parent_id":-1,
    "wof:placetype":"venue",
    "wof:superseded_by":[],
    "wof:supersedes":[],
    "wof:tags":[
        "detergent",
        "mfg"
    ]
},
  "bbox": [
    -77.360946,
    37.517069,
    -77.360946,
    37.517069
],
  "geometry": {"coordinates":[-77.360946,37.517069],"type":"Point"}
}