{
  "id": 739433891,
  "type": "Feature",
  "properties": {
    "edtf:cessation":"uuuu",
    "edtf:inception":"uuuu",
    "geom:area":0.0,
    "geom:bbox":"-77.617557,38.262464,-77.617557,38.262464",
    "geom:latitude":38.262464,
    "geom:longitude":-77.617557,
    "iso:country":"US",
    "sg:address":"9102 Snowy Egret Ct",
    "sg:city":"Spotsylvania",
    "sg:classifiers":[
        {
            "category":"Building & Trades",
            "subcategory":"Construction",
            "type":"Services"
        }
    ],
    "sg:owner":"simplegeo",
    "sg:phone":"+1 540 786 4835",
    "sg:postcode":"22553",
    "sg:province":"VA",
    "sg:tags":[
        "house"
    ],
    "src:geom":"simplegeo",
    "wof:belongsto":[],
    "wof:breaches":[],
    "wof:concordances":{
        "sg:id":"SG_5w7eQgbrxXVbltcoflSEG9_38.262464_-77.617557@1294252573"
    },
    "wof:country":"US",
    "wof:created":1461907242,
    "wof:geomhash":"652e135f638cd13db5da1e10e9f8c612",
    "wof:hierarchy":[],
    "wof:id":739433891,
    "wof:lastmodified":1461907242,
    "wof:name":"Crisafulli Custom Homes",
    "wof:parent_id":-1,
    "wof:placetype":"venue",
    "wof:superseded_by":[],
    "wof:supersedes":[],
    "wof:tags":[
        "house"
    ]
},
  "bbox": [
    -77.617557,
    38.262464,
    -77.617557,
    38.262464
],
  "geometry": {"coordinates":[-77.61755700000001,38.262464],"type":"Point"}
}