{
  "id": 723201575,
  "type": "Feature",
  "properties": {
    "edtf:cessation":"uuuu",
    "edtf:inception":"uuuu",
    "geom:area":0.0,
    "geom:bbox":"-77.401503,37.581094,-77.401503,37.581094",
    "geom:latitude":37.581094,
    "geom:longitude":-77.401503,
    "iso:country":"US",
    "sg:address":"3911 Austin Ave",
    "sg:city":"Richmond",
    "sg:classifiers":[
        {
            "category":"Organizations",
            "subcategory":"Religious Organization",
            "type":"Services"
        }
    ],
    "sg:owner":"simplegeo",
    "sg:phone":"+1 804 329 0070",
    "sg:postcode":"23222",
    "sg:province":"VA",
    "sg:tags":[
        "church"
    ],
    "src:geom":"simplegeo",
    "wof:belongsto":[],
    "wof:breaches":[],
    "wof:concordances":{
        "sg:id":"SG_7Cwtd7UvTp7tspGWPmWVei_37.581094_-77.401503@1294252573"
    },
    "wof:country":"US",
    "wof:created":1461897105,
    "wof:geomhash":"288b8a56c819fc56b04b6a413ae03276",
    "wof:hierarchy":[],
    "wof:id":723201575,
    "wof:lastmodified":1461897105,
    "wof:name":"New Dimension Christian",
    "wof:parent_id":-1,
    "wof:placetype":"venue",
    "wof:superseded_by":[],
    "wof:supersedes":[],
    "wof:tags":[
        "church"
    ]
},
  "bbox": [
    -77.401503,
    37.581094,
    -77.401503,
    37.581094
],
  "geometry": {"coordinates":[-77.40150300000001,37.581094],"type":"Point"}
}