{
  "id": 723247747,
  "type": "Feature",
  "properties": {
    "edtf:cessation":"uuuu",
    "edtf:inception":"uuuu",
    "geom:area":0.0,
    "geom:bbox":"-77.437018,38.87069,-77.437018,38.87069",
    "geom:latitude":38.87069,
    "geom:longitude":-77.437018,
    "iso:country":"US",
    "sg:address":"14151 Park Meadow Dr",
    "sg:city":"Chantilly",
    "sg:classifiers":[
        {
            "category":"Professional",
            "subcategory":"Management & Consulting",
            "type":"Services"
        }
    ],
    "sg:owner":"simplegeo",
    "sg:phone":"+1 703 679 4555",
    "sg:postcode":"20151",
    "sg:province":"VA",
    "src:geom":"simplegeo",
    "wof:belongsto":[],
    "wof:breaches":[],
    "wof:concordances":{
        "sg:id":"SG_4zViIiFqIMROekYbiybH3R_38.870690_-77.437018@1294252573"
    },
    "wof:country":"US",
    "wof:created":1461898074,
    "wof:geomhash":"0b9a774fd9f395dc937463b98e8afb7d",
    "wof:hierarchy":[],
    "wof:id":723247747,
    "wof:lastmodified":1461898074,
    "wof:name":"Michael L Lustig",
    "wof:parent_id":-1,
    "wof:placetype":"venue",
    "wof:superseded_by":[],
    "wof:supersedes":[],
    "wof:tags":[]
},
  "bbox": [
    -77.437018,
    38.87069,
    -77.437018,
    38.87069
],
  "geometry": {"coordinates":[-77.43701799999999,38.87069],"type":"Point"}
}