{
  "id": 723232517,
  "type": "Feature",
  "properties": {
    "edtf:cessation":"uuuu",
    "edtf:inception":"uuuu",
    "geom:area":0.0,
    "geom:bbox":"-77.052975,38.803689,-77.052975,38.803689",
    "geom:latitude":38.803689,
    "geom:longitude":-77.052975,
    "iso:country":"US",
    "sg:address":"221 S Fayette St",
    "sg:city":"Alexandria",
    "sg:classifiers":[
        {
            "category":"Professional",
            "subcategory":"Lawyer & Legal Services",
            "type":"Services"
        }
    ],
    "sg:owner":"simplegeo",
    "sg:phone":"+1 703 548 6600",
    "sg:postcode":"22314",
    "sg:province":"VA",
    "sg:tags":[
        "attorney"
    ],
    "src:geom":"simplegeo",
    "wof:belongsto":[],
    "wof:breaches":[],
    "wof:concordances":{
        "sg:id":"SG_4Mlh0WLYAi4HRHbE1Tp8hv_38.803689_-77.052975@1294252573"
    },
    "wof:country":"US",
    "wof:created":1461897757,
    "wof:geomhash":"0243226f92a7d68fb1a92dcb1d62151d",
    "wof:hierarchy":[],
    "wof:id":723232517,
    "wof:lastmodified":1461897757,
    "wof:name":"Yvonne Weight",
    "wof:parent_id":-1,
    "wof:placetype":"venue",
    "wof:superseded_by":[],
    "wof:supersedes":[],
    "wof:tags":[
        "attorney"
    ]
},
  "bbox": [
    -77.052975,
    38.803689,
    -77.052975,
    38.803689
],
  "geometry": {"coordinates":[-77.052975,38.803689],"type":"Point"}
}