{
  "id": 739603459,
  "type": "Feature",
  "properties": {
    "edtf:cessation":"uuuu",
    "edtf:inception":"uuuu",
    "geom:area":0.0,
    "geom:bbox":"-77.512887,38.779198,-77.512887,38.779198",
    "geom:latitude":38.779198,
    "geom:longitude":-77.512887,
    "iso:country":"US",
    "sg:address":"10670 Crestwood Dr Ste B",
    "sg:city":"Manassas",
    "sg:classifiers":[
        {
            "category":"Health Services",
            "subcategory":"Dentist",
            "type":"Services"
        }
    ],
    "sg:owner":"simplegeo",
    "sg:phone":"+1 703 361 0555",
    "sg:postcode":"20109",
    "sg:province":"VA",
    "src:geom":"simplegeo",
    "wof:belongsto":[],
    "wof:breaches":[],
    "wof:concordances":{
        "sg:id":"SG_577snyvC8qWfwDfawKj2L4_38.779198_-77.512887@1303262495"
    },
    "wof:country":"US",
    "wof:created":1461910484,
    "wof:geomhash":"bfe9f9a42cbd136a472e0334c87cddf0",
    "wof:hierarchy":[],
    "wof:id":739603459,
    "wof:lastmodified":1461910484,
    "wof:name":"Bisson Ruby Ann E DMD PC",
    "wof:parent_id":-1,
    "wof:placetype":"venue",
    "wof:superseded_by":[],
    "wof:supersedes":[],
    "wof:tags":[]
},
  "bbox": [
    -77.512887,
    38.779198,
    -77.512887,
    38.779198
],
  "geometry": {"coordinates":[-77.51288700000001,38.779198],"type":"Point"}
}