{
  "id": 739602299,
  "type": "Feature",
  "properties": {
    "edtf:cessation":"uuuu",
    "edtf:inception":"uuuu",
    "geom:area":0.0,
    "geom:bbox":"-77.510803,38.800701,-77.510803,38.800701",
    "geom:latitude":38.800701,
    "geom:longitude":-77.510803,
    "iso:country":"US",
    "sg:address":"10501 Balls Ford Rd",
    "sg:city":"Manassas",
    "sg:classifiers":[
        {
            "category":"Organizations",
            "subcategory":"Religious Organization",
            "type":"Services"
        }
    ],
    "sg:owner":"simplegeo",
    "sg:phone":"+1 703 330 0881",
    "sg:postcode":"20109",
    "sg:province":"VA",
    "sg:website":"www.dcclc.org",
    "src:geom":"simplegeo",
    "wof:belongsto":[],
    "wof:breaches":[],
    "wof:concordances":{
        "sg:id":"SG_4Bjpvb7lPL4b6k8XALq0W0_38.800701_-77.510803@1303262495"
    },
    "wof:country":"US",
    "wof:created":1461910456,
    "wof:geomhash":"7edfee7d29fec51054597283a7310fd2",
    "wof:hierarchy":[],
    "wof:id":739602299,
    "wof:lastmodified":1461910456,
    "wof:name":"Washington Christian Life Center",
    "wof:parent_id":-1,
    "wof:placetype":"venue",
    "wof:superseded_by":[],
    "wof:supersedes":[],
    "wof:tags":[]
},
  "bbox": [
    -77.510803,
    38.800701,
    -77.510803,
    38.800701
],
  "geometry": {"coordinates":[-77.510803,38.800701],"type":"Point"}
}