{
  "id": 723285401,
  "type": "Feature",
  "properties": {
    "edtf:cessation":"uuuu",
    "edtf:inception":"uuuu",
    "geom:area":0.0,
    "geom:bbox":"-77.579494,37.658406,-77.579494,37.658406",
    "geom:latitude":37.658406,
    "geom:longitude":-77.579494,
    "iso:country":"US",
    "sg:address":"4501 Highwoods Pkwy",
    "sg:city":"Glen Allen",
    "sg:classifiers":[
        {
            "category":"Insurance",
            "subcategory":"Insurance Agent",
            "type":"Services"
        }
    ],
    "sg:owner":"simplegeo",
    "sg:phone":"+1 804 217 9990",
    "sg:postcode":"23060",
    "sg:province":"VA",
    "src:geom":"simplegeo",
    "wof:belongsto":[],
    "wof:breaches":[],
    "wof:concordances":{
        "sg:id":"SG_3u5Vrtjcu1wmxmQ76QTnbd_37.658406_-77.579494@1294252573"
    },
    "wof:country":"US",
    "wof:created":1461898782,
    "wof:geomhash":"6c9d7f61a96823884ed7ccfd46058eb5",
    "wof:hierarchy":[],
    "wof:id":723285401,
    "wof:lastmodified":1461898782,
    "wof:name":"AIPSO",
    "wof:parent_id":-1,
    "wof:placetype":"venue",
    "wof:superseded_by":[],
    "wof:supersedes":[],
    "wof:tags":[]
},
  "bbox": [
    -77.579494,
    37.658406,
    -77.579494,
    37.658406
],
  "geometry": {"coordinates":[-77.579494,37.658406],"type":"Point"}
}