{
  "id": 722896423,
  "type": "Feature",
  "properties": {
    "edtf:cessation":"uuuu",
    "edtf:inception":"uuuu",
    "geom:area":0.0,
    "geom:bbox":"-77.534877,38.262783,-77.534877,38.262783",
    "geom:latitude":38.262783,
    "geom:longitude":-77.534877,
    "iso:country":"US",
    "sg:address":"11179 Sussex Ct",
    "sg:city":"Fredericksburg",
    "sg:classifiers":[
        {
            "category":"Manufacturing",
            "subcategory":"Printing",
            "type":"Manufacturing & Wholesale Goods"
        }
    ],
    "sg:owner":"simplegeo",
    "sg:phone":"+1 540 898 9068",
    "sg:postcode":"22407",
    "sg:province":"VA",
    "sg:tags":[
        "screen"
    ],
    "src:geom":"simplegeo",
    "wof:belongsto":[],
    "wof:breaches":[],
    "wof:concordances":{
        "sg:id":"SG_6AJAW1y9ytZ7aXQMikhYH8_38.262783_-77.534877@1294252573"
    },
    "wof:country":"US",
    "wof:created":1461890721,
    "wof:geomhash":"d1258e424565a22f2be1e0ab20db02ae",
    "wof:hierarchy":[],
    "wof:id":722896423,
    "wof:lastmodified":1461890721,
    "wof:name":"G & M Custom Graphics",
    "wof:parent_id":-1,
    "wof:placetype":"venue",
    "wof:superseded_by":[],
    "wof:supersedes":[],
    "wof:tags":[
        "screen"
    ]
},
  "bbox": [
    -77.534877,
    38.262783,
    -77.534877,
    38.262783
],
  "geometry": {"coordinates":[-77.53487699999999,38.262783],"type":"Point"}
}