{
  "id": 722618971,
  "type": "Feature",
  "properties": {
    "edtf:cessation":"uuuu",
    "edtf:inception":"uuuu",
    "geom:area":0.0,
    "geom:bbox":"-77.436631,38.775008,-77.436631,38.775008",
    "geom:latitude":38.775008,
    "geom:longitude":-77.436631,
    "iso:country":"US",
    "sg:address":"9203 Enterprise Ct",
    "sg:city":"Manassas Park",
    "sg:classifiers":[
        {
            "category":"Retail",
            "subcategory":"Repair Shop",
            "type":"Services"
        },
        {
            "category":"Building & Trades",
            "subcategory":"Plumbing",
            "type":"Services"
        }
    ],
    "sg:owner":"simplegeo",
    "sg:phone":"+1 703 802 1626",
    "sg:postcode":"20111",
    "sg:province":"VA",
    "sg:tags":[
        "bo",
        "heating",
        "contractor",
        "water",
        "hot",
        "boiler",
        "mechanical"
    ],
    "src:geom":"simplegeo",
    "wof:belongsto":[],
    "wof:breaches":[],
    "wof:concordances":{
        "sg:id":"SG_3vzNwEVm9ZlX13RS4qOwO3_38.775008_-77.436631@1294252573"
    },
    "wof:country":"US",
    "wof:created":1461885343,
    "wof:geomhash":"ba0f7248403f32329387cecb4f56bc34",
    "wof:hierarchy":[],
    "wof:id":722618971,
    "wof:lastmodified":1461885343,
    "wof:name":"Precision Mechanical Service",
    "wof:parent_id":-1,
    "wof:placetype":"venue",
    "wof:superseded_by":[],
    "wof:supersedes":[],
    "wof:tags":[
        "bo",
        "heating",
        "contractor",
        "water",
        "hot",
        "boiler",
        "mechanical"
    ]
},
  "bbox": [
    -77.436631,
    38.775008,
    -77.436631,
    38.775008
],
  "geometry": {"coordinates":[-77.43663100000001,38.775008],"type":"Point"}
}