{
  "id": 739515993,
  "type": "Feature",
  "properties": {
    "edtf:cessation":"uuuu",
    "edtf:inception":"uuuu",
    "geom:area":0.0,
    "geom:bbox":"-77.562211,37.609686,-77.562211,37.609686",
    "geom:latitude":37.609686,
    "geom:longitude":-77.562211,
    "iso:country":"US",
    "sg:address":"9012 Three Chopt Rd",
    "sg:city":"Richmond",
    "sg:classifiers":[
        {
            "category":"Banks & Credit Unions",
            "subcategory":"Bank",
            "type":"Services"
        }
    ],
    "sg:owner":"simplegeo",
    "sg:phone":"+1 804 282 7527",
    "sg:postcode":"23229",
    "sg:province":"VA",
    "sg:tags":[
        "national",
        "commercial"
    ],
    "src:geom":"simplegeo",
    "wof:belongsto":[],
    "wof:breaches":[],
    "wof:concordances":{
        "sg:id":"SG_66Vdb0dGQhx7AtJI2UacSZ_37.609686_-77.562211@1294252573"
    },
    "wof:country":"US",
    "wof:created":1461908722,
    "wof:geomhash":"7c8d3dd21dc5bebd857cc9af40dc351c",
    "wof:hierarchy":[],
    "wof:id":739515993,
    "wof:lastmodified":1461908722,
    "wof:name":"Farmers Insurance",
    "wof:parent_id":-1,
    "wof:placetype":"venue",
    "wof:superseded_by":[],
    "wof:supersedes":[],
    "wof:tags":[
        "national",
        "commercial"
    ]
},
  "bbox": [
    -77.562211,
    37.609686,
    -77.562211,
    37.609686
],
  "geometry": {"coordinates":[-77.562211,37.609686],"type":"Point"}
}