{
  "id": 723349333,
  "type": "Feature",
  "properties": {
    "edtf:cessation":"uuuu",
    "edtf:inception":"uuuu",
    "geom:area":0.0,
    "geom:bbox":"-77.575872,38.754075,-77.575872,38.754075",
    "geom:latitude":38.754075,
    "geom:longitude":-77.575872,
    "iso:country":"US",
    "sg:address":"9345 Linton Hall Rd",
    "sg:city":"Bristow",
    "sg:classifiers":[
        {
            "category":"Professional",
            "subcategory":"Accounting & Tax Preparation",
            "type":"Services"
        }
    ],
    "sg:owner":"simplegeo",
    "sg:phone":"+1 703 754 6577",
    "sg:postcode":"20136",
    "sg:province":"VA",
    "src:geom":"simplegeo",
    "wof:belongsto":[],
    "wof:breaches":[],
    "wof:concordances":{
        "sg:id":"SG_32nRkatYCBzjBlk6z7XZUV_38.754075_-77.575872@1294252573"
    },
    "wof:country":"US",
    "wof:created":1461899982,
    "wof:geomhash":"f941e73bbaa14b318607e0ba9c2e86f3",
    "wof:hierarchy":[],
    "wof:id":723349333,
    "wof:lastmodified":1461899982,
    "wof:name":"Barbara H Carne CPA",
    "wof:parent_id":-1,
    "wof:placetype":"venue",
    "wof:superseded_by":[],
    "wof:supersedes":[],
    "wof:tags":[]
},
  "bbox": [
    -77.575872,
    38.754075,
    -77.575872,
    38.754075
],
  "geometry": {"coordinates":[-77.575872,38.754075],"type":"Point"}
}