{
  "id": 722612469,
  "type": "Feature",
  "properties": {
    "edtf:cessation":"uuuu",
    "edtf:inception":"uuuu",
    "geom:area":0.0,
    "geom:bbox":"-78.110652,37.531182,-78.110652,37.531182",
    "geom:latitude":37.531182,
    "geom:longitude":-78.110652,
    "iso:country":"US",
    "sg:address":"6582 Blenheim Rd",
    "sg:city":"Powhatan",
    "sg:classifiers":[
        {
            "category":"Retail",
            "subcategory":"Animal Services",
            "type":"Services"
        }
    ],
    "sg:owner":"simplegeo",
    "sg:phone":"+1 804 492 3270",
    "sg:postcode":"23139",
    "sg:province":"VA",
    "src:geom":"simplegeo",
    "wof:belongsto":[],
    "wof:breaches":[],
    "wof:concordances":{
        "sg:id":"SG_5TuFr52FpxSUaxRtksyam0_37.531182_-78.110652@1294252573"
    },
    "wof:country":"US",
    "wof:created":1461885215,
    "wof:geomhash":"0be441a47be7f2bdf41fcc0b081960dc",
    "wof:hierarchy":[],
    "wof:id":722612469,
    "wof:lastmodified":1461885215,
    "wof:name":"Crystal Coast Kennels",
    "wof:parent_id":-1,
    "wof:placetype":"venue",
    "wof:superseded_by":[],
    "wof:supersedes":[],
    "wof:tags":[]
},
  "bbox": [
    -78.110652,
    37.531182,
    -78.110652,
    37.531182
],
  "geometry": {"coordinates":[-78.110652,37.531182],"type":"Point"}
}