{
  "id": 722909249,
  "type": "Feature",
  "properties": {
    "edtf:cessation":"uuuu",
    "edtf:inception":"uuuu",
    "geom:area":0.0,
    "geom:bbox":"-77.54279,39.083866,-77.54279,39.083866",
    "geom:latitude":39.083866,
    "geom:longitude":-77.54279,
    "iso:country":"US",
    "sg:address":"855 Santmyer Dr SE",
    "sg:city":"Leesburg",
    "sg:classifiers":[
        {
            "category":"Professional",
            "subcategory":"Computer Services",
            "type":"Services"
        }
    ],
    "sg:owner":"simplegeo",
    "sg:phone":"+1 703 771 7900",
    "sg:postcode":"20175",
    "sg:province":"VA",
    "sg:tags":[
        "information",
        "consulting",
        "technology"
    ],
    "src:geom":"simplegeo",
    "wof:belongsto":[],
    "wof:breaches":[],
    "wof:concordances":{
        "sg:id":"SG_3bNQBnwG6w0LtpGf3MaT9N_39.083866_-77.542790@1294252573"
    },
    "wof:country":"US",
    "wof:created":1461890972,
    "wof:geomhash":"a95520f63b9c1370784d4c985a19e8f0",
    "wof:hierarchy":[],
    "wof:id":722909249,
    "wof:lastmodified":1461890972,
    "wof:name":"Practical Technologies Ltd",
    "wof:parent_id":-1,
    "wof:placetype":"venue",
    "wof:superseded_by":[],
    "wof:supersedes":[],
    "wof:tags":[
        "information",
        "consulting",
        "technology"
    ]
},
  "bbox": [
    -77.54279,
    39.083866,
    -77.54279,
    39.083866
],
  "geometry": {"coordinates":[-77.54279,39.083866],"type":"Point"}
}