{
  "id": 723224419,
  "type": "Feature",
  "properties": {
    "edtf:cessation":"uuuu",
    "edtf:inception":"uuuu",
    "geom:area":0.0,
    "geom:bbox":"-77.607137,37.523913,-77.607137,37.523913",
    "geom:latitude":37.523913,
    "geom:longitude":-77.607137,
    "iso:country":"US",
    "sg:address":"11400 W Huguenot Rd",
    "sg:city":"Midlothian",
    "sg:classifiers":[
        {
            "category":"Restaurant",
            "subcategory":"",
            "type":"Food & Drink"
        }
    ],
    "sg:owner":"simplegeo",
    "sg:phone":"+1 804 897 9686",
    "sg:postcode":"23113",
    "sg:province":"VA",
    "sg:tags":[
        "eating"
    ],
    "src:geom":"simplegeo",
    "wof:belongsto":[],
    "wof:breaches":[],
    "wof:concordances":{
        "sg:id":"SG_14UOKpZUXC6cycsfEySjAI_37.523913_-77.607137@1294252573"
    },
    "wof:country":"US",
    "wof:created":1461897582,
    "wof:geomhash":"664cb60869ad0ea6195fcda715c68765",
    "wof:hierarchy":[],
    "wof:id":723224419,
    "wof:lastmodified":1461897582,
    "wof:name":"McAlisters Deli",
    "wof:parent_id":-1,
    "wof:placetype":"venue",
    "wof:superseded_by":[],
    "wof:supersedes":[],
    "wof:tags":[
        "eating"
    ]
},
  "bbox": [
    -77.607137,
    37.523913,
    -77.607137,
    37.523913
],
  "geometry": {"coordinates":[-77.60713699999999,37.523913],"type":"Point"}
}