{
  "id": 723199269,
  "type": "Feature",
  "properties": {
    "edtf:cessation":"uuuu",
    "edtf:inception":"uuuu",
    "geom:area":0.0,
    "geom:bbox":"-79.14391,37.415281,-79.14391,37.415281",
    "geom:latitude":37.415281,
    "geom:longitude":-79.14391,
    "iso:country":"US",
    "sg:address":"706 Church St",
    "sg:city":"Lynchburg",
    "sg:classifiers":[
        {
            "category":"Home & Garden",
            "subcategory":"Building Materials",
            "type":"Retail Goods"
        }
    ],
    "sg:owner":"simplegeo",
    "sg:phone":"+1 434 528 1719",
    "sg:postcode":"24504",
    "sg:province":"VA",
    "src:geom":"simplegeo",
    "wof:belongsto":[],
    "wof:breaches":[],
    "wof:concordances":{
        "sg:id":"SG_1LJCJ4ncse1mTg8dL4b1A5_37.415281_-79.143910@1294252573"
    },
    "wof:country":"US",
    "wof:created":1461897062,
    "wof:geomhash":"a3b865d5aec52583007649eb1e94b933",
    "wof:hierarchy":[],
    "wof:id":723199269,
    "wof:lastmodified":1461897062,
    "wof:name":"Ranack Quality Fencing",
    "wof:parent_id":-1,
    "wof:placetype":"venue",
    "wof:superseded_by":[],
    "wof:supersedes":[],
    "wof:tags":[]
},
  "bbox": [
    -79.14391,
    37.415281,
    -79.14391,
    37.415281
],
  "geometry": {"coordinates":[-79.14391000000001,37.415281],"type":"Point"}
}