{
  "id": 722849725,
  "type": "Feature",
  "properties": {
    "edtf:cessation":"uuuu",
    "edtf:inception":"uuuu",
    "geom:area":0.0,
    "geom:bbox":"-77.531025,39.026184,-77.531025,39.026184",
    "geom:latitude":39.026184,
    "geom:longitude":-77.531025,
    "iso:country":"US",
    "sg:address":"42475 Belmont Glen Pl",
    "sg:city":"Ashburn",
    "sg:classifiers":[
        {
            "category":"Shopping",
            "subcategory":"Gifts & Souvenirs",
            "type":"Retail Goods"
        }
    ],
    "sg:owner":"simplegeo",
    "sg:phone":"+1 703 723 2779",
    "sg:postcode":"20148",
    "sg:province":"VA",
    "src:geom":"simplegeo",
    "wof:belongsto":[],
    "wof:breaches":[],
    "wof:concordances":{
        "sg:id":"SG_6yOh85qgcwkSmUFUNGx1qo_39.026184_-77.531025@1294252573"
    },
    "wof:country":"US",
    "wof:created":1461889820,
    "wof:geomhash":"a90e852414379c50a5de2e33e965898a",
    "wof:hierarchy":[],
    "wof:id":722849725,
    "wof:lastmodified":1461889820,
    "wof:name":"Sweet Ritas",
    "wof:parent_id":-1,
    "wof:placetype":"venue",
    "wof:superseded_by":[],
    "wof:supersedes":[],
    "wof:tags":[]
},
  "bbox": [
    -77.531025,
    39.026184,
    -77.531025,
    39.026184
],
  "geometry": {"coordinates":[-77.531025,39.026184],"type":"Point"}
}