{
  "id": 723348245,
  "type": "Feature",
  "properties": {
    "edtf:cessation":"uuuu",
    "edtf:inception":"uuuu",
    "geom:area":0.0,
    "geom:bbox":"-77.340011,39.050855,-77.340011,39.050855",
    "geom:latitude":39.050855,
    "geom:longitude":-77.340011,
    "iso:country":"US",
    "sg:address":"11324 Stonehouse Pl",
    "sg:city":"Sterling",
    "sg:classifiers":[
        {
            "category":"Banks & Credit Unions",
            "subcategory":"Bank",
            "type":"Services"
        }
    ],
    "sg:owner":"simplegeo",
    "sg:phone":"+1 703 421 3747",
    "sg:postcode":"20165",
    "sg:province":"VA",
    "sg:tags":[
        "mortgage"
    ],
    "src:geom":"simplegeo",
    "wof:belongsto":[],
    "wof:breaches":[],
    "wof:concordances":{
        "sg:id":"SG_6Znib0i4jWwIrZ4JszLRJi_39.050855_-77.340011@1294252573"
    },
    "wof:country":"US",
    "wof:created":1461899964,
    "wof:geomhash":"6bcff823c97506103f1fc3becded2295",
    "wof:hierarchy":[],
    "wof:id":723348245,
    "wof:lastmodified":1461899964,
    "wof:name":"Stonehouse Mortgage Group Inc",
    "wof:parent_id":-1,
    "wof:placetype":"venue",
    "wof:superseded_by":[],
    "wof:supersedes":[],
    "wof:tags":[
        "mortgage"
    ]
},
  "bbox": [
    -77.340011,
    39.050855,
    -77.340011,
    39.050855
],
  "geometry": {"coordinates":[-77.340011,39.050855],"type":"Point"}
}