{
  "id": 739693835,
  "type": "Feature",
  "properties": {
    "edtf:cessation":"uuuu",
    "edtf:inception":"uuuu",
    "geom:area":0.0,
    "geom:bbox":"-76.351386,37.873248,-76.351386,37.873248",
    "geom:latitude":37.873248,
    "geom:longitude":-76.351386,
    "iso:country":"US",
    "sg:address":"733 Jessie Dupont Memorial Hwy",
    "sg:city":"Burgess",
    "sg:classifiers":[
        {
            "category":"Retail",
            "subcategory":"Auto Repair",
            "type":"Services"
        }
    ],
    "sg:owner":"simplegeo",
    "sg:phone":"+1 804 453 4444",
    "sg:postcode":"22432",
    "sg:province":"VA",
    "sg:tags":[
        "body",
        "automobile",
        "painting",
        "repairing"
    ],
    "src:geom":"simplegeo",
    "wof:belongsto":[],
    "wof:breaches":[],
    "wof:concordances":{
        "sg:id":"SG_6Tm28yt0f9d04EWwaIj7FK_37.873248_-76.351386@1303262547"
    },
    "wof:country":"US",
    "wof:created":1461912415,
    "wof:geomhash":"ba0982d65992e3f2d48510bd70748711",
    "wof:hierarchy":[],
    "wof:id":739693835,
    "wof:lastmodified":1461912415,
    "wof:name":"Burgess Motor Co",
    "wof:parent_id":-1,
    "wof:placetype":"venue",
    "wof:superseded_by":[],
    "wof:supersedes":[],
    "wof:tags":[
        "body",
        "automobile",
        "painting",
        "repairing"
    ]
},
  "bbox": [
    -76.351386,
    37.873248,
    -76.351386,
    37.873248
],
  "geometry": {"coordinates":[-76.35138600000001,37.873248],"type":"Point"}
}