{
  "id": 739697329,
  "type": "Feature",
  "properties": {
    "edtf:cessation":"uuuu",
    "edtf:inception":"uuuu",
    "geom:area":0.0,
    "geom:bbox":"-78.677433,38.707893,-78.677433,38.707893",
    "geom:latitude":38.707893,
    "geom:longitude":-78.677433,
    "iso:country":"US",
    "sg:address":"105 Litten Ln",
    "sg:city":"Quicksburg",
    "sg:classifiers":[
        {
            "category":"Food & Beverages",
            "subcategory":"Groceries & Convenience Stores",
            "type":"Retail Goods"
        }
    ],
    "sg:owner":"simplegeo",
    "sg:phone":"+1 540 740 8016",
    "sg:postcode":"22847",
    "sg:province":"VA",
    "src:geom":"simplegeo",
    "wof:belongsto":[],
    "wof:breaches":[],
    "wof:concordances":{
        "sg:id":"SG_4cWe9G5PlreBymCm5CnJ6m_38.707893_-78.677433@1303262547"
    },
    "wof:country":"US",
    "wof:created":1461912488,
    "wof:geomhash":"debb25a22a7b6a108a729d003d641d93",
    "wof:hierarchy":[],
    "wof:id":739697329,
    "wof:lastmodified":1461912488,
    "wof:name":"Millies Market",
    "wof:parent_id":-1,
    "wof:placetype":"venue",
    "wof:superseded_by":[],
    "wof:supersedes":[],
    "wof:tags":[]
},
  "bbox": [
    -78.677433,
    38.707893,
    -78.677433,
    38.707893
],
  "geometry": {"coordinates":[-78.67743299999999,38.707893],"type":"Point"}
}