{
  "id": 723013197,
  "type": "Feature",
  "properties": {
    "edtf:cessation":"uuuu",
    "edtf:inception":"uuuu",
    "geom:area":0.0,
    "geom:bbox":"-77.559739,38.265063,-77.559739,38.265063",
    "geom:latitude":38.265063,
    "geom:longitude":-77.559739,
    "iso:country":"US",
    "sg:address":"11200 Mintwood Ct",
    "sg:city":"Fredericksburg",
    "sg:classifiers":[
        {
            "category":"Wholesale",
            "subcategory":"Non-durable Goods",
            "type":"Manufacturing & Wholesale Goods"
        }
    ],
    "sg:owner":"simplegeo",
    "sg:phone":"+1 540 786 2121",
    "sg:postcode":"22407",
    "sg:province":"VA",
    "src:geom":"simplegeo",
    "wof:belongsto":[],
    "wof:breaches":[],
    "wof:concordances":{
        "sg:id":"SG_3KomCWDXJtHxyyFGZKaQLM_38.265063_-77.559739@1294252573"
    },
    "wof:country":"US",
    "wof:created":1461893206,
    "wof:geomhash":"cb939be56e342046f09fc831b398a440",
    "wof:hierarchy":[],
    "wof:id":723013197,
    "wof:lastmodified":1461893206,
    "wof:name":"R & E Distribution",
    "wof:parent_id":-1,
    "wof:placetype":"venue",
    "wof:superseded_by":[],
    "wof:supersedes":[],
    "wof:tags":[]
},
  "bbox": [
    -77.559739,
    38.265063,
    -77.559739,
    38.265063
],
  "geometry": {"coordinates":[-77.55973899999999,38.265063],"type":"Point"}
}