{
  "id": 739710899,
  "type": "Feature",
  "properties": {
    "edtf:cessation":"uuuu",
    "edtf:inception":"uuuu",
    "geom:area":0.0,
    "geom:bbox":"-77.659058,37.465717,-77.659058,37.465717",
    "geom:latitude":37.465717,
    "geom:longitude":-77.659058,
    "iso:country":"US",
    "sg:address":"13710 St Francis Blvd",
    "sg:city":"Midlothian",
    "sg:classifiers":[
        {
            "category":"Health Services",
            "subcategory":"Hospital",
            "type":"Services"
        }
    ],
    "sg:owner":"simplegeo",
    "sg:phone":"+1 804 594 7300",
    "sg:postcode":"23114",
    "sg:province":"VA",
    "src:geom":"simplegeo",
    "wof:belongsto":[],
    "wof:breaches":[],
    "wof:concordances":{
        "sg:id":"SG_2D0vD7uRW4hbm0qJxL5TFY_37.465717_-77.659058@1303262549"
    },
    "wof:country":"US",
    "wof:created":1461912800,
    "wof:geomhash":"94f3244402ec1cbafe3d29911c8cc3f4",
    "wof:hierarchy":[],
    "wof:id":739710899,
    "wof:lastmodified":1461912800,
    "wof:name":"Bon Secours St Francis Med Ctr",
    "wof:parent_id":-1,
    "wof:placetype":"venue",
    "wof:superseded_by":[],
    "wof:supersedes":[],
    "wof:tags":[]
},
  "bbox": [
    -77.659058,
    37.465717,
    -77.659058,
    37.465717
],
  "geometry": {"coordinates":[-77.659058,37.465717],"type":"Point"}
}