{
  "id": 723042755,
  "type": "Feature",
  "properties": {
    "edtf:cessation":"uuuu",
    "edtf:inception":"uuuu",
    "geom:area":0.0,
    "geom:bbox":"-77.403417,37.648987,-77.403417,37.648987",
    "geom:latitude":37.648987,
    "geom:longitude":-77.403417,
    "iso:country":"US",
    "sg:address":"9178 Chamberlayne Rd",
    "sg:city":"Mechanicsville",
    "sg:classifiers":[
        {
            "category":"Restaurant",
            "subcategory":"",
            "type":"Food & Drink"
        }
    ],
    "sg:owner":"simplegeo",
    "sg:phone":"+1 804 559 1176",
    "sg:postcode":"23116",
    "sg:province":"VA",
    "sg:tags":[
        "eating"
    ],
    "src:geom":"simplegeo",
    "wof:belongsto":[],
    "wof:breaches":[],
    "wof:concordances":{
        "sg:id":"SG_3doaoCbv5BBMEbYvFdOMYJ_37.648987_-77.403417@1294252573"
    },
    "wof:country":"US",
    "wof:created":1461893869,
    "wof:geomhash":"7235d1a051c0782eff859205cdf3f5d3",
    "wof:hierarchy":[],
    "wof:id":723042755,
    "wof:lastmodified":1461893869,
    "wof:name":"Burger King",
    "wof:parent_id":-1,
    "wof:placetype":"venue",
    "wof:superseded_by":[],
    "wof:supersedes":[],
    "wof:tags":[
        "eating"
    ]
},
  "bbox": [
    -77.403417,
    37.648987,
    -77.403417,
    37.648987
],
  "geometry": {"coordinates":[-77.403417,37.648987],"type":"Point"}
}