{
  "id": 723042223,
  "type": "Feature",
  "properties": {
    "edtf:cessation":"uuuu",
    "edtf:inception":"uuuu",
    "geom:area":0.0,
    "geom:bbox":"-77.574554,38.168265,-77.574554,38.168265",
    "geom:latitude":38.168265,
    "geom:longitude":-77.574554,
    "iso:country":"US",
    "sg:address":"3 Palomino Ct",
    "sg:city":"Spotsylvania",
    "sg:classifiers":[
        {
            "category":"Real Estate",
            "subcategory":"Real Estate Agent",
            "type":"Services"
        }
    ],
    "sg:owner":"simplegeo",
    "sg:phone":"+1 540 582 5777",
    "sg:postcode":"22551",
    "sg:province":"VA",
    "sg:tags":[
        "publishing"
    ],
    "src:geom":"simplegeo",
    "wof:belongsto":[],
    "wof:breaches":[],
    "wof:concordances":{
        "sg:id":"SG_3IeOq8XmZBlybbE2ySf7Pl_38.168265_-77.574554@1294252573"
    },
    "wof:country":"US",
    "wof:created":1461893858,
    "wof:geomhash":"86cbcd13c987f54d92a802cfce363de2",
    "wof:hierarchy":[],
    "wof:id":723042223,
    "wof:lastmodified":1461893858,
    "wof:name":"For Sale By Owner Services",
    "wof:parent_id":-1,
    "wof:placetype":"venue",
    "wof:superseded_by":[],
    "wof:supersedes":[],
    "wof:tags":[
        "publishing"
    ]
},
  "bbox": [
    -77.574554,
    38.168265,
    -77.574554,
    38.168265
],
  "geometry": {"coordinates":[-77.57455400000001,38.168265],"type":"Point"}
}