{
  "id": 722614745,
  "type": "Feature",
  "properties": {
    "edtf:cessation":"uuuu",
    "edtf:inception":"uuuu",
    "geom:area":0.0,
    "geom:bbox":"-80.74001,36.772159,-80.74001,36.772159",
    "geom:latitude":36.772159,
    "geom:longitude":-80.74001,
    "iso:country":"US",
    "sg:address":"1202 N Main St",
    "sg:city":"Hillsville",
    "sg:classifiers":[
        {
            "category":"Professional",
            "subcategory":"Accounting & Tax Preparation",
            "type":"Services"
        }
    ],
    "sg:owner":"simplegeo",
    "sg:phone":"+1 276 728 4140",
    "sg:postcode":"24343",
    "sg:province":"VA",
    "sg:tags":[
        "accountant"
    ],
    "src:geom":"simplegeo",
    "wof:belongsto":[],
    "wof:breaches":[],
    "wof:concordances":{
        "sg:id":"SG_44EBmEKnv5ihAY6mNt0mIy_36.772159_-80.740010@1294252573"
    },
    "wof:country":"US",
    "wof:created":1461885260,
    "wof:geomhash":"5c3b953a04a3e466347c113ee9d5ebd6",
    "wof:hierarchy":[],
    "wof:id":722614745,
    "wof:lastmodified":1461885260,
    "wof:name":"Lisa F Adams CPA",
    "wof:parent_id":-1,
    "wof:placetype":"venue",
    "wof:superseded_by":[],
    "wof:supersedes":[],
    "wof:tags":[
        "accountant"
    ]
},
  "bbox": [
    -80.74001,
    36.772159,
    -80.74001,
    36.772159
],
  "geometry": {"coordinates":[-80.74001,36.772159],"type":"Point"}
}