{
  "id": 723092815,
  "type": "Feature",
  "properties": {
    "edtf:cessation":"uuuu",
    "edtf:inception":"uuuu",
    "geom:area":0.0,
    "geom:bbox":"-77.48769,38.72538,-77.48769,38.72538",
    "geom:latitude":38.72538,
    "geom:longitude":-77.48769,
    "iso:country":"US",
    "sg:address":"9529 Country Roads Ln",
    "sg:city":"Manassas",
    "sg:classifiers":[
        {
            "category":"Wholesale",
            "subcategory":"Vending Machines",
            "type":"Manufacturing & Wholesale Goods"
        }
    ],
    "sg:owner":"simplegeo",
    "sg:phone":"+1 703 361 0027",
    "sg:postcode":"20112",
    "sg:province":"VA",
    "sg:tags":[
        "operator"
    ],
    "src:geom":"simplegeo",
    "wof:belongsto":[],
    "wof:breaches":[],
    "wof:concordances":{
        "sg:id":"SG_0sUodjYFCNlDN4m5nZUEOI_38.725380_-77.487690@1294252573"
    },
    "wof:country":"US",
    "wof:created":1461894974,
    "wof:geomhash":"39ffec4c1e87bc4884fbece95d4b15bc",
    "wof:hierarchy":[],
    "wof:id":723092815,
    "wof:lastmodified":1461894974,
    "wof:name":"Baehr International",
    "wof:parent_id":-1,
    "wof:placetype":"venue",
    "wof:superseded_by":[],
    "wof:supersedes":[],
    "wof:tags":[
        "operator"
    ]
},
  "bbox": [
    -77.48769,
    38.72538,
    -77.48769,
    38.72538
],
  "geometry": {"coordinates":[-77.48769,38.72538],"type":"Point"}
}