{
  "id": 739679397,
  "type": "Feature",
  "properties": {
    "edtf:cessation":"uuuu",
    "edtf:inception":"uuuu",
    "geom:area":0.0,
    "geom:bbox":"-77.058128,38.79163,-77.058128,38.79163",
    "geom:latitude":38.79163,
    "geom:longitude":-77.058128,
    "iso:country":"US",
    "sg:address":"5821 Richmond Hwy",
    "sg:city":"Alexandria",
    "sg:classifiers":[
        {
            "category":"Travel",
            "subcategory":"Hotels & Motels",
            "type":"Entertainment"
        }
    ],
    "sg:owner":"simplegeo",
    "sg:phone":"+1 703 329 1400",
    "sg:postcode":"22303",
    "sg:province":"VA",
    "sg:tags":[
        "lodging"
    ],
    "sg:website":"http://www.alexandriaoldtown.hamptoninn.com",
    "src:geom":"simplegeo",
    "wof:belongsto":[],
    "wof:breaches":[],
    "wof:concordances":{
        "sg:id":"SG_3whLS3i6IUGUhPYbZ1Nsdq_38.791630_-77.058128@1303262545"
    },
    "wof:country":"US",
    "wof:created":1461912134,
    "wof:geomhash":"d9e021e758ed45653f285cadb3128f7c",
    "wof:hierarchy":[],
    "wof:id":739679397,
    "wof:lastmodified":1461912134,
    "wof:name":"Hampton Inn and Suites",
    "wof:parent_id":-1,
    "wof:placetype":"venue",
    "wof:superseded_by":[],
    "wof:supersedes":[],
    "wof:tags":[
        "lodging"
    ]
},
  "bbox": [
    -77.058128,
    38.79163,
    -77.058128,
    38.79163
],
  "geometry": {"coordinates":[-77.058128,38.79163],"type":"Point"}
}