{
  "id": 723472775,
  "type": "Feature",
  "properties": {
    "edtf:cessation":"uuuu",
    "edtf:inception":"uuuu",
    "geom:area":0.0,
    "geom:bbox":"-77.411017,39.054849,-77.411017,39.054849",
    "geom:latitude":39.054849,
    "geom:longitude":-77.411017,
    "iso:country":"US",
    "sg:address":"1 Newland Ct",
    "sg:city":"Sterling",
    "sg:classifiers":[
        {
            "category":"Retail",
            "subcategory":"Animal Services",
            "type":"Services"
        }
    ],
    "sg:owner":"simplegeo",
    "sg:phone":"+1 571 323 0033",
    "sg:postcode":"20165",
    "sg:province":"VA",
    "src:geom":"simplegeo",
    "wof:belongsto":[],
    "wof:breaches":[],
    "wof:concordances":{
        "sg:id":"SG_3v3rCtWLLaBeRE2upDYTrM_39.054849_-77.411017@1294252573"
    },
    "wof:country":"US",
    "wof:created":1461902370,
    "wof:geomhash":"0515f0df2a793827665e4fc950713ad0",
    "wof:hierarchy":[],
    "wof:id":723472775,
    "wof:lastmodified":1461902370,
    "wof:name":"Home To Home Kennel Club Inc",
    "wof:parent_id":-1,
    "wof:placetype":"venue",
    "wof:superseded_by":[],
    "wof:supersedes":[],
    "wof:tags":[]
},
  "bbox": [
    -77.411017,
    39.054849,
    -77.411017,
    39.054849
],
  "geometry": {"coordinates":[-77.411017,39.054849],"type":"Point"}
}