{
  "id": 723290891,
  "type": "Feature",
  "properties": {
    "edtf:cessation":"uuuu",
    "edtf:inception":"uuuu",
    "geom:area":0.0,
    "geom:bbox":"-77.549311,39.107118,-77.549311,39.107118",
    "geom:latitude":39.107118,
    "geom:longitude":-77.549311,
    "iso:country":"US",
    "sg:address":"9 Fort Evans Rd SE",
    "sg:city":"Leesburg",
    "sg:classifiers":[
        {
            "category":"Retail",
            "subcategory":"Auto Repair",
            "type":"Services"
        }
    ],
    "sg:owner":"simplegeo",
    "sg:phone":"+1 703 443 2925",
    "sg:postcode":"20175",
    "sg:province":"VA",
    "sg:tags":[
        "transmission"
    ],
    "src:geom":"simplegeo",
    "wof:belongsto":[],
    "wof:breaches":[],
    "wof:concordances":{
        "sg:id":"SG_1GwZnvW0Fy4kFoBTluh9Nk_39.107118_-77.549311@1294252573"
    },
    "wof:country":"US",
    "wof:created":1461898891,
    "wof:geomhash":"04c3866e55128aee8709d18b9896ebed",
    "wof:hierarchy":[],
    "wof:id":723290891,
    "wof:lastmodified":1461898891,
    "wof:name":"Cottman Transmission-Lsbrg",
    "wof:parent_id":-1,
    "wof:placetype":"venue",
    "wof:superseded_by":[],
    "wof:supersedes":[],
    "wof:tags":[
        "transmission"
    ]
},
  "bbox": [
    -77.549311,
    39.107118,
    -77.549311,
    39.107118
],
  "geometry": {"coordinates":[-77.549311,39.107118],"type":"Point"}
}