{
  "id": 722660161,
  "type": "Feature",
  "properties": {
    "edtf:cessation":"uuuu",
    "edtf:inception":"uuuu",
    "geom:area":0.0,
    "geom:bbox":"-77.427989,38.839341,-77.427989,38.839341",
    "geom:latitude":38.839341,
    "geom:longitude":-77.427989,
    "iso:country":"US",
    "sg:address":"13919 Braddock Rd",
    "sg:city":"Centreville",
    "sg:classifiers":[
        {
            "category":"Organizations",
            "subcategory":"Religious Organization",
            "type":"Services"
        }
    ],
    "sg:owner":"simplegeo",
    "sg:phone":"+1 703 815 0617",
    "sg:postcode":"20120",
    "sg:province":"VA",
    "src:geom":"simplegeo",
    "wof:belongsto":[],
    "wof:breaches":[],
    "wof:concordances":{
        "sg:id":"SG_0ar74xRhKUuBKExx9QrJE3_38.839341_-77.427989@1294252573"
    },
    "wof:country":"US",
    "wof:created":1461886207,
    "wof:geomhash":"21f5fbd77d1f9a4b9fe4203494182912",
    "wof:hierarchy":[],
    "wof:id":722660161,
    "wof:lastmodified":1461886207,
    "wof:name":"Centreville Church Of Christ",
    "wof:parent_id":-1,
    "wof:placetype":"venue",
    "wof:superseded_by":[],
    "wof:supersedes":[],
    "wof:tags":[]
},
  "bbox": [
    -77.427989,
    38.839341,
    -77.427989,
    38.839341
],
  "geometry": {"coordinates":[-77.427989,38.839341],"type":"Point"}
}