{
  "id": 722682937,
  "type": "Feature",
  "properties": {
    "edtf:cessation":"uuuu",
    "edtf:inception":"uuuu",
    "geom:area":0.0,
    "geom:bbox":"-79.966162,37.253268,-79.966162,37.253268",
    "geom:latitude":37.253268,
    "geom:longitude":-79.966162,
    "iso:country":"US",
    "sg:address":"901 Gaymont St SW",
    "sg:city":"Roanoke",
    "sg:classifiers":[
        {
            "category":"Professional",
            "subcategory":"",
            "type":"Services"
        }
    ],
    "sg:owner":"simplegeo",
    "sg:phone":"+1 540 343 9059",
    "sg:postcode":"24015",
    "sg:province":"VA",
    "src:geom":"simplegeo",
    "wof:belongsto":[],
    "wof:breaches":[],
    "wof:concordances":{
        "sg:id":"SG_5jqUzCs4oE5q1ZPcAowv25_37.253268_-79.966162@1294252573"
    },
    "wof:country":"US",
    "wof:created":1461886641,
    "wof:geomhash":"11e327dc26881ed8f47beca075f89355",
    "wof:hierarchy":[],
    "wof:id":722682937,
    "wof:lastmodified":1461886641,
    "wof:name":"Ann Pope",
    "wof:parent_id":-1,
    "wof:placetype":"venue",
    "wof:superseded_by":[],
    "wof:supersedes":[],
    "wof:tags":[]
},
  "bbox": [
    -79.966162,
    37.253268,
    -79.966162,
    37.253268
],
  "geometry": {"coordinates":[-79.966162,37.253268],"type":"Point"}
}