{
  "id": 739345141,
  "type": "Feature",
  "properties": {
    "edtf:cessation":"uuuu",
    "edtf:inception":"uuuu",
    "geom:area":0.0,
    "geom:bbox":"-77.587259,38.278988,-77.587259,38.278988",
    "geom:latitude":38.278988,
    "geom:longitude":-77.587259,
    "iso:country":"US",
    "sg:address":"11702 Harvestdale Dr",
    "sg:city":"Fredericksburg",
    "sg:classifiers":[
        {
            "category":"Retail",
            "subcategory":"Car Wash",
            "type":"Services"
        }
    ],
    "sg:owner":"simplegeo",
    "sg:phone":"+1 540 548 1091",
    "sg:postcode":"22407",
    "sg:province":"VA",
    "sg:tags":[
        "carwash",
        "automobile",
        "detail",
        "clean"
    ],
    "src:geom":"simplegeo",
    "wof:belongsto":[],
    "wof:breaches":[],
    "wof:concordances":{
        "sg:id":"SG_4nRQmiiMxfCsxHa89o8MFi_38.278988_-77.587259@1294252573"
    },
    "wof:country":"US",
    "wof:created":1461905503,
    "wof:geomhash":"d63441e876878ac135dde850817af60e",
    "wof:hierarchy":[],
    "wof:id":739345141,
    "wof:lastmodified":1461905503,
    "wof:name":"Tommy's Mobile Detailing",
    "wof:parent_id":-1,
    "wof:placetype":"venue",
    "wof:superseded_by":[],
    "wof:supersedes":[],
    "wof:tags":[
        "carwash",
        "automobile",
        "detail",
        "clean"
    ]
},
  "bbox": [
    -77.587259,
    38.278988,
    -77.587259,
    38.278988
],
  "geometry": {"coordinates":[-77.587259,38.278988],"type":"Point"}
}