{
  "id": 722651043,
  "type": "Feature",
  "properties": {
    "edtf:cessation":"uuuu",
    "edtf:inception":"uuuu",
    "geom:area":0.0,
    "geom:bbox":"-77.463126,38.236697,-77.463126,38.236697",
    "geom:latitude":38.236697,
    "geom:longitude":-77.463126,
    "iso:country":"US",
    "sg:address":"10114 Mindy Ct",
    "sg:city":"Fredericksburg",
    "sg:classifiers":[
        {
            "category":"Home & Garden",
            "subcategory":"Home Furnishings",
            "type":"Retail Goods"
        }
    ],
    "sg:owner":"simplegeo",
    "sg:phone":"+1 540 891 8385",
    "sg:postcode":"22408",
    "sg:province":"VA",
    "src:geom":"simplegeo",
    "wof:belongsto":[],
    "wof:breaches":[],
    "wof:concordances":{
        "sg:id":"SG_0990JPYiIsNxXfiGxGFtrp_38.236697_-77.463126@1294252573"
    },
    "wof:country":"US",
    "wof:created":1461886036,
    "wof:geomhash":"747205b9e46708658597c96f3fbcc44b",
    "wof:hierarchy":[],
    "wof:id":722651043,
    "wof:lastmodified":1461886036,
    "wof:name":"Warner Marketing LLC",
    "wof:parent_id":-1,
    "wof:placetype":"venue",
    "wof:superseded_by":[],
    "wof:supersedes":[],
    "wof:tags":[]
},
  "bbox": [
    -77.463126,
    38.236697,
    -77.463126,
    38.236697
],
  "geometry": {"coordinates":[-77.463126,38.236697],"type":"Point"}
}