{
  "id": 739449175,
  "type": "Feature",
  "properties": {
    "edtf:cessation":"uuuu",
    "edtf:inception":"uuuu",
    "geom:area":0.0,
    "geom:bbox":"-77.979971,38.261846,-77.979971,38.261846",
    "geom:latitude":38.261846,
    "geom:longitude":-77.979971,
    "iso:country":"US",
    "sg:address":"22365 Constitution Hwy",
    "sg:city":"Unionville",
    "sg:classifiers":[
        {
            "category":"Building & Trades",
            "subcategory":"Construction",
            "type":"Services"
        }
    ],
    "sg:owner":"simplegeo",
    "sg:phone":"+1 540 854 5963",
    "sg:postcode":"22567",
    "sg:province":"VA",
    "sg:tags":[
        "excavation",
        "contractor"
    ],
    "src:geom":"simplegeo",
    "wof:belongsto":[],
    "wof:breaches":[],
    "wof:concordances":{
        "sg:id":"SG_4f1ZUwNHLhhwi3HodpkwCn_38.261846_-77.979971@1294252573"
    },
    "wof:country":"US",
    "wof:created":1461907523,
    "wof:geomhash":"c240b5838ba692a22e718881a32192b1",
    "wof:hierarchy":[],
    "wof:id":739449175,
    "wof:lastmodified":1461907523,
    "wof:name":"Rock & Raines Construction Co",
    "wof:parent_id":-1,
    "wof:placetype":"venue",
    "wof:superseded_by":[],
    "wof:supersedes":[],
    "wof:tags":[
        "excavation",
        "contractor"
    ]
},
  "bbox": [
    -77.979971,
    38.261846,
    -77.979971,
    38.261846
],
  "geometry": {"coordinates":[-77.97997100000001,38.261846],"type":"Point"}
}