{
  "id": 722652575,
  "type": "Feature",
  "properties": {
    "edtf:cessation":"uuuu",
    "edtf:inception":"uuuu",
    "geom:area":0.0,
    "geom:bbox":"-77.637912,38.812126,-77.637912,38.812126",
    "geom:latitude":38.812126,
    "geom:longitude":-77.637912,
    "iso:country":"US",
    "sg:address":"6707 Fayette St",
    "sg:city":"Haymarket",
    "sg:classifiers":[
        {
            "category":"Autos & Motor Vehicles",
            "subcategory":"Automobile Sales",
            "type":"Retail Goods"
        }
    ],
    "sg:owner":"simplegeo",
    "sg:phone":"+1 571 261 5586",
    "sg:postcode":"20169",
    "sg:province":"VA",
    "sg:tags":[
        "car",
        "dealer"
    ],
    "src:geom":"simplegeo",
    "wof:belongsto":[],
    "wof:breaches":[],
    "wof:concordances":{
        "sg:id":"SG_4rgf0fwovLUUzxfSph0b28_38.812126_-77.637912@1294252573"
    },
    "wof:country":"US",
    "wof:created":1461886060,
    "wof:geomhash":"1bcdd588178dc3d438bb1b41cda4023d",
    "wof:hierarchy":[],
    "wof:id":722652575,
    "wof:lastmodified":1461886060,
    "wof:name":"Super Star Motors",
    "wof:parent_id":-1,
    "wof:placetype":"venue",
    "wof:superseded_by":[],
    "wof:supersedes":[],
    "wof:tags":[
        "car",
        "dealer"
    ]
},
  "bbox": [
    -77.637912,
    38.812126,
    -77.637912,
    38.812126
],
  "geometry": {"coordinates":[-77.637912,38.812126],"type":"Point"}
}