{
  "id": 723415821,
  "type": "Feature",
  "properties": {
    "edtf:cessation":"uuuu",
    "edtf:inception":"uuuu",
    "geom:area":0.0,
    "geom:bbox":"-77.048845,38.795908,-77.048845,38.795908",
    "geom:latitude":38.795908,
    "geom:longitude":-77.048845,
    "iso:country":"US",
    "sg:address":"804 S Washington St",
    "sg:city":"Alexandria",
    "sg:classifiers":[
        {
            "category":"Food & Beverages",
            "subcategory":"Groceries & Convenience Stores",
            "type":"Retail Goods"
        }
    ],
    "sg:owner":"simplegeo",
    "sg:phone":"+1 703 538 2852",
    "sg:postcode":"22314",
    "sg:province":"VA",
    "src:geom":"simplegeo",
    "wof:belongsto":[],
    "wof:breaches":[],
    "wof:concordances":{
        "sg:id":"SG_6KNOdkLjOM8Azj8SZ9Nadj_38.795908_-77.048845@1294252573"
    },
    "wof:country":"US",
    "wof:created":1461901287,
    "wof:geomhash":"b2478c445968cccbbb230b5442a6da70",
    "wof:hierarchy":[],
    "wof:id":723415821,
    "wof:lastmodified":1461901287,
    "wof:name":"7-Eleven",
    "wof:parent_id":-1,
    "wof:placetype":"venue",
    "wof:superseded_by":[],
    "wof:supersedes":[],
    "wof:tags":[]
},
  "bbox": [
    -77.048845,
    38.795908,
    -77.048845,
    38.795908
],
  "geometry": {"coordinates":[-77.048845,38.795908],"type":"Point"}
}