{
  "id": 723300017,
  "type": "Feature",
  "properties": {
    "edtf:cessation":"uuuu",
    "edtf:inception":"uuuu",
    "geom:area":0.0,
    "geom:bbox":"-77.116506,38.80914,-77.116506,38.80914",
    "geom:latitude":38.80914,
    "geom:longitude":-77.116506,
    "iso:country":"US",
    "sg:address":"4903 Brenman Park Dr",
    "sg:city":"Alexandria",
    "sg:classifiers":[
        {
            "category":"Retail",
            "subcategory":"Laundry & Dry Cleaning",
            "type":"Services"
        }
    ],
    "sg:owner":"simplegeo",
    "sg:phone":"+1 703 823 0606",
    "sg:postcode":"22304",
    "sg:province":"VA",
    "sg:tags":[
        "drycleaning",
        "plant"
    ],
    "src:geom":"simplegeo",
    "wof:belongsto":[],
    "wof:breaches":[],
    "wof:concordances":{
        "sg:id":"SG_28jOS92C7M2k2wkmnbrTAi_38.809140_-77.116506@1294252573"
    },
    "wof:country":"US",
    "wof:created":1461899062,
    "wof:geomhash":"04b0f2202d05c91556a978400d5a8447",
    "wof:hierarchy":[],
    "wof:id":723300017,
    "wof:lastmodified":1461899062,
    "wof:name":"Cameron Station Valet",
    "wof:parent_id":-1,
    "wof:placetype":"venue",
    "wof:superseded_by":[],
    "wof:supersedes":[],
    "wof:tags":[
        "drycleaning",
        "plant"
    ]
},
  "bbox": [
    -77.116506,
    38.80914,
    -77.116506,
    38.80914
],
  "geometry": {"coordinates":[-77.116506,38.80914],"type":"Point"}
}