{
  "id": 739534573,
  "type": "Feature",
  "properties": {
    "edtf:cessation":"uuuu",
    "edtf:inception":"uuuu",
    "geom:area":0.0,
    "geom:bbox":"-81.276203,36.583299,-81.276203,36.583299",
    "geom:latitude":36.583299,
    "geom:longitude":-81.276203,
    "iso:country":"US",
    "sg:address":"2617 Potato Creek Rd",
    "sg:city":"Mouth Of Wilson",
    "sg:classifiers":[
        {
            "category":"Manufacturing",
            "subcategory":"Lumber",
            "type":"Manufacturing & Wholesale Goods"
        }
    ],
    "sg:owner":"simplegeo",
    "sg:phone":"+1 276 579 7733",
    "sg:postcode":"24363",
    "sg:province":"VA",
    "sg:tags":[
        "tree",
        "christmas"
    ],
    "src:geom":"simplegeo",
    "wof:belongsto":[],
    "wof:breaches":[],
    "wof:concordances":{
        "sg:id":"SG_6Dojcpmq8oJF3PPwCyULqb_36.583299_-81.276203@1294252573"
    },
    "wof:country":"US",
    "wof:created":1461909059,
    "wof:geomhash":"32fd973a77daf93cb7fdd5efd7d7b204",
    "wof:hierarchy":[],
    "wof:id":739534573,
    "wof:lastmodified":1461909059,
    "wof:name":"Carolina Fraser Fir Co",
    "wof:parent_id":-1,
    "wof:placetype":"venue",
    "wof:superseded_by":[],
    "wof:supersedes":[],
    "wof:tags":[
        "tree",
        "christmas"
    ]
},
  "bbox": [
    -81.276203,
    36.583299,
    -81.276203,
    36.583299
],
  "geometry": {"coordinates":[-81.276203,36.583299],"type":"Point"}
}