{
  "id": 739575003,
  "type": "Feature",
  "properties": {
    "edtf:cessation":"uuuu",
    "edtf:inception":"uuuu",
    "geom:area":0.0,
    "geom:bbox":"-77.667758,38.248583,-77.667758,38.248583",
    "geom:latitude":38.248583,
    "geom:longitude":-77.667758,
    "iso:country":"US",
    "sg:address":"10727 Catharpin Rd",
    "sg:city":"Spotsylvania",
    "sg:classifiers":[
        {
            "category":"Retail",
            "subcategory":"Auto Repair",
            "type":"Services"
        }
    ],
    "sg:owner":"simplegeo",
    "sg:phone":"+1 540 972 0493",
    "sg:postcode":"22553",
    "sg:province":"VA",
    "src:geom":"simplegeo",
    "wof:belongsto":[],
    "wof:breaches":[],
    "wof:concordances":{
        "sg:id":"SG_6ZsuwZpJsxzmBvwSECV8sd_38.248319_-77.668095@1293134755"
    },
    "wof:country":"US",
    "wof:created":1461909893,
    "wof:geomhash":"aba8a3215908a95bec112a9deca524ca",
    "wof:hierarchy":[],
    "wof:id":739575003,
    "wof:lastmodified":1461909893,
    "wof:name":"Automotive Solutions",
    "wof:parent_id":-1,
    "wof:placetype":"venue",
    "wof:superseded_by":[],
    "wof:supersedes":[],
    "wof:tags":[]
},
  "bbox": [
    -77.667758,
    38.248583,
    -77.667758,
    38.248583
],
  "geometry": {"coordinates":[-77.66775800000001,38.248583],"type":"Point"}
}