{
  "id": 722823747,
  "type": "Feature",
  "properties": {
    "edtf:cessation":"uuuu",
    "edtf:inception":"uuuu",
    "geom:area":0.0,
    "geom:bbox":"-77.286692,37.669118,-77.286692,37.669118",
    "geom:latitude":37.669118,
    "geom:longitude":-77.286692,
    "iso:country":"US",
    "sg:address":"9968 Revolutionary Pl",
    "sg:city":"Mechanicsville",
    "sg:classifiers":[
        {
            "category":"Professional",
            "subcategory":"Management & Consulting",
            "type":"Services"
        }
    ],
    "sg:owner":"simplegeo",
    "sg:phone":"+1 804 730 7990",
    "sg:postcode":"23116",
    "sg:province":"VA",
    "sg:tags":[
        "consultant",
        "business"
    ],
    "src:geom":"simplegeo",
    "wof:belongsto":[],
    "wof:breaches":[],
    "wof:concordances":{
        "sg:id":"SG_17erG3WWGUP6blXrb4vm5q_37.669118_-77.286692@1294252573"
    },
    "wof:country":"US",
    "wof:created":1461889332,
    "wof:geomhash":"31655ce012c08b912a06016f6bcdaaf4",
    "wof:hierarchy":[],
    "wof:id":722823747,
    "wof:lastmodified":1461889332,
    "wof:name":"Nicholas & Assoc",
    "wof:parent_id":-1,
    "wof:placetype":"venue",
    "wof:superseded_by":[],
    "wof:supersedes":[],
    "wof:tags":[
        "consultant",
        "business"
    ]
},
  "bbox": [
    -77.286692,
    37.669118,
    -77.286692,
    37.669118
],
  "geometry": {"coordinates":[-77.286692,37.669118],"type":"Point"}
}