{
  "id": 739301871,
  "type": "Feature",
  "properties": {
    "edtf:cessation":"uuuu",
    "edtf:inception":"uuuu",
    "geom:area":0.0,
    "geom:bbox":"-77.579262,37.444113,-77.579262,37.444113",
    "geom:latitude":37.444113,
    "geom:longitude":-77.579262,
    "iso:country":"US",
    "sg:address":"9921 Hull Street Rd",
    "sg:city":"Richmond",
    "sg:classifiers":[
        {
            "category":"Food & Beverages",
            "subcategory":"Liquor & Beverages",
            "type":"Retail Goods"
        }
    ],
    "sg:owner":"simplegeo",
    "sg:phone":"+1 804 674 2565",
    "sg:postcode":"23236",
    "sg:province":"VA",
    "sg:tags":[
        "store"
    ],
    "src:geom":"simplegeo",
    "wof:belongsto":[],
    "wof:breaches":[],
    "wof:concordances":{
        "sg:id":"SG_7cgAKkjODqzL1Ls4acsp9K_37.444113_-77.579262@1294252573"
    },
    "wof:country":"US",
    "wof:created":1461904614,
    "wof:geomhash":"d6ff7e8261d9edaa468b70d235c7192f",
    "wof:hierarchy":[],
    "wof:id":739301871,
    "wof:lastmodified":1461904614,
    "wof:name":"ABC",
    "wof:parent_id":420546613,
    "wof:placetype":"venue",
    "wof:superseded_by":[],
    "wof:supersedes":[],
    "wof:tags":[
        "store"
    ]
},
  "bbox": [
    -77.579262,
    37.444113,
    -77.579262,
    37.444113
],
  "geometry": {"coordinates":[-77.579262,37.444113],"type":"Point"}
}