{
  "id": 723025675,
  "type": "Feature",
  "properties": {
    "edtf:cessation":"uuuu",
    "edtf:inception":"uuuu",
    "geom:area":0.0,
    "geom:bbox":"-82.089896,36.658563,-82.089896,36.658563",
    "geom:latitude":36.658563,
    "geom:longitude":-82.089896,
    "iso:country":"US",
    "sg:address":"15108 Bordwine Rd",
    "sg:city":"Bristol",
    "sg:classifiers":[
        {
            "category":"Retail",
            "subcategory":"Repair Shop",
            "type":"Services"
        }
    ],
    "sg:owner":"simplegeo",
    "sg:phone":"+1 276 669 8700",
    "sg:postcode":"24202",
    "sg:province":"VA",
    "sg:tags":[
        "electrical"
    ],
    "src:geom":"simplegeo",
    "wof:belongsto":[],
    "wof:breaches":[],
    "wof:concordances":{
        "sg:id":"SG_4ksy7lA8vBQoI0lsVb9RSM_36.658563_-82.089896@1294252573"
    },
    "wof:country":"US",
    "wof:created":1461893518,
    "wof:geomhash":"75fb2305bb2c115691b28028deeae3e2",
    "wof:hierarchy":[],
    "wof:id":723025675,
    "wof:lastmodified":1461893518,
    "wof:name":"Consumer Products Unlimited",
    "wof:parent_id":-1,
    "wof:placetype":"venue",
    "wof:superseded_by":[],
    "wof:supersedes":[],
    "wof:tags":[
        "electrical"
    ]
},
  "bbox": [
    -82.089896,
    36.658563,
    -82.089896,
    36.658563
],
  "geometry": {"coordinates":[-82.089896,36.658563],"type":"Point"}
}