{
  "id": 722983543,
  "type": "Feature",
  "properties": {
    "edtf:cessation":"uuuu",
    "edtf:inception":"uuuu",
    "geom:area":0.0,
    "geom:bbox":"-76.28604,36.870022,-76.28604,36.870022",
    "geom:latitude":36.870022,
    "geom:longitude":-76.28604,
    "iso:country":"US",
    "sg:address":"245 W 24th St",
    "sg:city":"Norfolk",
    "sg:classifiers":[
        {
            "category":"Retail",
            "subcategory":"Auto Repair",
            "type":"Services"
        }
    ],
    "sg:owner":"simplegeo",
    "sg:phone":"+1 757 622 4312",
    "sg:postcode":"23517",
    "sg:province":"VA",
    "sg:tags":[
        "body",
        "shop"
    ],
    "src:geom":"simplegeo",
    "wof:belongsto":[],
    "wof:breaches":[],
    "wof:concordances":{
        "sg:id":"SG_3bYSqmPNqGOZPRIJWWRnO2_36.870022_-76.286040@1294252573"
    },
    "wof:country":"US",
    "wof:created":1461892537,
    "wof:geomhash":"3897e07077211ce404872e50477e0d73",
    "wof:hierarchy":[],
    "wof:id":722983543,
    "wof:lastmodified":1461892537,
    "wof:name":"Auto Body Contours",
    "wof:parent_id":-1,
    "wof:placetype":"venue",
    "wof:superseded_by":[],
    "wof:supersedes":[],
    "wof:tags":[
        "body",
        "shop"
    ]
},
  "bbox": [
    -76.28604,
    36.870022,
    -76.28604,
    36.870022
],
  "geometry": {"coordinates":[-76.28604,36.870022],"type":"Point"}
}