{
  "id": 723262871,
  "type": "Feature",
  "properties": {
    "edtf:cessation":"uuuu",
    "edtf:inception":"uuuu",
    "geom:area":0.0,
    "geom:bbox":"-77.437841,38.894391,-77.437841,38.894391",
    "geom:latitude":38.894391,
    "geom:longitude":-77.437841,
    "iso:country":"US",
    "sg:address":"14230 Sullyfield Cir",
    "sg:city":"Chantilly",
    "sg:classifiers":[
        {
            "category":"Professional",
            "subcategory":"Business Services",
            "type":"Services"
        }
    ],
    "sg:owner":"simplegeo",
    "sg:phone":"+1 703 817 0705",
    "sg:postcode":"20151",
    "sg:province":"VA",
    "sg:tags":[
        "embroidery"
    ],
    "sg:website":"www.shirtboy.com",
    "src:geom":"simplegeo",
    "wof:belongsto":[],
    "wof:breaches":[],
    "wof:concordances":{
        "sg:id":"SG_2OBKJLZjZbgdiQkqYVbWbB_38.894391_-77.437841@1294252573"
    },
    "wof:country":"US",
    "wof:created":1461898357,
    "wof:geomhash":"6aa386c8f600193a02e25a0a314817d8",
    "wof:hierarchy":[],
    "wof:id":723262871,
    "wof:lastmodified":1461898357,
    "wof:name":"SHIRTBOY.COM",
    "wof:parent_id":-1,
    "wof:placetype":"venue",
    "wof:superseded_by":[],
    "wof:supersedes":[],
    "wof:tags":[
        "embroidery"
    ]
},
  "bbox": [
    -77.437841,
    38.894391,
    -77.437841,
    38.894391
],
  "geometry": {"coordinates":[-77.43784100000001,38.894391],"type":"Point"}
}