{
  "id": 722578817,
  "type": "Feature",
  "properties": {
    "edtf:cessation":"uuuu",
    "edtf:inception":"uuuu",
    "geom:area":0.0,
    "geom:bbox":"-77.51931,37.590561,-77.51931,37.590561",
    "geom:latitude":37.590561,
    "geom:longitude":-77.51931,
    "iso:country":"US",
    "sg:address":"6413 W Grace St",
    "sg:city":"Richmond",
    "sg:classifiers":[
        {
            "category":"Building & Trades",
            "subcategory":"Landscaping Services",
            "type":"Services"
        }
    ],
    "sg:owner":"simplegeo",
    "sg:phone":"+1 804 288 5431",
    "sg:postcode":"23226",
    "sg:province":"VA",
    "src:geom":"simplegeo",
    "wof:belongsto":[],
    "wof:breaches":[],
    "wof:concordances":{
        "sg:id":"SG_3JVDxMrMeQ3WJacw9lIGVY_37.590561_-77.519310@1294252573"
    },
    "wof:country":"US",
    "wof:created":1461884580,
    "wof:geomhash":"93613f0c40f35359573cb6afebe5a2f4",
    "wof:hierarchy":[],
    "wof:id":722578817,
    "wof:lastmodified":1461884580,
    "wof:name":"Schwartz Tree & Lawn",
    "wof:parent_id":-1,
    "wof:placetype":"venue",
    "wof:superseded_by":[],
    "wof:supersedes":[],
    "wof:tags":[]
},
  "bbox": [
    -77.51931,
    37.590561,
    -77.51931,
    37.590561
],
  "geometry": {"coordinates":[-77.51931,37.590561],"type":"Point"}
}