{
  "id": 722633293,
  "type": "Feature",
  "properties": {
    "edtf:cessation":"uuuu",
    "edtf:inception":"uuuu",
    "geom:area":0.0,
    "geom:bbox":"-77.477991,37.435367,-77.477991,37.435367",
    "geom:latitude":37.435367,
    "geom:longitude":-77.477991,
    "iso:country":"US",
    "sg:address":"4710 Brimley Pl",
    "sg:city":"Richmond",
    "sg:classifiers":[
        {
            "category":"Freight",
            "subcategory":"",
            "type":"Transportation"
        },
        {
            "category":"Retail",
            "subcategory":"Auto Rental",
            "type":"Services"
        }
    ],
    "sg:owner":"simplegeo",
    "sg:phone":"+1 804 714 1005",
    "sg:postcode":"23234",
    "sg:province":"VA",
    "sg:tags":[
        "supply",
        "local",
        "trucking",
        "equipment",
        "moving",
        "operator",
        "establishment"
    ],
    "src:geom":"simplegeo",
    "wof:belongsto":[],
    "wof:breaches":[],
    "wof:concordances":{
        "sg:id":"SG_6nsgTIeROKqO4rzJOXOv4s_37.435367_-77.477991@1294252573"
    },
    "wof:country":"US",
    "wof:created":1461885708,
    "wof:geomhash":"747d80e2714e94a9e6eccc324729f713",
    "wof:hierarchy":[],
    "wof:id":722633293,
    "wof:lastmodified":1461885708,
    "wof:name":"Partime Movers LLC",
    "wof:parent_id":-1,
    "wof:placetype":"venue",
    "wof:superseded_by":[],
    "wof:supersedes":[],
    "wof:tags":[
        "supply",
        "local",
        "trucking",
        "equipment",
        "moving",
        "operator",
        "establishment"
    ]
},
  "bbox": [
    -77.477991,
    37.435367,
    -77.477991,
    37.435367
],
  "geometry": {"coordinates":[-77.477991,37.435367],"type":"Point"}
}