{
  "id": 723055945,
  "type": "Feature",
  "properties": {
    "edtf:cessation":"uuuu",
    "edtf:inception":"uuuu",
    "geom:area":0.0,
    "geom:bbox":"-77.413246,39.057942,-77.413246,39.057942",
    "geom:latitude":39.057942,
    "geom:longitude":-77.413246,
    "iso:country":"US",
    "sg:address":"42 Aldridge Ct",
    "sg:city":"Sterling",
    "sg:classifiers":[
        {
            "category":"Professional",
            "subcategory":"Computer Services",
            "type":"Services"
        }
    ],
    "sg:owner":"simplegeo",
    "sg:phone":"+1 703 421 1725",
    "sg:postcode":"20165",
    "sg:province":"VA",
    "sg:tags":[
        "related"
    ],
    "src:geom":"simplegeo",
    "wof:belongsto":[],
    "wof:breaches":[],
    "wof:concordances":{
        "sg:id":"SG_2JKAqkmLILkjYRUp0lGq4T_39.057942_-77.413246@1294252573"
    },
    "wof:country":"US",
    "wof:created":1461894132,
    "wof:geomhash":"7dc8485524f26be62469cdb9532c9629",
    "wof:hierarchy":[],
    "wof:id":723055945,
    "wof:lastmodified":1461894132,
    "wof:name":"Lanlord Networks",
    "wof:parent_id":-1,
    "wof:placetype":"venue",
    "wof:superseded_by":[],
    "wof:supersedes":[],
    "wof:tags":[
        "related"
    ]
},
  "bbox": [
    -77.413246,
    39.057942,
    -77.413246,
    39.057942
],
  "geometry": {"coordinates":[-77.413246,39.057942],"type":"Point"}
}