{
  "id": 723293657,
  "type": "Feature",
  "properties": {
    "edtf:cessation":"uuuu",
    "edtf:inception":"uuuu",
    "geom:area":0.0,
    "geom:bbox":"-77.117323,38.845774,-77.117323,38.845774",
    "geom:latitude":38.845774,
    "geom:longitude":-77.117323,
    "iso:country":"US",
    "sg:address":"5203 Leesburg Pike",
    "sg:city":"Falls Church",
    "sg:classifiers":[
        {
            "category":"Professional",
            "subcategory":"",
            "type":"Services"
        }
    ],
    "sg:owner":"simplegeo",
    "sg:phone":"+1 703 578 0995",
    "sg:postcode":"22041",
    "sg:province":"VA",
    "src:geom":"simplegeo",
    "wof:belongsto":[],
    "wof:breaches":[],
    "wof:concordances":{
        "sg:id":"SG_62LQdx7xI3XCDJM27BCjXm_38.845774_-77.117323@1294252573"
    },
    "wof:country":"US",
    "wof:created":1461898942,
    "wof:geomhash":"665e75a3a7515d7b9fdfb075c12cf59b",
    "wof:hierarchy":[],
    "wof:id":723293657,
    "wof:lastmodified":1461898942,
    "wof:name":"Dmsso Skyline",
    "wof:parent_id":-1,
    "wof:placetype":"venue",
    "wof:superseded_by":[],
    "wof:supersedes":[],
    "wof:tags":[]
},
  "bbox": [
    -77.117323,
    38.845774,
    -77.117323,
    38.845774
],
  "geometry": {"coordinates":[-77.117323,38.845774],"type":"Point"}
}