{
  "id": 722617993,
  "type": "Feature",
  "properties": {
    "edtf:cessation":"uuuu",
    "edtf:inception":"uuuu",
    "geom:area":0.0,
    "geom:bbox":"-77.131365,37.744029,-77.131365,37.744029",
    "geom:latitude":37.744029,
    "geom:longitude":-77.131365,
    "iso:country":"US",
    "sg:address":"612 Sharon Rd",
    "sg:city":"King William",
    "sg:classifiers":[
        {
            "category":"Retail",
            "subcategory":"Auto Repair",
            "type":"Services"
        }
    ],
    "sg:owner":"simplegeo",
    "sg:phone":"+1 804 769 3095",
    "sg:postcode":"23086",
    "sg:province":"VA",
    "sg:tags":[
        "repairing",
        "automobile"
    ],
    "src:geom":"simplegeo",
    "wof:belongsto":[],
    "wof:breaches":[],
    "wof:concordances":{
        "sg:id":"SG_2fsjvCMRTb9kT9qVImNNmB_37.744029_-77.131365@1294252573"
    },
    "wof:country":"US",
    "wof:created":1461885322,
    "wof:geomhash":"d920fd205abffc9f1c7cb6236273648b",
    "wof:hierarchy":[],
    "wof:id":722617993,
    "wof:lastmodified":1461885322,
    "wof:name":"Danny & Patty Waltman Auto Rpr",
    "wof:parent_id":-1,
    "wof:placetype":"venue",
    "wof:superseded_by":[],
    "wof:supersedes":[],
    "wof:tags":[
        "repairing",
        "automobile"
    ]
},
  "bbox": [
    -77.131365,
    37.744029,
    -77.131365,
    37.744029
],
  "geometry": {"coordinates":[-77.131365,37.744029],"type":"Point"}
}