{
  "id": 739587653,
  "type": "Feature",
  "properties": {
    "edtf:cessation":"uuuu",
    "edtf:inception":"uuuu",
    "geom:area":0.0,
    "geom:bbox":"-77.622757,37.653931,-77.622757,37.653931",
    "geom:latitude":37.653931,
    "geom:longitude":-77.622757,
    "iso:country":"US",
    "sg:address":"11735 W Broad St",
    "sg:city":"Richmond",
    "sg:classifiers":[
        {
            "category":"Coffee & Tea",
            "subcategory":"",
            "type":"Food & Drink"
        }
    ],
    "sg:menulink":"http://www.allmenus.com/va/three-chopt/112084-starbucks-coffee/menu/",
    "sg:owner":"simplegeo",
    "sg:phone":"+1 804 360 2696",
    "sg:postcode":"23233",
    "sg:province":"VA",
    "sg:tags":[
        "american"
    ],
    "src:geom":"simplegeo",
    "wof:belongsto":[],
    "wof:breaches":[],
    "wof:concordances":{
        "sg:id":"SG_3IRFCTPZIXVeUpyWqCWTmC_37.653931_-77.622757@1299784598"
    },
    "wof:country":"US",
    "wof:created":1461910154,
    "wof:geomhash":"7aee9b082b1c4884099f2ba9a684bf86",
    "wof:hierarchy":[],
    "wof:id":739587653,
    "wof:lastmodified":1461910154,
    "wof:name":"Starbucks Coffee",
    "wof:parent_id":-1,
    "wof:placetype":"venue",
    "wof:superseded_by":[],
    "wof:supersedes":[],
    "wof:tags":[
        "american"
    ]
},
  "bbox": [
    -77.622757,
    37.653931,
    -77.622757,
    37.653931
],
  "geometry": {"coordinates":[-77.62275699999999,37.653931],"type":"Point"}
}