{
  "id": 739709945,
  "type": "Feature",
  "properties": {
    "edtf:cessation":"uuuu",
    "edtf:inception":"uuuu",
    "geom:area":0.0,
    "geom:bbox":"-77.66784,37.40597,-77.66784,37.40597",
    "geom:latitude":37.40597,
    "geom:longitude":-77.66784,
    "iso:country":"US",
    "sg:address":"14013 St Elizabeth Dr",
    "sg:city":"Midlothian",
    "sg:classifiers":[
        {
            "category":"Professional",
            "subcategory":"Accounting & Tax Preparation",
            "type":"Services"
        }
    ],
    "sg:owner":"simplegeo",
    "sg:phone":"+1 804 739 9048",
    "sg:postcode":"23112",
    "sg:province":"VA",
    "sg:tags":[
        "return",
        "preparation-business"
    ],
    "src:geom":"simplegeo",
    "wof:belongsto":[],
    "wof:breaches":[],
    "wof:concordances":{
        "sg:id":"SG_7Qr18Hihsdfz3e8tEUBs6J_37.405970_-77.667840@1303262549"
    },
    "wof:country":"US",
    "wof:created":1461912781,
    "wof:geomhash":"febeb4038617835e3d835cdb0f53dcbd",
    "wof:hierarchy":[],
    "wof:id":739709945,
    "wof:lastmodified":1461912781,
    "wof:name":"Dattalo Sales Use Tax Co",
    "wof:parent_id":-1,
    "wof:placetype":"venue",
    "wof:superseded_by":[],
    "wof:supersedes":[],
    "wof:tags":[
        "return",
        "preparation-business"
    ]
},
  "bbox": [
    -77.66784,
    37.40597,
    -77.66784,
    37.40597
],
  "geometry": {"coordinates":[-77.66784,37.40597],"type":"Point"}
}