{
  "id": 723314791,
  "type": "Feature",
  "properties": {
    "edtf:cessation":"uuuu",
    "edtf:inception":"uuuu",
    "geom:area":0.0,
    "geom:bbox":"-77.156288,38.871042,-77.156288,38.871042",
    "geom:latitude":38.871042,
    "geom:longitude":-77.156288,
    "iso:country":"US",
    "sg:address":"6316 Castle Pl",
    "sg:city":"Falls Church",
    "sg:classifiers":[
        {
            "category":"Health Services",
            "subcategory":"Doctor",
            "type":"Services"
        }
    ],
    "sg:owner":"simplegeo",
    "sg:phone":"+1 703 241 2412",
    "sg:postcode":"22044",
    "sg:province":"VA",
    "sg:tags":[
        "physician",
        "surgeon"
    ],
    "src:geom":"simplegeo",
    "wof:belongsto":[],
    "wof:breaches":[],
    "wof:concordances":{
        "sg:id":"SG_6SV66FYKGOyUBEidIL1ol0_38.871042_-77.156288@1294252573"
    },
    "wof:country":"US",
    "wof:created":1461899350,
    "wof:geomhash":"c32bd0d0a48201be46398a0e14a85042",
    "wof:hierarchy":[],
    "wof:id":723314791,
    "wof:lastmodified":1461899350,
    "wof:name":"Cam-Tu Thai MD",
    "wof:parent_id":-1,
    "wof:placetype":"venue",
    "wof:superseded_by":[],
    "wof:supersedes":[],
    "wof:tags":[
        "physician",
        "surgeon"
    ]
},
  "bbox": [
    -77.156288,
    38.871042,
    -77.156288,
    38.871042
],
  "geometry": {"coordinates":[-77.156288,38.871042],"type":"Point"}
}