{
  "id": 723324887,
  "type": "Feature",
  "properties": {
    "edtf:cessation":"uuuu",
    "edtf:inception":"uuuu",
    "geom:area":0.0,
    "geom:bbox":"-77.628875,37.651307,-77.628875,37.651307",
    "geom:latitude":37.651307,
    "geom:longitude":-77.628875,
    "iso:country":"US",
    "sg:address":"12012 Springrock Ct",
    "sg:city":"Richmond",
    "sg:classifiers":[
        {
            "category":"Shopping",
            "subcategory":"Gifts & Souvenirs",
            "type":"Retail Goods"
        }
    ],
    "sg:owner":"simplegeo",
    "sg:phone":"+1 804 360 8559",
    "sg:postcode":"23233",
    "sg:province":"VA",
    "src:geom":"simplegeo",
    "wof:belongsto":[],
    "wof:breaches":[],
    "wof:concordances":{
        "sg:id":"SG_3x5PjiCcVv67x3wodRcB8S_37.651307_-77.628875@1294252573"
    },
    "wof:country":"US",
    "wof:created":1461899539,
    "wof:geomhash":"f19d65f13b619acdfe246a7ff40f4b61",
    "wof:hierarchy":[],
    "wof:id":723324887,
    "wof:lastmodified":1461899539,
    "wof:name":"D L Impex",
    "wof:parent_id":-1,
    "wof:placetype":"venue",
    "wof:superseded_by":[],
    "wof:supersedes":[],
    "wof:tags":[]
},
  "bbox": [
    -77.628875,
    37.651307,
    -77.628875,
    37.651307
],
  "geometry": {"coordinates":[-77.62887499999999,37.651307],"type":"Point"}
}