{
  "id": 739273619,
  "type": "Feature",
  "properties": {
    "edtf:cessation":"uuuu",
    "edtf:inception":"uuuu",
    "geom:area":0.0,
    "geom:bbox":"-79.229483,37.366244,-79.229483,37.366244",
    "geom:latitude":37.366244,
    "geom:longitude":-79.229483,
    "iso:country":"US",
    "sg:address":"231 Tomahawk Industrail Park",
    "sg:city":"Lynchburg",
    "sg:classifiers":[
        {
            "category":"Professional",
            "subcategory":"Research",
            "type":"Services"
        }
    ],
    "sg:owner":"simplegeo",
    "sg:phone":"+1 434 237 4438",
    "sg:postcode":"24502",
    "sg:province":"VA",
    "sg:tags":[
        "laboratory"
    ],
    "src:geom":"simplegeo",
    "wof:belongsto":[],
    "wof:breaches":[],
    "wof:concordances":{
        "sg:id":"SG_50wEldsRe780vLYmkjXdIo_37.366244_-79.229483@1294252573"
    },
    "wof:country":"US",
    "wof:created":1461904004,
    "wof:geomhash":"33148b0c9968f9c90f1566bf81fffcd6",
    "wof:hierarchy":[],
    "wof:id":739273619,
    "wof:lastmodified":1461904004,
    "wof:name":"Ross Laboratories",
    "wof:parent_id":-1,
    "wof:placetype":"venue",
    "wof:superseded_by":[],
    "wof:supersedes":[],
    "wof:tags":[
        "laboratory"
    ]
},
  "bbox": [
    -79.229483,
    37.366244,
    -79.229483,
    37.366244
],
  "geometry": {"coordinates":[-79.229483,37.366244],"type":"Point"}
}