{
  "id": 739331607,
  "type": "Feature",
  "properties": {
    "edtf:cessation":"uuuu",
    "edtf:inception":"uuuu",
    "geom:area":0.0,
    "geom:bbox":"-77.178649,37.973966,-77.178649,37.973966",
    "geom:latitude":37.973966,
    "geom:longitude":-77.178649,
    "iso:country":"US",
    "sg:address":"21038 Alps Dr",
    "sg:city":"Milford",
    "sg:classifiers":[
        {
            "category":"Professional",
            "subcategory":"Management & Consulting",
            "type":"Services"
        }
    ],
    "sg:owner":"simplegeo",
    "sg:phone":"+1 804 633 2452",
    "sg:postcode":"22514",
    "sg:province":"VA",
    "src:geom":"simplegeo",
    "wof:belongsto":[],
    "wof:breaches":[],
    "wof:concordances":{
        "sg:id":"SG_3eN72oVGRxKaRgWVl0HZts_37.973966_-77.178649@1294252573"
    },
    "wof:country":"US",
    "wof:created":1461905208,
    "wof:geomhash":"6c9c541a96e85767683cdb7b100fb4ed",
    "wof:hierarchy":[],
    "wof:id":739331607,
    "wof:lastmodified":1461905208,
    "wof:name":"Mark Schon",
    "wof:parent_id":-1,
    "wof:placetype":"venue",
    "wof:superseded_by":[],
    "wof:supersedes":[],
    "wof:tags":[]
},
  "bbox": [
    -77.178649,
    37.973966,
    -77.178649,
    37.973966
],
  "geometry": {"coordinates":[-77.17864899999999,37.973966],"type":"Point"}
}