{
  "id": 722968789,
  "type": "Feature",
  "properties": {
    "edtf:cessation":"uuuu",
    "edtf:inception":"uuuu",
    "geom:area":0.0,
    "geom:bbox":"-77.401138,38.999932,-77.401138,38.999932",
    "geom:latitude":38.999932,
    "geom:longitude":-77.401138,
    "iso:country":"US",
    "sg:address":"207 E Holly Ave",
    "sg:city":"Sterling",
    "sg:classifiers":[
        {
            "category":"Health Services",
            "subcategory":"Doctor",
            "type":"Services"
        }
    ],
    "sg:owner":"simplegeo",
    "sg:phone":"+1 703 450 4810",
    "sg:postcode":"20164",
    "sg:province":"VA",
    "sg:tags":[
        "physician",
        "medical",
        "surgeon"
    ],
    "src:geom":"simplegeo",
    "wof:belongsto":[],
    "wof:breaches":[],
    "wof:concordances":{
        "sg:id":"SG_77xTgZn0qaVX6mQe7noDt8_38.999932_-77.401138@1294252573"
    },
    "wof:country":"US",
    "wof:created":1461892208,
    "wof:geomhash":"e7dd48d7bc9c86b1e6bba1c42319d53f",
    "wof:hierarchy":[],
    "wof:id":722968789,
    "wof:lastmodified":1461892208,
    "wof:name":"Howard L Cohn MD",
    "wof:parent_id":-1,
    "wof:placetype":"venue",
    "wof:superseded_by":[],
    "wof:supersedes":[],
    "wof:tags":[
        "physician",
        "medical",
        "surgeon"
    ]
},
  "bbox": [
    -77.401138,
    38.999932,
    -77.401138,
    38.999932
],
  "geometry": {"coordinates":[-77.401138,38.999932],"type":"Point"}
}