{
  "id": 722829147,
  "type": "Feature",
  "properties": {
    "edtf:cessation":"uuuu",
    "edtf:inception":"uuuu",
    "geom:area":0.0,
    "geom:bbox":"-77.276531,38.871283,-77.276531,38.871283",
    "geom:latitude":38.871283,
    "geom:longitude":-77.276531,
    "iso:country":"US",
    "sg:address":"9614 Lindenbrook St",
    "sg:city":"Fairfax",
    "sg:classifiers":[
        {
            "category":"Professional",
            "subcategory":"Management & Consulting",
            "type":"Services"
        }
    ],
    "sg:owner":"simplegeo",
    "sg:phone":"+1 703 938 7858",
    "sg:postcode":"22031",
    "sg:province":"VA",
    "src:geom":"simplegeo",
    "wof:belongsto":[],
    "wof:breaches":[],
    "wof:concordances":{
        "sg:id":"SG_3ZddegpH7ZgirXTICiVz51_38.871283_-77.276531@1294252573"
    },
    "wof:country":"US",
    "wof:created":1461889433,
    "wof:geomhash":"7f4687c1e23dd47e2607c376be34460f",
    "wof:hierarchy":[],
    "wof:id":722829147,
    "wof:lastmodified":1461889433,
    "wof:name":"Creative Advantage",
    "wof:parent_id":-1,
    "wof:placetype":"venue",
    "wof:superseded_by":[],
    "wof:supersedes":[],
    "wof:tags":[]
},
  "bbox": [
    -77.276531,
    38.871283,
    -77.276531,
    38.871283
],
  "geometry": {"coordinates":[-77.27653100000001,38.871283],"type":"Point"}
}