{
  "id": 722994833,
  "type": "Feature",
  "properties": {
    "edtf:cessation":"uuuu",
    "edtf:inception":"uuuu",
    "geom:area":0.0,
    "geom:bbox":"-77.822872,37.662822,-77.822872,37.662822",
    "geom:latitude":37.662822,
    "geom:longitude":-77.822872,
    "iso:country":"US",
    "sg:address":"1552 Lew Ln",
    "sg:city":"Crozier",
    "sg:classifiers":[
        {
            "category":"Professional",
            "subcategory":"Management & Consulting",
            "type":"Services"
        }
    ],
    "sg:owner":"simplegeo",
    "sg:phone":"+1 804 784 5170",
    "sg:postcode":"23039",
    "sg:province":"VA",
    "sg:tags":[
        "party",
        "planning"
    ],
    "src:geom":"simplegeo",
    "wof:belongsto":[],
    "wof:breaches":[],
    "wof:concordances":{
        "sg:id":"SG_561tCc6x0pun2gSIiRktyY_37.662822_-77.822872@1294252573"
    },
    "wof:country":"US",
    "wof:created":1461892783,
    "wof:geomhash":"d4c75eeab106d533272deb8fb983862d",
    "wof:hierarchy":[],
    "wof:id":722994833,
    "wof:lastmodified":1461892783,
    "wof:name":"Tropical Trolley",
    "wof:parent_id":-1,
    "wof:placetype":"venue",
    "wof:superseded_by":[],
    "wof:supersedes":[],
    "wof:tags":[
        "party",
        "planning"
    ]
},
  "bbox": [
    -77.822872,
    37.662822,
    -77.822872,
    37.662822
],
  "geometry": {"coordinates":[-77.822872,37.662822],"type":"Point"}
}