{
  "id": 723245295,
  "type": "Feature",
  "properties": {
    "edtf:cessation":"uuuu",
    "edtf:inception":"uuuu",
    "geom:area":0.0,
    "geom:bbox":"-77.341051,37.550697,-77.341051,37.550697",
    "geom:latitude":37.550697,
    "geom:longitude":-77.341051,
    "iso:country":"US",
    "sg:address":"6031 Nine Mile Rd",
    "sg:city":"Richmond",
    "sg:classifiers":[
        {
            "category":"Professional",
            "subcategory":"Business Services",
            "type":"Services"
        }
    ],
    "sg:owner":"simplegeo",
    "sg:phone":"+1 804 328 6220",
    "sg:postcode":"23223",
    "sg:province":"VA",
    "sg:website":"www.jmjcorporation.com",
    "src:geom":"simplegeo",
    "wof:belongsto":[],
    "wof:breaches":[],
    "wof:concordances":{
        "sg:id":"SG_18V9fwhAHEyHl7yO08G3OO_37.550697_-77.341051@1294252573"
    },
    "wof:country":"US",
    "wof:created":1461898030,
    "wof:geomhash":"3161f4347b4cad6738bb1a87f69cf2d0",
    "wof:hierarchy":[],
    "wof:id":723245295,
    "wof:lastmodified":1461898030,
    "wof:name":"JMJ Corp Warehouse",
    "wof:parent_id":-1,
    "wof:placetype":"venue",
    "wof:superseded_by":[],
    "wof:supersedes":[],
    "wof:tags":[]
},
  "bbox": [
    -77.341051,
    37.550697,
    -77.341051,
    37.550697
],
  "geometry": {"coordinates":[-77.34105099999999,37.550697],"type":"Point"}
}