{
  "id": 722805115,
  "type": "Feature",
  "properties": {
    "edtf:cessation":"uuuu",
    "edtf:inception":"uuuu",
    "geom:area":0.0,
    "geom:bbox":"-77.242141,38.328433,-77.242141,38.328433",
    "geom:latitude":38.328433,
    "geom:longitude":-77.242141,
    "iso:country":"US",
    "sg:address":"6072 Riverview Dr",
    "sg:city":"King George",
    "sg:classifiers":[
        {
            "category":"Food & Beverages",
            "subcategory":"Groceries & Convenience Stores",
            "type":"Retail Goods"
        }
    ],
    "sg:owner":"simplegeo",
    "sg:phone":"+1 540 775 5985",
    "sg:postcode":"22485",
    "sg:province":"VA",
    "src:geom":"simplegeo",
    "wof:belongsto":[],
    "wof:breaches":[],
    "wof:concordances":{
        "sg:id":"SG_5dRQNUl90V3ZGG08BHuSyN_38.328433_-77.242141@1294252573"
    },
    "wof:country":"US",
    "wof:created":1461888977,
    "wof:geomhash":"f540dc4d382246da7afad5b46d0f77f3",
    "wof:hierarchy":[],
    "wof:id":722805115,
    "wof:lastmodified":1461888977,
    "wof:name":"Fairview Beach Grocery",
    "wof:parent_id":-1,
    "wof:placetype":"venue",
    "wof:superseded_by":[],
    "wof:supersedes":[],
    "wof:tags":[]
},
  "bbox": [
    -77.242141,
    38.328433,
    -77.242141,
    38.328433
],
  "geometry": {"coordinates":[-77.242141,38.328433],"type":"Point"}
}