{
  "id": 722614757,
  "type": "Feature",
  "properties": {
    "edtf:cessation":"uuuu",
    "edtf:inception":"uuuu",
    "geom:area":0.0,
    "geom:bbox":"-77.565989,39.11575,-77.565989,39.11575",
    "geom:latitude":39.11575,
    "geom:longitude":-77.565989,
    "iso:country":"US",
    "sg:address":"11 W Market St",
    "sg:city":"Leesburg",
    "sg:classifiers":[
        {
            "category":"Building & Trades",
            "subcategory":"Equipment Rental",
            "type":"Services"
        }
    ],
    "sg:owner":"simplegeo",
    "sg:phone":"+1 703 777 9563",
    "sg:postcode":"20176",
    "sg:province":"VA",
    "src:geom":"simplegeo",
    "wof:belongsto":[],
    "wof:breaches":[],
    "wof:concordances":{
        "sg:id":"SG_6Gap6ymG3gRWUmU9S2BQU6_39.115750_-77.565989@1294252573"
    },
    "wof:country":"US",
    "wof:created":1461885260,
    "wof:geomhash":"06f87b1c78b724c34bcbd978b08a89f5",
    "wof:hierarchy":[],
    "wof:id":722614757,
    "wof:lastmodified":1461885260,
    "wof:name":"American Microscope Leasing Co",
    "wof:parent_id":-1,
    "wof:placetype":"venue",
    "wof:superseded_by":[],
    "wof:supersedes":[],
    "wof:tags":[]
},
  "bbox": [
    -77.565989,
    39.11575,
    -77.565989,
    39.11575
],
  "geometry": {"coordinates":[-77.565989,39.11575],"type":"Point"}
}