{
  "id": 722991107,
  "type": "Feature",
  "properties": {
    "edtf:cessation":"uuuu",
    "edtf:inception":"uuuu",
    "geom:area":0.0,
    "geom:bbox":"-77.42757,38.75948,-77.42757,38.75948",
    "geom:latitude":38.75948,
    "geom:longitude":-77.42757,
    "iso:country":"US",
    "sg:address":"9314 E Carondelet Dr",
    "sg:city":"Manassas Park",
    "sg:classifiers":[
        {
            "category":"Utilities",
            "subcategory":"Refuse",
            "type":"Services"
        }
    ],
    "sg:owner":"simplegeo",
    "sg:phone":"+1 703 395 5522",
    "sg:postcode":"20111",
    "sg:province":"VA",
    "sg:tags":[
        "garbage",
        "collection"
    ],
    "src:geom":"simplegeo",
    "wof:belongsto":[],
    "wof:breaches":[],
    "wof:concordances":{
        "sg:id":"SG_20XELAkyudxsCw2h6eAeBF_38.759480_-77.427570@1294252573"
    },
    "wof:country":"US",
    "wof:created":1461892711,
    "wof:geomhash":"f77b352b5afe9da1f9a95b5d4bb60f83",
    "wof:hierarchy":[],
    "wof:id":722991107,
    "wof:lastmodified":1461892711,
    "wof:name":"Discount Hauling",
    "wof:parent_id":-1,
    "wof:placetype":"venue",
    "wof:superseded_by":[],
    "wof:supersedes":[],
    "wof:tags":[
        "garbage",
        "collection"
    ]
},
  "bbox": [
    -77.42757,
    38.75948,
    -77.42757,
    38.75948
],
  "geometry": {"coordinates":[-77.42757,38.75948],"type":"Point"}
}