{
  "id": 722954663,
  "type": "Feature",
  "properties": {
    "edtf:cessation":"uuuu",
    "edtf:inception":"uuuu",
    "geom:area":0.0,
    "geom:bbox":"-77.736908,38.968536,-77.736908,38.968536",
    "geom:latitude":38.968536,
    "geom:longitude":-77.736908,
    "iso:country":"US",
    "sg:address":"110 W Washington St",
    "sg:city":"Middleburg",
    "sg:classifiers":[
        {
            "category":"Manufacturing",
            "subcategory":"Printing",
            "type":"Manufacturing & Wholesale Goods"
        }
    ],
    "sg:owner":"simplegeo",
    "sg:phone":"+1 540 687 6059",
    "sg:postcode":"20117",
    "sg:province":"VA",
    "sg:tags":[
        "newspaper",
        "publishing"
    ],
    "src:geom":"simplegeo",
    "wof:belongsto":[],
    "wof:breaches":[],
    "wof:concordances":{
        "sg:id":"SG_5PT9hpljaMxbq0gfI74dvD_38.968536_-77.736908@1294252573"
    },
    "wof:country":"US",
    "wof:created":1461891918,
    "wof:geomhash":"5fbe241fe193dfc703f8b11c17aad96c",
    "wof:hierarchy":[],
    "wof:id":722954663,
    "wof:lastmodified":1461891918,
    "wof:name":"Middleburg Life",
    "wof:parent_id":-1,
    "wof:placetype":"venue",
    "wof:superseded_by":[],
    "wof:supersedes":[],
    "wof:tags":[
        "newspaper",
        "publishing"
    ]
},
  "bbox": [
    -77.736908,
    38.968536,
    -77.736908,
    38.968536
],
  "geometry": {"coordinates":[-77.736908,38.968536],"type":"Point"}
}