{
  "id": 722657375,
  "type": "Feature",
  "properties": {
    "edtf:cessation":"uuuu",
    "edtf:inception":"uuuu",
    "geom:area":0.0,
    "geom:bbox":"-80.018328,36.615295,-80.018328,36.615295",
    "geom:latitude":36.615295,
    "geom:longitude":-80.018328,
    "iso:country":"US",
    "sg:address":"775 Spencer Penn Rd",
    "sg:city":"Spencer",
    "sg:classifiers":[
        {
            "category":"Retail",
            "subcategory":"Repair Shop",
            "type":"Services"
        }
    ],
    "sg:owner":"simplegeo",
    "sg:phone":"+1 276 957 2636",
    "sg:postcode":"24165",
    "sg:province":"VA",
    "src:geom":"simplegeo",
    "wof:belongsto":[],
    "wof:breaches":[],
    "wof:concordances":{
        "sg:id":"SG_03RzdWxCVPs6aVfAYTDwcQ_36.615295_-80.018328@1294252573"
    },
    "wof:country":"US",
    "wof:created":1461886156,
    "wof:geomhash":"3c9c609e0971bc35a76287138117a54a",
    "wof:hierarchy":[],
    "wof:id":722657375,
    "wof:lastmodified":1461886156,
    "wof:name":"Vcr Tech Repairing & Clg Svc",
    "wof:parent_id":-1,
    "wof:placetype":"venue",
    "wof:superseded_by":[],
    "wof:supersedes":[],
    "wof:tags":[]
},
  "bbox": [
    -80.018328,
    36.615295,
    -80.018328,
    36.615295
],
  "geometry": {"coordinates":[-80.018328,36.615295],"type":"Point"}
}