{
  "id": 723293477,
  "type": "Feature",
  "properties": {
    "edtf:cessation":"uuuu",
    "edtf:inception":"uuuu",
    "geom:area":0.0,
    "geom:bbox":"-76.903212,38.141994,-76.903212,38.141994",
    "geom:latitude":38.141994,
    "geom:longitude":-76.903212,
    "iso:country":"US",
    "sg:address":"8921 Kings Hwy",
    "sg:city":"Montross",
    "sg:classifiers":[
        {
            "category":"Retail",
            "subcategory":"Auto Repair",
            "type":"Services"
        }
    ],
    "sg:owner":"simplegeo",
    "sg:phone":"+1 804 493 9882",
    "sg:postcode":"22520",
    "sg:province":"VA",
    "sg:tags":[
        "repairing",
        "automobile"
    ],
    "src:geom":"simplegeo",
    "wof:belongsto":[],
    "wof:breaches":[],
    "wof:concordances":{
        "sg:id":"SG_2OvTgr86IgNMaPn0Q60twU_38.141994_-76.903212@1294252573"
    },
    "wof:country":"US",
    "wof:created":1461898939,
    "wof:geomhash":"c51a38546d22cbe82e8a3384ece5225c",
    "wof:hierarchy":[],
    "wof:id":723293477,
    "wof:lastmodified":1461898939,
    "wof:name":"Cj's Repair",
    "wof:parent_id":-1,
    "wof:placetype":"venue",
    "wof:superseded_by":[],
    "wof:supersedes":[],
    "wof:tags":[
        "repairing",
        "automobile"
    ]
},
  "bbox": [
    -76.903212,
    38.141994,
    -76.903212,
    38.141994
],
  "geometry": {"coordinates":[-76.903212,38.141994],"type":"Point"}
}