{
  "id": 739603347,
  "type": "Feature",
  "properties": {
    "edtf:cessation":"uuuu",
    "edtf:inception":"uuuu",
    "geom:area":0.0,
    "geom:bbox":"-77.513298,38.778999,-77.513298,38.778999",
    "geom:latitude":38.778999,
    "geom:longitude":-77.513298,
    "iso:country":"US",
    "sg:address":"10696 Crestwood Dr Ste B",
    "sg:city":"Manassas",
    "sg:classifiers":[
        {
            "category":"Health Services",
            "subcategory":"Doctor",
            "type":"Services"
        }
    ],
    "sg:owner":"simplegeo",
    "sg:phone":"+1 703 368 7110",
    "sg:postcode":"20109",
    "sg:province":"VA",
    "sg:tags":[
        "practice",
        "family"
    ],
    "src:geom":"simplegeo",
    "wof:belongsto":[],
    "wof:breaches":[],
    "wof:concordances":{
        "sg:id":"SG_1xz8zO1cXmej8aDGk6HykU_38.778999_-77.513298@1303262495"
    },
    "wof:country":"US",
    "wof:created":1461910480,
    "wof:geomhash":"8b2f3b2ed66805700af061c243fea7f3",
    "wof:hierarchy":[],
    "wof:id":739603347,
    "wof:lastmodified":1461910480,
    "wof:name":"Stonerock Grace J MD PC",
    "wof:parent_id":-1,
    "wof:placetype":"venue",
    "wof:superseded_by":[],
    "wof:supersedes":[],
    "wof:tags":[
        "practice",
        "family"
    ]
},
  "bbox": [
    -77.513298,
    38.778999,
    -77.513298,
    38.778999
],
  "geometry": {"coordinates":[-77.51329800000001,38.778999],"type":"Point"}
}