{
  "id": 739497579,
  "type": "Feature",
  "properties": {
    "edtf:cessation":"uuuu",
    "edtf:inception":"uuuu",
    "geom:area":0.0,
    "geom:bbox":"-78.67431,38.64676,-78.67431,38.64676",
    "geom:latitude":38.64676,
    "geom:longitude":-78.67431,
    "iso:country":"US",
    "sg:address":"9468 Cadet Rd",
    "sg:city":"New Market",
    "sg:classifiers":[
        {
            "category":"Retail",
            "subcategory":"Auto Repair",
            "type":"Services"
        }
    ],
    "sg:owner":"simplegeo",
    "sg:phone":"+1 540 740 4600",
    "sg:postcode":"22844",
    "sg:province":"VA",
    "sg:tags":[
        "body",
        "automobile",
        "painting"
    ],
    "src:geom":"simplegeo",
    "wof:belongsto":[],
    "wof:breaches":[],
    "wof:concordances":{
        "sg:id":"SG_3mxApv7oggfn66eEkNoMR8_38.646760_-78.674310@1294252573"
    },
    "wof:country":"US",
    "wof:created":1461908385,
    "wof:geomhash":"be309d0e7319232ac41759c1b0d25a97",
    "wof:hierarchy":[],
    "wof:id":739497579,
    "wof:lastmodified":1461908385,
    "wof:name":"R B's Auto Body",
    "wof:parent_id":-1,
    "wof:placetype":"venue",
    "wof:superseded_by":[],
    "wof:supersedes":[],
    "wof:tags":[
        "body",
        "automobile",
        "painting"
    ]
},
  "bbox": [
    -78.67431,
    38.64676,
    -78.67431,
    38.64676
],
  "geometry": {"coordinates":[-78.67431000000001,38.64676],"type":"Point"}
}