{
  "id": 723251973,
  "type": "Feature",
  "properties": {
    "edtf:cessation":"uuuu",
    "edtf:inception":"uuuu",
    "geom:area":0.0,
    "geom:bbox":"-77.319986,39.026601,-77.319986,39.026601",
    "geom:latitude":39.026601,
    "geom:longitude":-77.319986,
    "iso:country":"US",
    "sg:address":"10805 Sycamore Springs Ln",
    "sg:city":"Great Falls",
    "sg:classifiers":[
        {
            "category":"Shopping",
            "subcategory":"Florist",
            "type":"Retail Goods"
        }
    ],
    "sg:owner":"simplegeo",
    "sg:phone":"+1 703 430 0312",
    "sg:postcode":"22066",
    "sg:province":"VA",
    "src:geom":"simplegeo",
    "wof:belongsto":[],
    "wof:breaches":[],
    "wof:concordances":{
        "sg:id":"SG_3emxXhd41qwEO4CR18S07N_39.026601_-77.319986@1294252573"
    },
    "wof:country":"US",
    "wof:created":1461898159,
    "wof:geomhash":"71f8d5849f2a98cca38a1862cf481b97",
    "wof:hierarchy":[],
    "wof:id":723251973,
    "wof:lastmodified":1461898159,
    "wof:name":"Distinctive Floral Designs",
    "wof:parent_id":-1,
    "wof:placetype":"venue",
    "wof:superseded_by":[],
    "wof:supersedes":[],
    "wof:tags":[]
},
  "bbox": [
    -77.319986,
    39.026601,
    -77.319986,
    39.026601
],
  "geometry": {"coordinates":[-77.319986,39.026601],"type":"Point"}
}