{
  "id": 722599199,
  "type": "Feature",
  "properties": {
    "edtf:cessation":"uuuu",
    "edtf:inception":"uuuu",
    "geom:area":0.0,
    "geom:bbox":"-77.559139,39.100575,-77.559139,39.100575",
    "geom:latitude":39.100575,
    "geom:longitude":-77.559139,
    "iso:country":"US",
    "sg:address":"511 Constellation Sq SE",
    "sg:city":"Leesburg",
    "sg:classifiers":[
        {
            "category":"Professional",
            "subcategory":"Business Services",
            "type":"Services"
        }
    ],
    "sg:owner":"simplegeo",
    "sg:phone":"+1 703 779 0177",
    "sg:postcode":"20175",
    "sg:province":"VA",
    "src:geom":"simplegeo",
    "wof:belongsto":[],
    "wof:breaches":[],
    "wof:concordances":{
        "sg:id":"SG_5DAmPMjlKiKmsVPmOwn3jw_39.100575_-77.559139@1294252573"
    },
    "wof:country":"US",
    "wof:created":1461884956,
    "wof:geomhash":"0343998fce620a60544ecefe5faefb30",
    "wof:hierarchy":[],
    "wof:id":722599199,
    "wof:lastmodified":1461884956,
    "wof:name":"Leas Faux Design",
    "wof:parent_id":-1,
    "wof:placetype":"venue",
    "wof:superseded_by":[],
    "wof:supersedes":[],
    "wof:tags":[]
},
  "bbox": [
    -77.559139,
    39.100575,
    -77.559139,
    39.100575
],
  "geometry": {"coordinates":[-77.559139,39.100575],"type":"Point"}
}