{
  "id": 739293023,
  "type": "Feature",
  "properties": {
    "edtf:cessation":"uuuu",
    "edtf:inception":"uuuu",
    "geom:area":0.0,
    "geom:bbox":"-77.259567,38.848292,-77.259567,38.848292",
    "geom:latitude":38.848292,
    "geom:longitude":-77.259567,
    "iso:country":"US",
    "sg:address":"9107 Horner Ct",
    "sg:city":"Fairfax",
    "sg:classifiers":[
        {
            "category":"Education",
            "subcategory":"School",
            "type":"Public Place"
        }
    ],
    "sg:owner":"simplegeo",
    "sg:phone":"+1 703 645 6300",
    "sg:postcode":"22031",
    "sg:province":"VA",
    "src:geom":"simplegeo",
    "wof:belongsto":[],
    "wof:breaches":[],
    "wof:concordances":{
        "sg:id":"SG_0amzvPRoQUGrPFILAYn1w7_38.848292_-77.259567@1294252573"
    },
    "wof:country":"US",
    "wof:created":1461904427,
    "wof:geomhash":"a6dfec7ed004fa38ca54b3b492247035",
    "wof:hierarchy":[],
    "wof:id":739293023,
    "wof:lastmodified":1461904427,
    "wof:name":"Mantua Elementary School",
    "wof:parent_id":-1,
    "wof:placetype":"venue",
    "wof:superseded_by":[],
    "wof:supersedes":[],
    "wof:tags":[]
},
  "bbox": [
    -77.259567,
    38.848292,
    -77.259567,
    38.848292
],
  "geometry": {"coordinates":[-77.259567,38.848292],"type":"Point"}
}