{
  "id": 723426655,
  "type": "Feature",
  "properties": {
    "edtf:cessation":"uuuu",
    "edtf:inception":"uuuu",
    "geom:area":0.0,
    "geom:bbox":"-77.114342,36.703724,-77.114342,36.703724",
    "geom:latitude":36.703724,
    "geom:longitude":-77.114342,
    "iso:country":"US",
    "sg:address":"23109 Southampton Pkwy",
    "sg:city":"Courtland",
    "sg:classifiers":[
        {
            "category":"Farming",
            "subcategory":"Farm",
            "type":"Manufacturing & Wholesale Goods"
        }
    ],
    "sg:owner":"simplegeo",
    "sg:phone":"+1 757 653 2561",
    "sg:postcode":"23837",
    "sg:province":"VA",
    "sg:tags":[
        "crop",
        "general"
    ],
    "src:geom":"simplegeo",
    "wof:belongsto":[],
    "wof:breaches":[],
    "wof:concordances":{
        "sg:id":"SG_4wLLaSL9OZHHlGPxN4RBge_36.703724_-77.114342@1294252573"
    },
    "wof:country":"US",
    "wof:created":1461901510,
    "wof:geomhash":"71ac01d259681473dab6b30d723f47aa",
    "wof:hierarchy":[],
    "wof:id":723426655,
    "wof:lastmodified":1461901510,
    "wof:name":"William R Davis Jr",
    "wof:parent_id":-1,
    "wof:placetype":"venue",
    "wof:superseded_by":[],
    "wof:supersedes":[],
    "wof:tags":[
        "crop",
        "general"
    ]
},
  "bbox": [
    -77.114342,
    36.703724,
    -77.114342,
    36.703724
],
  "geometry": {"coordinates":[-77.11434199999999,36.703724],"type":"Point"}
}