{
  "id": 722942027,
  "type": "Feature",
  "properties": {
    "edtf:cessation":"uuuu",
    "edtf:inception":"uuuu",
    "geom:area":0.0,
    "geom:bbox":"-77.540556,37.511516,-77.540556,37.511516",
    "geom:latitude":37.511516,
    "geom:longitude":-77.540556,
    "iso:country":"US",
    "sg:address":"7801 Brown Rd",
    "sg:city":"Richmond",
    "sg:classifiers":[
        {
            "category":"Building & Trades",
            "subcategory":"Construction",
            "type":"Services"
        }
    ],
    "sg:owner":"simplegeo",
    "sg:phone":"+1 804 323 1445",
    "sg:postcode":"23235",
    "sg:province":"VA",
    "sg:tags":[
        "contractor"
    ],
    "src:geom":"simplegeo",
    "wof:belongsto":[],
    "wof:breaches":[],
    "wof:concordances":{
        "sg:id":"SG_6V7hVTvIhKAX7qYBpTLGYT_37.511516_-77.540556@1294252573"
    },
    "wof:country":"US",
    "wof:created":1461891673,
    "wof:geomhash":"5d26cc7e2c153d543b6758e79b65e606",
    "wof:hierarchy":[],
    "wof:id":722942027,
    "wof:lastmodified":1461891673,
    "wof:name":"Verret Company",
    "wof:parent_id":-1,
    "wof:placetype":"venue",
    "wof:superseded_by":[],
    "wof:supersedes":[],
    "wof:tags":[
        "contractor"
    ]
},
  "bbox": [
    -77.540556,
    37.511516,
    -77.540556,
    37.511516
],
  "geometry": {"coordinates":[-77.540556,37.511516],"type":"Point"}
}