{
  "id": 722732687,
  "type": "Feature",
  "properties": {
    "edtf:cessation":"uuuu",
    "edtf:inception":"uuuu",
    "geom:area":0.0,
    "geom:bbox":"-77.281852,39.023299,-77.281852,39.023299",
    "geom:latitude":39.023299,
    "geom:longitude":-77.281852,
    "iso:country":"US",
    "sg:address":"328 Club View Dr",
    "sg:city":"Great Falls",
    "sg:classifiers":[
        {
            "category":"Professional",
            "subcategory":"Computer Services",
            "type":"Services"
        }
    ],
    "sg:owner":"simplegeo",
    "sg:phone":"+1 703 759 5171",
    "sg:postcode":"22066",
    "sg:province":"VA",
    "sg:tags":[
        "related"
    ],
    "src:geom":"simplegeo",
    "wof:belongsto":[],
    "wof:breaches":[],
    "wof:concordances":{
        "sg:id":"SG_3K2jMRf3jSYEYyMmcXZe2O_39.023299_-77.281852@1294252573"
    },
    "wof:country":"US",
    "wof:created":1461887598,
    "wof:geomhash":"d2f0af461098dd0bfd3cd89d737b9d4c",
    "wof:hierarchy":[],
    "wof:id":722732687,
    "wof:lastmodified":1461887598,
    "wof:name":"Terabyte Data Systems Inc",
    "wof:parent_id":-1,
    "wof:placetype":"venue",
    "wof:superseded_by":[],
    "wof:supersedes":[],
    "wof:tags":[
        "related"
    ]
},
  "bbox": [
    -77.281852,
    39.023299,
    -77.281852,
    39.023299
],
  "geometry": {"coordinates":[-77.281852,39.023299],"type":"Point"}
}