{
  "id": 723266221,
  "type": "Feature",
  "properties": {
    "edtf:cessation":"uuuu",
    "edtf:inception":"uuuu",
    "geom:area":0.0,
    "geom:bbox":"-77.650674,37.410738,-77.650674,37.410738",
    "geom:latitude":37.410738,
    "geom:longitude":-77.650674,
    "iso:country":"US",
    "sg:address":"13636 Hull Street Rd",
    "sg:city":"Midlothian",
    "sg:classifiers":[
        {
            "category":"Shopping",
            "subcategory":"Pharmacy",
            "type":"Retail Goods"
        }
    ],
    "sg:owner":"simplegeo",
    "sg:phone":"+1 804 739 2329",
    "sg:postcode":"23112",
    "sg:province":"VA",
    "sg:tags":[
        "drug",
        "store"
    ],
    "src:geom":"simplegeo",
    "wof:belongsto":[],
    "wof:breaches":[],
    "wof:concordances":{
        "sg:id":"SG_4KLJzrHUgtyLxBTal2ENvJ_37.410738_-77.650674@1294252573"
    },
    "wof:country":"US",
    "wof:created":1461898426,
    "wof:geomhash":"8881b23546b18ea4d05371420ba8f73c",
    "wof:hierarchy":[],
    "wof:id":723266221,
    "wof:lastmodified":1461898426,
    "wof:name":"CVS",
    "wof:parent_id":-1,
    "wof:placetype":"venue",
    "wof:superseded_by":[],
    "wof:supersedes":[],
    "wof:tags":[
        "drug",
        "store"
    ]
},
  "bbox": [
    -77.650674,
    37.410738,
    -77.650674,
    37.410738
],
  "geometry": {"coordinates":[-77.650674,37.410738],"type":"Point"}
}