{
  "id": 723106415,
  "type": "Feature",
  "properties": {
    "edtf:cessation":"uuuu",
    "edtf:inception":"uuuu",
    "geom:area":0.0,
    "geom:bbox":"-79.145422,37.418372,-79.145422,37.418372",
    "geom:latitude":37.418372,
    "geom:longitude":-79.145422,
    "iso:country":"US",
    "sg:address":"422 Main St",
    "sg:city":"Lynchburg",
    "sg:classifiers":[
        {
            "category":"Restaurant",
            "subcategory":"",
            "type":"Food & Drink"
        }
    ],
    "sg:owner":"simplegeo",
    "sg:phone":"+1 434 846 3823",
    "sg:postcode":"24504",
    "sg:province":"VA",
    "sg:tags":[
        "eating"
    ],
    "src:geom":"simplegeo",
    "wof:belongsto":[],
    "wof:breaches":[],
    "wof:concordances":{
        "sg:id":"SG_5fOWu8cS4hYyvUkpqLqOLC_37.418372_-79.145422@1294252573"
    },
    "wof:country":"US",
    "wof:created":1461895242,
    "wof:geomhash":"402fb50fc7048505036b15e368b0d223",
    "wof:hierarchy":[],
    "wof:id":723106415,
    "wof:lastmodified":1461895242,
    "wof:name":"Texas Inn",
    "wof:parent_id":-1,
    "wof:placetype":"venue",
    "wof:superseded_by":[],
    "wof:supersedes":[],
    "wof:tags":[
        "eating"
    ]
},
  "bbox": [
    -79.145422,
    37.418372,
    -79.145422,
    37.418372
],
  "geometry": {"coordinates":[-79.145422,37.418372],"type":"Point"}
}