{
  "id": 722830683,
  "type": "Feature",
  "properties": {
    "edtf:cessation":"uuuu",
    "edtf:inception":"uuuu",
    "geom:area":0.0,
    "geom:bbox":"-77.467359,38.325533,-77.467359,38.325533",
    "geom:latitude":38.325533,
    "geom:longitude":-77.467359,
    "iso:country":"US",
    "sg:address":"106 Cambridge St",
    "sg:city":"Fredericksburg",
    "sg:classifiers":[
        {
            "category":"Retail",
            "subcategory":"Repair Shop",
            "type":"Services"
        }
    ],
    "sg:owner":"simplegeo",
    "sg:phone":"+1 540 371 1497",
    "sg:postcode":"22405",
    "sg:province":"VA",
    "sg:tags":[
        "machine"
    ],
    "src:geom":"simplegeo",
    "wof:belongsto":[],
    "wof:breaches":[],
    "wof:concordances":{
        "sg:id":"SG_6eixsvEK7gxU6n5Uwsaxm5_38.325533_-77.467359@1294252573"
    },
    "wof:country":"US",
    "wof:created":1461889459,
    "wof:geomhash":"283f63a6ff8cc04cea8ffa46ff341f8d",
    "wof:hierarchy":[],
    "wof:id":722830683,
    "wof:lastmodified":1461889459,
    "wof:name":"Quality Appliance Co Inc",
    "wof:parent_id":-1,
    "wof:placetype":"venue",
    "wof:superseded_by":[],
    "wof:supersedes":[],
    "wof:tags":[
        "machine"
    ]
},
  "bbox": [
    -77.467359,
    38.325533,
    -77.467359,
    38.325533
],
  "geometry": {"coordinates":[-77.467359,38.325533],"type":"Point"}
}