{
  "id": 722567749,
  "type": "Feature",
  "properties": {
    "edtf:cessation":"uuuu",
    "edtf:inception":"uuuu",
    "geom:area":0.0,
    "geom:bbox":"-78.472993,36.79594,-78.472993,36.79594",
    "geom:latitude":36.79594,
    "geom:longitude":-78.472993,
    "iso:country":"US",
    "sg:address":"1037 W 2nd St",
    "sg:city":"Chase City",
    "sg:classifiers":[
        {
            "category":"Restaurant",
            "subcategory":"",
            "type":"Food & Drink"
        }
    ],
    "sg:owner":"simplegeo",
    "sg:phone":"+1 434 372 8716",
    "sg:postcode":"23924",
    "sg:province":"VA",
    "src:geom":"simplegeo",
    "wof:belongsto":[],
    "wof:breaches":[],
    "wof:concordances":{
        "sg:id":"SG_0BbJKs2Nw5ys0d8vzmipbv_36.795940_-78.472993@1294252573"
    },
    "wof:country":"US",
    "wof:created":1461884371,
    "wof:geomhash":"b592fe1e2a68ef6e6fee5007102c6e0e",
    "wof:hierarchy":[],
    "wof:id":722567749,
    "wof:lastmodified":1461884371,
    "wof:name":"Mull's Drive-In",
    "wof:parent_id":-1,
    "wof:placetype":"venue",
    "wof:superseded_by":[],
    "wof:supersedes":[],
    "wof:tags":[]
},
  "bbox": [
    -78.472993,
    36.79594,
    -78.472993,
    36.79594
],
  "geometry": {"coordinates":[-78.472993,36.79594],"type":"Point"}
}