{
  "id": 739425461,
  "type": "Feature",
  "properties": {
    "edtf:cessation":"uuuu",
    "edtf:inception":"uuuu",
    "geom:area":0.0,
    "geom:bbox":"-77.387682,39.007849,-77.387682,39.007849",
    "geom:latitude":39.007849,
    "geom:longitude":-77.387682,
    "iso:country":"US",
    "sg:address":"263 E Juniper Ave",
    "sg:city":"Sterling",
    "sg:classifiers":[
        {
            "category":"Professional",
            "subcategory":"",
            "type":"Services"
        }
    ],
    "sg:owner":"simplegeo",
    "sg:phone":"+1 703 444 6813",
    "sg:postcode":"20164",
    "sg:province":"VA",
    "src:geom":"simplegeo",
    "wof:belongsto":[],
    "wof:breaches":[],
    "wof:concordances":{
        "sg:id":"SG_3fQlmXsD5wLyDJ7DjSd6gM_39.007849_-77.387682@1294252573"
    },
    "wof:country":"US",
    "wof:created":1461907080,
    "wof:geomhash":"cf4be11a52f50d629f2846355c6acc16",
    "wof:hierarchy":[],
    "wof:id":739425461,
    "wof:lastmodified":1461907080,
    "wof:name":"Ly Xeng",
    "wof:parent_id":-1,
    "wof:placetype":"venue",
    "wof:superseded_by":[],
    "wof:supersedes":[],
    "wof:tags":[]
},
  "bbox": [
    -77.387682,
    39.007849,
    -77.387682,
    39.007849
],
  "geometry": {"coordinates":[-77.387682,39.007849],"type":"Point"}
}