{
  "id": 739559125,
  "type": "Feature",
  "properties": {
    "edtf:cessation":"uuuu",
    "edtf:inception":"uuuu",
    "geom:area":0.0,
    "geom:bbox":"-77.442831,38.26735,-77.442831,38.26735",
    "geom:latitude":38.26735,
    "geom:longitude":-77.442831,
    "iso:country":"US",
    "sg:address":"11324 Tidewater Trl",
    "sg:city":"Fredericksburg",
    "sg:classifiers":[],
    "sg:owner":"simplegeo",
    "sg:phone":"+1 540 373 3631",
    "sg:postcode":"22408",
    "sg:province":"VA",
    "sg:tags":[
        "petroleum"
    ],
    "src:geom":"simplegeo",
    "wof:belongsto":[],
    "wof:breaches":[],
    "wof:concordances":{
        "sg:id":"SG_1GfdYbTAPhmK5REJTP512r_38.267350_-77.442831@1294252573"
    },
    "wof:country":"US",
    "wof:created":1461909536,
    "wof:geomhash":"fc91a2674a37dea8c14d0bf34a18698c",
    "wof:hierarchy":[],
    "wof:id":739559125,
    "wof:lastmodified":1461909536,
    "wof:name":"S S C Fredericksburg Petro Svc",
    "wof:parent_id":-1,
    "wof:placetype":"venue",
    "wof:superseded_by":[],
    "wof:supersedes":[],
    "wof:tags":[
        "petroleum"
    ]
},
  "bbox": [
    -77.442831,
    38.26735,
    -77.442831,
    38.26735
],
  "geometry": {"coordinates":[-77.442831,38.26735],"type":"Point"}
}