{
  "id": 722595489,
  "type": "Feature",
  "properties": {
    "edtf:cessation":"uuuu",
    "edtf:inception":"uuuu",
    "geom:area":0.0,
    "geom:bbox":"-77.987528,37.651231,-77.987528,37.651231",
    "geom:latitude":37.651231,
    "geom:longitude":-77.987528,
    "iso:country":"US",
    "sg:address":"1062 Rock Castle Rd",
    "sg:city":"Goochland",
    "sg:classifiers":[
        {
            "category":"Utilities",
            "subcategory":"Refuse",
            "type":"Services"
        }
    ],
    "sg:owner":"simplegeo",
    "sg:phone":"+1 804 457 3542",
    "sg:postcode":"23063",
    "sg:province":"VA",
    "src:geom":"simplegeo",
    "wof:belongsto":[],
    "wof:breaches":[],
    "wof:concordances":{
        "sg:id":"SG_2CAzUFtC3Ro0W51o1OycqG_37.651231_-77.987528@1294252573"
    },
    "wof:country":"US",
    "wof:created":1461884890,
    "wof:geomhash":"6d7ce7cdba4e986ed45f43259baec7c3",
    "wof:hierarchy":[],
    "wof:id":722595489,
    "wof:lastmodified":1461884890,
    "wof:name":"Johnson & Johnson Disposal Svc",
    "wof:parent_id":-1,
    "wof:placetype":"venue",
    "wof:superseded_by":[],
    "wof:supersedes":[],
    "wof:tags":[]
},
  "bbox": [
    -77.987528,
    37.651231,
    -77.987528,
    37.651231
],
  "geometry": {"coordinates":[-77.987528,37.651231],"type":"Point"}
}