{
  "id": 723480769,
  "type": "Feature",
  "properties": {
    "edtf:cessation":"uuuu",
    "edtf:inception":"uuuu",
    "geom:area":0.0,
    "geom:bbox":"-77.728374,38.326016,-77.728374,38.326016",
    "geom:latitude":38.326016,
    "geom:longitude":-77.728374,
    "iso:country":"US",
    "sg:address":"5462 Germanna Hwy",
    "sg:city":"Locust Grove",
    "sg:classifiers":[
        {
            "category":"Autos & Motor Vehicles",
            "subcategory":"Automobile Sales",
            "type":"Retail Goods"
        }
    ],
    "sg:owner":"simplegeo",
    "sg:phone":"+1 540 972 8415",
    "sg:postcode":"22508",
    "sg:province":"VA",
    "sg:tags":[
        "car",
        "dealer"
    ],
    "src:geom":"simplegeo",
    "wof:belongsto":[],
    "wof:breaches":[],
    "wof:concordances":{
        "sg:id":"SG_33n3o1OT5N1XpgCe46DepI_38.326016_-77.728374@1294252573"
    },
    "wof:country":"US",
    "wof:created":1461902554,
    "wof:geomhash":"b1339a83a96415d339bba2963dcaed55",
    "wof:hierarchy":[],
    "wof:id":723480769,
    "wof:lastmodified":1461902554,
    "wof:name":"Wilderness Auto Sales",
    "wof:parent_id":-1,
    "wof:placetype":"venue",
    "wof:superseded_by":[],
    "wof:supersedes":[],
    "wof:tags":[
        "car",
        "dealer"
    ]
},
  "bbox": [
    -77.728374,
    38.326016,
    -77.728374,
    38.326016
],
  "geometry": {"coordinates":[-77.728374,38.326016],"type":"Point"}
}