{
  "id": 722679879,
  "type": "Feature",
  "properties": {
    "edtf:cessation":"uuuu",
    "edtf:inception":"uuuu",
    "geom:area":0.0,
    "geom:bbox":"-80.908549,36.675735,-80.908549,36.675735",
    "geom:latitude":36.675735,
    "geom:longitude":-80.908549,
    "iso:country":"US",
    "sg:address":"150 Larkspur Ln",
    "sg:city":"Galax",
    "sg:classifiers":[
        {
            "category":"Real Estate",
            "subcategory":"Real Estate Operator",
            "type":"Services"
        }
    ],
    "sg:owner":"simplegeo",
    "sg:phone":"+1 276 238 8011",
    "sg:postcode":"24333",
    "sg:province":"VA",
    "sg:tags":[
        "building",
        "apartment"
    ],
    "src:geom":"simplegeo",
    "wof:belongsto":[],
    "wof:breaches":[],
    "wof:concordances":{
        "sg:id":"SG_5B0t3HImHs4mTSGLyS1utQ_36.675735_-80.908549@1294252573"
    },
    "wof:country":"US",
    "wof:created":1461886578,
    "wof:geomhash":"852ebc0629e7f5c5820272021ca88d6b",
    "wof:hierarchy":[],
    "wof:id":722679879,
    "wof:lastmodified":1461886578,
    "wof:name":"Galax Community Apartments",
    "wof:parent_id":-1,
    "wof:placetype":"venue",
    "wof:superseded_by":[],
    "wof:supersedes":[],
    "wof:tags":[
        "building",
        "apartment"
    ]
},
  "bbox": [
    -80.908549,
    36.675735,
    -80.908549,
    36.675735
],
  "geometry": {"coordinates":[-80.90854899999999,36.675735],"type":"Point"}
}