{
  "id": 739603427,
  "type": "Feature",
  "properties": {
    "edtf:cessation":"uuuu",
    "edtf:inception":"uuuu",
    "geom:area":0.0,
    "geom:bbox":"-77.517097,38.793701,-77.517097,38.793701",
    "geom:latitude":38.793701,
    "geom:longitude":-77.517097,
    "iso:country":"US",
    "sg:address":"10753 Ambassador Dr",
    "sg:city":"Manassas",
    "sg:classifiers":[
        {
            "category":"Health Services",
            "subcategory":"Dentist",
            "type":"Services"
        }
    ],
    "sg:owner":"simplegeo",
    "sg:phone":"+1 703 369 7173",
    "sg:postcode":"20109",
    "sg:province":"VA",
    "sg:tags":[
        "cosmetic"
    ],
    "src:geom":"simplegeo",
    "wof:belongsto":[],
    "wof:breaches":[],
    "wof:concordances":{
        "sg:id":"SG_7f27uouBnXFwsvkPGN1yAR_38.793701_-77.517097@1303262495"
    },
    "wof:country":"US",
    "wof:created":1461910483,
    "wof:geomhash":"b7ff4076df144f23980feb8ea74aca55",
    "wof:hierarchy":[],
    "wof:id":739603427,
    "wof:lastmodified":1461910483,
    "wof:name":"Terango Larry DDS",
    "wof:parent_id":-1,
    "wof:placetype":"venue",
    "wof:superseded_by":[],
    "wof:supersedes":[],
    "wof:tags":[
        "cosmetic"
    ]
},
  "bbox": [
    -77.517097,
    38.793701,
    -77.517097,
    38.793701
],
  "geometry": {"coordinates":[-77.51709700000001,38.793701],"type":"Point"}
}