{
  "id": 739711735,
  "type": "Feature",
  "properties": {
    "edtf:cessation":"uuuu",
    "edtf:inception":"uuuu",
    "geom:area":0.0,
    "geom:bbox":"-77.340824,37.518687,-77.340824,37.518687",
    "geom:latitude":37.518687,
    "geom:longitude":-77.340824,
    "iso:country":"US",
    "sg:address":"5300 Airport Square Ln",
    "sg:city":"Sandston",
    "sg:classifiers":[
        {
            "category":"Travel",
            "subcategory":"Hotels & Motels",
            "type":"Entertainment"
        }
    ],
    "sg:owner":"simplegeo",
    "sg:phone":"+1 877 574 2464",
    "sg:postcode":"23150",
    "sg:province":"VA",
    "sg:tags":[
        "lodging"
    ],
    "sg:website":"http://book.bestwestern.com/bestwestern/priceAvail.do?propertyCode=47136&cm_mmc=IYP-_-YP-_-property-_-47136",
    "src:geom":"simplegeo",
    "wof:belongsto":[],
    "wof:breaches":[],
    "wof:concordances":{
        "sg:id":"SG_5R9mCjlQeGsNTtijfOSifR_37.518687_-77.340824@1303262549"
    },
    "wof:country":"US",
    "wof:created":1461912814,
    "wof:geomhash":"e1fa8ba62153e07371e425f0781a880b",
    "wof:hierarchy":[],
    "wof:id":739711735,
    "wof:lastmodified":1461912814,
    "wof:name":"Best Western Richmond Airport Hotel",
    "wof:parent_id":-1,
    "wof:placetype":"venue",
    "wof:superseded_by":[],
    "wof:supersedes":[],
    "wof:tags":[
        "lodging"
    ]
},
  "bbox": [
    -77.340824,
    37.518687,
    -77.340824,
    37.518687
],
  "geometry": {"coordinates":[-77.340824,37.518687],"type":"Point"}
}