{
  "id": 739480075,
  "type": "Feature",
  "properties": {
    "edtf:cessation":"uuuu",
    "edtf:inception":"uuuu",
    "geom:area":0.0,
    "geom:bbox":"-77.277427,38.76245,-77.277427,38.76245",
    "geom:latitude":38.76245,
    "geom:longitude":-77.277427,
    "iso:country":"US",
    "sg:address":"9617 Waterline Dr",
    "sg:city":"Burke",
    "sg:classifiers":[
        {
            "category":"Building & Trades",
            "subcategory":"Cleaning & Sanitation",
            "type":"Services"
        }
    ],
    "sg:owner":"simplegeo",
    "sg:phone":"+1 703 455 3008",
    "sg:postcode":"22015",
    "sg:province":"VA",
    "sg:tags":[
        "maintenance"
    ],
    "src:geom":"simplegeo",
    "wof:belongsto":[],
    "wof:breaches":[],
    "wof:concordances":{
        "sg:id":"SG_5MA7rEhoTRm7Jd5Jcr7CQ0_38.762450_-77.277427@1294252573"
    },
    "wof:country":"US",
    "wof:created":1461908073,
    "wof:geomhash":"6a0eedda1dccd6d93f0a99b6d91c2857",
    "wof:hierarchy":[],
    "wof:id":739480075,
    "wof:lastmodified":1461908073,
    "wof:name":"Maid To Order",
    "wof:parent_id":-1,
    "wof:placetype":"venue",
    "wof:superseded_by":[],
    "wof:supersedes":[],
    "wof:tags":[
        "maintenance"
    ]
},
  "bbox": [
    -77.277427,
    38.76245,
    -77.277427,
    38.76245
],
  "geometry": {"coordinates":[-77.277427,38.76245],"type":"Point"}
}