{
  "id": 722564395,
  "type": "Feature",
  "properties": {
    "edtf:cessation":"uuuu",
    "edtf:inception":"uuuu",
    "geom:area":0.0,
    "geom:bbox":"-77.362996,37.657796,-77.362996,37.657796",
    "geom:latitude":37.657796,
    "geom:longitude":-77.362996,
    "iso:country":"US",
    "sg:address":"9293 W Wenlock Dr",
    "sg:city":"Mechanicsville",
    "sg:classifiers":[
        {
            "category":"Building & Trades",
            "subcategory":"Landscaping Services",
            "type":"Services"
        }
    ],
    "sg:owner":"simplegeo",
    "sg:phone":"+1 804 730 9755",
    "sg:postcode":"23116",
    "sg:province":"VA",
    "src:geom":"simplegeo",
    "wof:belongsto":[],
    "wof:breaches":[],
    "wof:concordances":{
        "sg:id":"SG_1QGkgEh08TYX8DUBColG2J_37.657796_-77.362996@1294252573"
    },
    "wof:country":"US",
    "wof:created":1461884302,
    "wof:geomhash":"191233789bbf235a1dfd45afc0362923",
    "wof:hierarchy":[],
    "wof:id":722564395,
    "wof:lastmodified":1461884302,
    "wof:name":"Colonial Lawn Landscaping",
    "wof:parent_id":-1,
    "wof:placetype":"venue",
    "wof:superseded_by":[],
    "wof:supersedes":[],
    "wof:tags":[]
},
  "bbox": [
    -77.362996,
    37.657796,
    -77.362996,
    37.657796
],
  "geometry": {"coordinates":[-77.362996,37.657796],"type":"Point"}
}