{
  "id": 723068293,
  "type": "Feature",
  "properties": {
    "edtf:cessation":"uuuu",
    "edtf:inception":"uuuu",
    "geom:area":0.0,
    "geom:bbox":"-80.923408,36.658767,-80.923408,36.658767",
    "geom:latitude":36.658767,
    "geom:longitude":-80.923408,
    "iso:country":"US",
    "sg:address":"401 S Main St",
    "sg:city":"Galax",
    "sg:classifiers":[
        {
            "category":"Shopping",
            "subcategory":"Florist",
            "type":"Retail Goods"
        }
    ],
    "sg:owner":"simplegeo",
    "sg:phone":"+1 276 238 5551",
    "sg:postcode":"24333",
    "sg:province":"VA",
    "src:geom":"simplegeo",
    "wof:belongsto":[],
    "wof:breaches":[],
    "wof:concordances":{
        "sg:id":"SG_7UbOAF3rwd5G8nP4OGEjHq_36.658767_-80.923408@1294252573"
    },
    "wof:country":"US",
    "wof:created":1461894413,
    "wof:geomhash":"1a9d4bcb5b0458059bed34f425fc2e6f",
    "wof:hierarchy":[],
    "wof:id":723068293,
    "wof:lastmodified":1461894413,
    "wof:name":"Meadow Creek Nrsy & Floral Inc",
    "wof:parent_id":-1,
    "wof:placetype":"venue",
    "wof:superseded_by":[],
    "wof:supersedes":[],
    "wof:tags":[]
},
  "bbox": [
    -80.923408,
    36.658767,
    -80.923408,
    36.658767
],
  "geometry": {"coordinates":[-80.92340799999999,36.658767],"type":"Point"}
}