{
  "id": 739585351,
  "type": "Feature",
  "properties": {
    "edtf:cessation":"uuuu",
    "edtf:inception":"uuuu",
    "geom:area":0.0,
    "geom:bbox":"-77.461141,37.675182,-77.461141,37.675182",
    "geom:latitude":37.675182,
    "geom:longitude":-77.461141,
    "iso:country":"US",
    "sg:address":"10118 Brook Rd",
    "sg:city":"Glen Allen",
    "sg:classifiers":[
        {
            "category":"Restaurant",
            "subcategory":"",
            "type":"Food & Drink"
        }
    ],
    "sg:menulink":"http://www.allmenus.com/va/fairfield/257410-ginos-pizzeria/menu/",
    "sg:owner":"simplegeo",
    "sg:phone":"+1 804 537 2401",
    "sg:postcode":"23059",
    "sg:province":"VA",
    "sg:tags":[
        "american",
        "pizza"
    ],
    "src:geom":"simplegeo",
    "wof:belongsto":[],
    "wof:breaches":[],
    "wof:concordances":{
        "sg:id":"SG_7fncKlXWrDzF7ekFZmzpJz_37.675182_-77.461141@1299784598"
    },
    "wof:country":"US",
    "wof:created":1461910112,
    "wof:geomhash":"0a4a0f6101a3cc7960d14d9995036fd7",
    "wof:hierarchy":[],
    "wof:id":739585351,
    "wof:lastmodified":1461910112,
    "wof:name":"Gino's Pizzeria",
    "wof:parent_id":-1,
    "wof:placetype":"venue",
    "wof:superseded_by":[],
    "wof:supersedes":[],
    "wof:tags":[
        "american",
        "pizza"
    ]
},
  "bbox": [
    -77.461141,
    37.675182,
    -77.461141,
    37.675182
],
  "geometry": {"coordinates":[-77.461141,37.675182],"type":"Point"}
}