{
  "id": 722839003,
  "type": "Feature",
  "properties": {
    "edtf:cessation":"uuuu",
    "edtf:inception":"uuuu",
    "geom:area":0.0,
    "geom:bbox":"-77.190481,38.708933,-77.190481,38.708933",
    "geom:latitude":38.708933,
    "geom:longitude":-77.190481,
    "iso:country":"US",
    "sg:address":"9090 Belvoir Woods Pkwy",
    "sg:city":"Fort Belvoir",
    "sg:classifiers":[
        {
            "category":"Professional",
            "subcategory":"",
            "type":"Services"
        }
    ],
    "sg:owner":"simplegeo",
    "sg:phone":"+1 703 781 9500",
    "sg:postcode":"22060",
    "sg:province":"VA",
    "sg:tags":[
        "establishment"
    ],
    "src:geom":"simplegeo",
    "wof:belongsto":[],
    "wof:breaches":[],
    "wof:concordances":{
        "sg:id":"SG_1GiCaxkBMmvjAjsSlMw5Za_38.708933_-77.190481@1294252573"
    },
    "wof:country":"US",
    "wof:created":1461889606,
    "wof:geomhash":"e05e0d3f88b623933ce3017cb4aede59",
    "wof:hierarchy":[],
    "wof:id":722839003,
    "wof:lastmodified":1461889606,
    "wof:name":"Bel-Aire Co",
    "wof:parent_id":-1,
    "wof:placetype":"venue",
    "wof:superseded_by":[],
    "wof:supersedes":[],
    "wof:tags":[
        "establishment"
    ]
},
  "bbox": [
    -77.190481,
    38.708933,
    -77.190481,
    38.708933
],
  "geometry": {"coordinates":[-77.19048100000001,38.708933],"type":"Point"}
}