{
  "id": 723253953,
  "type": "Feature",
  "properties": {
    "edtf:cessation":"uuuu",
    "edtf:inception":"uuuu",
    "geom:area":0.0,
    "geom:bbox":"-77.399921,38.320128,-77.399921,38.320128",
    "geom:latitude":38.320128,
    "geom:longitude":-77.399921,
    "iso:country":"US",
    "sg:address":"156 New Hope Church Rd",
    "sg:city":"Fredericksburg",
    "sg:classifiers":[
        {
            "category":"Organizations",
            "subcategory":"Religious Organization",
            "type":"Services"
        }
    ],
    "sg:owner":"simplegeo",
    "sg:phone":"+1 540 373 1665",
    "sg:postcode":"22405",
    "sg:province":"VA",
    "src:geom":"simplegeo",
    "wof:belongsto":[],
    "wof:breaches":[],
    "wof:concordances":{
        "sg:id":"SG_4TNvgW4AME8g6TnTf4jCBD_38.320128_-77.399921@1294252573"
    },
    "wof:country":"US",
    "wof:created":1461898197,
    "wof:geomhash":"99d12e3885d28a2a995ceb3bdb7dcced",
    "wof:hierarchy":[],
    "wof:id":723253953,
    "wof:lastmodified":1461898197,
    "wof:name":"Robert W Smith Rev",
    "wof:parent_id":420547191,
    "wof:placetype":"venue",
    "wof:superseded_by":[],
    "wof:supersedes":[],
    "wof:tags":[]
},
  "bbox": [
    -77.399921,
    38.320128,
    -77.399921,
    38.320128
],
  "geometry": {"coordinates":[-77.39992100000001,38.320128],"type":"Point"}
}