{
  "id": 722747445,
  "type": "Feature",
  "properties": {
    "edtf:cessation":"uuuu",
    "edtf:inception":"uuuu",
    "geom:area":0.0,
    "geom:bbox":"-77.666201,38.269014,-77.666201,38.269014",
    "geom:latitude":38.269014,
    "geom:longitude":-77.666201,
    "iso:country":"US",
    "sg:address":"11407 Jackson Trl E",
    "sg:city":"Spotsylvania",
    "sg:classifiers":[
        {
            "category":"Professional",
            "subcategory":"Management & Consulting",
            "type":"Services"
        }
    ],
    "sg:owner":"simplegeo",
    "sg:phone":"+1 540 972 1552",
    "sg:postcode":"22553",
    "sg:province":"VA",
    "src:geom":"simplegeo",
    "wof:belongsto":[],
    "wof:breaches":[],
    "wof:concordances":{
        "sg:id":"SG_3VgcGWhTAkbOxEWaL4OJ1q_38.269014_-77.666201@1294252573"
    },
    "wof:country":"US",
    "wof:created":1461887893,
    "wof:geomhash":"6b17499a3898b7eb5bdab93a22e9b106",
    "wof:hierarchy":[],
    "wof:id":722747445,
    "wof:lastmodified":1461887893,
    "wof:name":"Dorcas R Hardy & Assoc",
    "wof:parent_id":-1,
    "wof:placetype":"venue",
    "wof:superseded_by":[],
    "wof:supersedes":[],
    "wof:tags":[]
},
  "bbox": [
    -77.666201,
    38.269014,
    -77.666201,
    38.269014
],
  "geometry": {"coordinates":[-77.666201,38.269014],"type":"Point"}
}