{
  "id": 723507221,
  "type": "Feature",
  "properties": {
    "edtf:cessation":"uuuu",
    "edtf:inception":"uuuu",
    "geom:area":0.0,
    "geom:bbox":"-77.517892,38.292184,-77.517892,38.292184",
    "geom:latitude":38.292184,
    "geom:longitude":-77.517892,
    "iso:country":"US",
    "sg:address":"934 Bragg Rd",
    "sg:city":"Fredericksburg",
    "sg:classifiers":[
        {
            "category":"Personal",
            "subcategory":"Barber",
            "type":"Services"
        }
    ],
    "sg:owner":"simplegeo",
    "sg:phone":"+1 540 785 6958",
    "sg:postcode":"22407",
    "sg:province":"VA",
    "sg:tags":[
        "shop"
    ],
    "src:geom":"simplegeo",
    "wof:belongsto":[],
    "wof:breaches":[],
    "wof:concordances":{
        "sg:id":"SG_4xp4zSZlIHGXi7jWtEGdIK_38.292184_-77.517892@1294252573"
    },
    "wof:country":"US",
    "wof:created":1461903117,
    "wof:geomhash":"3162967479d08c693bb64980654e06d3",
    "wof:hierarchy":[],
    "wof:id":723507221,
    "wof:lastmodified":1461903117,
    "wof:name":"Village Square Barber & Hair S",
    "wof:parent_id":-1,
    "wof:placetype":"venue",
    "wof:superseded_by":[],
    "wof:supersedes":[],
    "wof:tags":[
        "shop"
    ]
},
  "bbox": [
    -77.517892,
    38.292184,
    -77.517892,
    38.292184
],
  "geometry": {"coordinates":[-77.517892,38.292184],"type":"Point"}
}