{
  "id": 723320459,
  "type": "Feature",
  "properties": {
    "edtf:cessation":"uuuu",
    "edtf:inception":"uuuu",
    "geom:area":0.0,
    "geom:bbox":"-77.506392,37.590609,-77.506392,37.590609",
    "geom:latitude":37.590609,
    "geom:longitude":-77.506392,
    "iso:country":"US",
    "sg:address":"2004 Bremo Rd",
    "sg:city":"Richmond",
    "sg:classifiers":[
        {
            "category":"Health Services",
            "subcategory":"Podiatrist",
            "type":"Services"
        }
    ],
    "sg:owner":"simplegeo",
    "sg:phone":"+1 804 285 3933",
    "sg:postcode":"23226",
    "sg:province":"VA",
    "src:geom":"simplegeo",
    "wof:belongsto":[],
    "wof:breaches":[],
    "wof:concordances":{
        "sg:id":"SG_1MrrDq9bHOnPAGoYDZCo9N_37.590609_-77.506392@1294252573"
    },
    "wof:country":"US",
    "wof:created":1461899457,
    "wof:geomhash":"c0772386dc35f5dd8a16033fed88d9f1",
    "wof:hierarchy":[],
    "wof:id":723320459,
    "wof:lastmodified":1461899457,
    "wof:name":"Virginia Foot & Ankle Spec",
    "wof:parent_id":-1,
    "wof:placetype":"venue",
    "wof:superseded_by":[],
    "wof:supersedes":[],
    "wof:tags":[]
},
  "bbox": [
    -77.506392,
    37.590609,
    -77.506392,
    37.590609
],
  "geometry": {"coordinates":[-77.50639200000001,37.590609],"type":"Point"}
}