{
  "id": 723070811,
  "type": "Feature",
  "properties": {
    "edtf:cessation":"uuuu",
    "edtf:inception":"uuuu",
    "geom:area":0.0,
    "geom:bbox":"-77.46311,38.87362,-77.46311,38.87362",
    "geom:latitude":38.87362,
    "geom:longitude":-77.46311,
    "iso:country":"US",
    "sg:address":"5160 Parkstone Dr",
    "sg:city":"Chantilly",
    "sg:classifiers":[
        {
            "category":"Professional",
            "subcategory":"",
            "type":"Services"
        }
    ],
    "sg:owner":"simplegeo",
    "sg:phone":"+1 703 378 3002",
    "sg:postcode":"20151",
    "sg:province":"VA",
    "sg:tags":[
        "establishment"
    ],
    "src:geom":"simplegeo",
    "wof:belongsto":[],
    "wof:breaches":[],
    "wof:concordances":{
        "sg:id":"SG_1zbFF0pSvz1RftMcYScH1Y_38.873620_-77.463110@1294252573"
    },
    "wof:country":"US",
    "wof:created":1461894477,
    "wof:geomhash":"9d4cbddf42682d8096f98aec6622e93e",
    "wof:hierarchy":[],
    "wof:id":723070811,
    "wof:lastmodified":1461894477,
    "wof:name":"Magellan Carbon Fuel",
    "wof:parent_id":-1,
    "wof:placetype":"venue",
    "wof:superseded_by":[],
    "wof:supersedes":[],
    "wof:tags":[
        "establishment"
    ]
},
  "bbox": [
    -77.46311,
    38.87362,
    -77.46311,
    38.87362
],
  "geometry": {"coordinates":[-77.46311,38.87362],"type":"Point"}
}