{
  "id": 723162183,
  "type": "Feature",
  "properties": {
    "edtf:cessation":"uuuu",
    "edtf:inception":"uuuu",
    "geom:area":0.0,
    "geom:bbox":"-78.168115,39.180859,-78.168115,39.180859",
    "geom:latitude":39.180859,
    "geom:longitude":-78.168115,
    "iso:country":"US",
    "sg:address":"32 W Cecil St",
    "sg:city":"Winchester",
    "sg:classifiers":[
        {
            "category":"Retail",
            "subcategory":"Auto Repair",
            "type":"Services"
        }
    ],
    "sg:owner":"simplegeo",
    "sg:phone":"+1 540 662 5066",
    "sg:postcode":"22601",
    "sg:province":"VA",
    "sg:tags":[
        "repairing",
        "automobile"
    ],
    "src:geom":"simplegeo",
    "wof:belongsto":[],
    "wof:breaches":[],
    "wof:concordances":{
        "sg:id":"SG_01HbAg6PCGbTqmPRFSnXE9_39.180859_-78.168115@1294252573"
    },
    "wof:country":"US",
    "wof:created":1461896325,
    "wof:geomhash":"e4c9f46b2654d76ce96b6d2ce794874f",
    "wof:hierarchy":[],
    "wof:id":723162183,
    "wof:lastmodified":1461896325,
    "wof:name":"Minnick's Auto Repair",
    "wof:parent_id":-1,
    "wof:placetype":"venue",
    "wof:superseded_by":[],
    "wof:supersedes":[],
    "wof:tags":[
        "repairing",
        "automobile"
    ]
},
  "bbox": [
    -78.168115,
    39.180859,
    -78.168115,
    39.180859
],
  "geometry": {"coordinates":[-78.168115,39.180859],"type":"Point"}
}