{
  "id": 723229013,
  "type": "Feature",
  "properties": {
    "edtf:cessation":"uuuu",
    "edtf:inception":"uuuu",
    "geom:area":0.0,
    "geom:bbox":"-76.288411,36.856079,-76.288411,36.856079",
    "geom:latitude":36.856079,
    "geom:longitude":-76.288411,
    "iso:country":"US",
    "sg:address":"739 Granby St",
    "sg:city":"Norfolk",
    "sg:classifiers":[
        {
            "category":"Real Estate",
            "subcategory":"Real Estate Agent",
            "type":"Services"
        }
    ],
    "sg:owner":"simplegeo",
    "sg:phone":"+1 757 489 4004",
    "sg:postcode":"23510",
    "sg:province":"VA",
    "src:geom":"simplegeo",
    "wof:belongsto":[],
    "wof:breaches":[],
    "wof:concordances":{
        "sg:id":"SG_4VvvJxExfjhGFhGJquS4Yd_36.856079_-76.288411@1294252573"
    },
    "wof:country":"US",
    "wof:created":1461897681,
    "wof:geomhash":"f519835c3e166215a8b23ec23dfabe9a",
    "wof:hierarchy":[],
    "wof:id":723229013,
    "wof:lastmodified":1461897681,
    "wof:name":"HBO Assoc LP",
    "wof:parent_id":-1,
    "wof:placetype":"venue",
    "wof:superseded_by":[],
    "wof:supersedes":[],
    "wof:tags":[]
},
  "bbox": [
    -76.288411,
    36.856079,
    -76.288411,
    36.856079
],
  "geometry": {"coordinates":[-76.288411,36.856079],"type":"Point"}
}