{
  "id": 723391045,
  "type": "Feature",
  "properties": {
    "edtf:cessation":"uuuu",
    "edtf:inception":"uuuu",
    "geom:area":0.0,
    "geom:bbox":"-77.47572,38.892594,-77.47572,38.892594",
    "geom:latitude":38.892594,
    "geom:longitude":-77.47572,
    "iso:country":"US",
    "sg:address":"15214 Sovereign Pl",
    "sg:city":"Chantilly",
    "sg:classifiers":[
        {
            "category":"Professional",
            "subcategory":"Engineering",
            "type":"Services"
        }
    ],
    "sg:owner":"simplegeo",
    "sg:phone":"+1 703 263 0151",
    "sg:postcode":"20151",
    "sg:province":"VA",
    "sg:tags":[
        "engineer"
    ],
    "src:geom":"simplegeo",
    "wof:belongsto":[],
    "wof:breaches":[],
    "wof:concordances":{
        "sg:id":"SG_54iMAbnrxMTsQr0uQqYqAC_38.892594_-77.475720@1294252573"
    },
    "wof:country":"US",
    "wof:created":1461900794,
    "wof:geomhash":"47e2f77a39cad541ac06795deddabbda",
    "wof:hierarchy":[],
    "wof:id":723391045,
    "wof:lastmodified":1461900794,
    "wof:name":"Tele-Consultants Inc",
    "wof:parent_id":-1,
    "wof:placetype":"venue",
    "wof:superseded_by":[],
    "wof:supersedes":[],
    "wof:tags":[
        "engineer"
    ]
},
  "bbox": [
    -77.47572,
    38.892594,
    -77.47572,
    38.892594
],
  "geometry": {"coordinates":[-77.47572,38.892594],"type":"Point"}
}