{
  "id": 739454087,
  "type": "Feature",
  "properties": {
    "edtf:cessation":"uuuu",
    "edtf:inception":"uuuu",
    "geom:area":0.0,
    "geom:bbox":"-77.78122,37.702305,-77.78122,37.702305",
    "geom:latitude":37.702305,
    "geom:longitude":-77.78122,
    "iso:country":"US",
    "sg:address":"1393 Broad Street Rd",
    "sg:city":"Oilville",
    "sg:classifiers":[
        {
            "category":"Manufacturing",
            "subcategory":"Printing",
            "type":"Manufacturing & Wholesale Goods"
        }
    ],
    "sg:owner":"simplegeo",
    "sg:phone":"+1 804 784 4760",
    "sg:postcode":"23129",
    "sg:province":"VA",
    "sg:tags":[
        "lithographic",
        "commercial"
    ],
    "src:geom":"simplegeo",
    "wof:belongsto":[],
    "wof:breaches":[],
    "wof:concordances":{
        "sg:id":"SG_1sICEJKtp4oYOXWbLJsc1n_37.702305_-77.781220@1294252573"
    },
    "wof:country":"US",
    "wof:created":1461907613,
    "wof:geomhash":"34f09a86cb4888bf1c4c750aa90c7040",
    "wof:hierarchy":[],
    "wof:id":739454087,
    "wof:lastmodified":1461907613,
    "wof:name":"Copyright Printing",
    "wof:parent_id":-1,
    "wof:placetype":"venue",
    "wof:superseded_by":[],
    "wof:supersedes":[],
    "wof:tags":[
        "lithographic",
        "commercial"
    ]
},
  "bbox": [
    -77.78122,
    37.702305,
    -77.78122,
    37.702305
],
  "geometry": {"coordinates":[-77.78122,37.702305],"type":"Point"}
}