{
  "id": 722939529,
  "type": "Feature",
  "properties": {
    "edtf:cessation":"uuuu",
    "edtf:inception":"uuuu",
    "geom:area":0.0,
    "geom:bbox":"-77.409672,38.836617,-77.409672,38.836617",
    "geom:latitude":38.836617,
    "geom:longitude":-77.409672,
    "iso:country":"US",
    "sg:address":"13361 Moore Rd",
    "sg:city":"Clifton",
    "sg:classifiers":[
        {
            "category":"Professional",
            "subcategory":"Lawyer & Legal Services",
            "type":"Services"
        }
    ],
    "sg:owner":"simplegeo",
    "sg:phone":"+1 703 378 5000",
    "sg:postcode":"20124",
    "sg:province":"VA",
    "sg:tags":[
        "attorney"
    ],
    "src:geom":"simplegeo",
    "wof:belongsto":[],
    "wof:breaches":[],
    "wof:concordances":{
        "sg:id":"SG_7QV3e338cZF4PewWBMm1mT_38.836617_-77.409672@1294252573"
    },
    "wof:country":"US",
    "wof:created":1461891625,
    "wof:geomhash":"1847455e7acfa8ea5389adc5d52367c6",
    "wof:hierarchy":[],
    "wof:id":722939529,
    "wof:lastmodified":1461891625,
    "wof:name":"Nicholas H Hantzes",
    "wof:parent_id":-1,
    "wof:placetype":"venue",
    "wof:superseded_by":[],
    "wof:supersedes":[],
    "wof:tags":[
        "attorney"
    ]
},
  "bbox": [
    -77.409672,
    38.836617,
    -77.409672,
    38.836617
],
  "geometry": {"coordinates":[-77.409672,38.836617],"type":"Point"}
}