{
  "id": 722738839,
  "type": "Feature",
  "properties": {
    "edtf:cessation":"uuuu",
    "edtf:inception":"uuuu",
    "geom:area":0.0,
    "geom:bbox":"-79.356342,37.729303,-79.356342,37.729303",
    "geom:latitude":37.729303,
    "geom:longitude":-79.356342,
    "iso:country":"US",
    "sg:address":"1664 Magnolia Ave",
    "sg:city":"Buena Vista",
    "sg:classifiers":[
        {
            "category":"Professional",
            "subcategory":"Management & Consulting",
            "type":"Services"
        }
    ],
    "sg:owner":"simplegeo",
    "sg:phone":"+1 540 261 2061",
    "sg:postcode":"24416",
    "sg:province":"VA",
    "sg:tags":[
        "food"
    ],
    "src:geom":"simplegeo",
    "wof:belongsto":[],
    "wof:breaches":[],
    "wof:concordances":{
        "sg:id":"SG_6svGCxtgs5xgni2JsUZMiL_37.729303_-79.356342@1294252573"
    },
    "wof:country":"US",
    "wof:created":1461887719,
    "wof:geomhash":"1947dda3803408aafa40e0737606d8ea",
    "wof:hierarchy":[],
    "wof:id":722738839,
    "wof:lastmodified":1461887719,
    "wof:name":"Aramark",
    "wof:parent_id":-1,
    "wof:placetype":"venue",
    "wof:superseded_by":[],
    "wof:supersedes":[],
    "wof:tags":[
        "food"
    ]
},
  "bbox": [
    -79.356342,
    37.729303,
    -79.356342,
    37.729303
],
  "geometry": {"coordinates":[-79.356342,37.729303],"type":"Point"}
}