{
  "id": 723320925,
  "type": "Feature",
  "properties": {
    "edtf:cessation":"uuuu",
    "edtf:inception":"uuuu",
    "geom:area":0.0,
    "geom:bbox":"-77.457288,38.866608,-77.457288,38.866608",
    "geom:latitude":38.866608,
    "geom:longitude":-77.457288,
    "iso:country":"US",
    "sg:address":"14708 Algretus Dr",
    "sg:city":"Centreville",
    "sg:classifiers":[
        {
            "category":"Social Services",
            "subcategory":"Child Care",
            "type":"Services"
        }
    ],
    "sg:owner":"simplegeo",
    "sg:phone":"+1 703 830 5032",
    "sg:postcode":"20120",
    "sg:province":"VA",
    "sg:tags":[
        "day"
    ],
    "src:geom":"simplegeo",
    "wof:belongsto":[],
    "wof:breaches":[],
    "wof:concordances":{
        "sg:id":"SG_25gL92SN9vAr87RuG7nLpA_38.866608_-77.457288@1294252573"
    },
    "wof:country":"US",
    "wof:created":1461899465,
    "wof:geomhash":"e49cd0606506d274392b86865852854b",
    "wof:hierarchy":[],
    "wof:id":723320925,
    "wof:lastmodified":1461899465,
    "wof:name":"Vicki Darby",
    "wof:parent_id":-1,
    "wof:placetype":"venue",
    "wof:superseded_by":[],
    "wof:supersedes":[],
    "wof:tags":[
        "day"
    ]
},
  "bbox": [
    -77.457288,
    38.866608,
    -77.457288,
    38.866608
],
  "geometry": {"coordinates":[-77.45728800000001,38.866608],"type":"Point"}
}