{
  "id": 723347597,
  "type": "Feature",
  "properties": {
    "edtf:cessation":"uuuu",
    "edtf:inception":"uuuu",
    "geom:area":0.0,
    "geom:bbox":"-77.491243,37.664116,-77.491243,37.664116",
    "geom:latitude":37.664116,
    "geom:longitude":-77.491243,
    "iso:country":"US",
    "sg:address":"2526 Mountain Rd",
    "sg:city":"Glen Allen",
    "sg:classifiers":[
        {
            "category":"Building & Trades",
            "subcategory":"Construction",
            "type":"Services"
        }
    ],
    "sg:owner":"simplegeo",
    "sg:phone":"+1 804 266 8125",
    "sg:postcode":"23060",
    "sg:province":"VA",
    "sg:tags":[
        "excavation",
        "grading",
        "contractor"
    ],
    "src:geom":"simplegeo",
    "wof:belongsto":[],
    "wof:breaches":[],
    "wof:concordances":{
        "sg:id":"SG_05UpkGE3s33hCldTaVYnXM_37.664116_-77.491243@1294252573"
    },
    "wof:country":"US",
    "wof:created":1461899953,
    "wof:geomhash":"5db1599d65f2834f4ea9a3522ba32263",
    "wof:hierarchy":[],
    "wof:id":723347597,
    "wof:lastmodified":1461899953,
    "wof:name":"A B Faw Construction Co Inc",
    "wof:parent_id":-1,
    "wof:placetype":"venue",
    "wof:superseded_by":[],
    "wof:supersedes":[],
    "wof:tags":[
        "excavation",
        "grading",
        "contractor"
    ]
},
  "bbox": [
    -77.491243,
    37.664116,
    -77.491243,
    37.664116
],
  "geometry": {"coordinates":[-77.491243,37.664116],"type":"Point"}
}