{
  "id": 739369067,
  "type": "Feature",
  "properties": {
    "edtf:cessation":"uuuu",
    "edtf:inception":"uuuu",
    "geom:area":0.0,
    "geom:bbox":"-77.288495,37.302612,-77.288495,37.302612",
    "geom:latitude":37.302612,
    "geom:longitude":-77.288495,
    "iso:country":"US",
    "sg:address":"204 W Poythress St",
    "sg:city":"Hopewell",
    "sg:classifiers":[
        {
            "category":"Utilities",
            "subcategory":"Telephone",
            "type":"Services"
        }
    ],
    "sg:owner":"simplegeo",
    "sg:phone":"+1 804 541 9973",
    "sg:postcode":"23860",
    "sg:province":"VA",
    "sg:tags":[
        "communications"
    ],
    "src:geom":"simplegeo",
    "wof:belongsto":[],
    "wof:breaches":[],
    "wof:concordances":{
        "sg:id":"SG_61l1Bz5vwvTqctt6qHWZzw_37.302612_-77.288495@1294252573"
    },
    "wof:country":"US",
    "wof:created":1461905981,
    "wof:geomhash":"c955eb7a76c6d0156257fd0f0172677b",
    "wof:hierarchy":[],
    "wof:id":739369067,
    "wof:lastmodified":1461905981,
    "wof:name":"Verizon",
    "wof:parent_id":-1,
    "wof:placetype":"venue",
    "wof:superseded_by":[],
    "wof:supersedes":[],
    "wof:tags":[
        "communications"
    ]
},
  "bbox": [
    -77.288495,
    37.302612,
    -77.288495,
    37.302612
],
  "geometry": {"coordinates":[-77.288495,37.302612],"type":"Point"}
}