{
  "id": 722641065,
  "type": "Feature",
  "properties": {
    "edtf:cessation":"uuuu",
    "edtf:inception":"uuuu",
    "geom:area":0.0,
    "geom:bbox":"-80.148661,36.557315,-80.148661,36.557315",
    "geom:latitude":36.557315,
    "geom:longitude":-80.148661,
    "iso:country":"US",
    "sg:address":"174 Dominion Valley Ln",
    "sg:city":"Stuart",
    "sg:classifiers":[
        {
            "category":"Manufacturing",
            "subcategory":"Tools & Machinery",
            "type":"Manufacturing & Wholesale Goods"
        }
    ],
    "sg:owner":"simplegeo",
    "sg:phone":"+1 276 694 4109",
    "sg:postcode":"24171",
    "sg:province":"VA",
    "sg:tags":[
        "machine",
        "shop"
    ],
    "src:geom":"simplegeo",
    "wof:belongsto":[],
    "wof:breaches":[],
    "wof:concordances":{
        "sg:id":"SG_6ROFKanMbUHG3NRiJzpv62_36.557315_-80.148661@1294252573"
    },
    "wof:country":"US",
    "wof:created":1461885862,
    "wof:geomhash":"ab2ea271c68f2f8cc1e0572fc3b19b69",
    "wof:hierarchy":[],
    "wof:id":722641065,
    "wof:lastmodified":1461885862,
    "wof:name":"L K Smith Machine Shop",
    "wof:parent_id":-1,
    "wof:placetype":"venue",
    "wof:superseded_by":[],
    "wof:supersedes":[],
    "wof:tags":[
        "machine",
        "shop"
    ]
},
  "bbox": [
    -80.148661,
    36.557315,
    -80.148661,
    36.557315
],
  "geometry": {"coordinates":[-80.148661,36.557315],"type":"Point"}
}