{
  "id": 722699047,
  "type": "Feature",
  "properties": {
    "edtf:cessation":"uuuu",
    "edtf:inception":"uuuu",
    "geom:area":0.0,
    "geom:bbox":"-83.036575,36.753679,-83.036575,36.753679",
    "geom:latitude":36.753679,
    "geom:longitude":-83.036575,
    "iso:country":"US",
    "sg:address":"824 W Morgan Ave",
    "sg:city":"Pennington Gap",
    "sg:classifiers":[
        {
            "category":"Insurance",
            "subcategory":"Insurance Agent",
            "type":"Services"
        }
    ],
    "sg:owner":"simplegeo",
    "sg:phone":"+1 276 546 4707",
    "sg:postcode":"24277",
    "sg:province":"VA",
    "src:geom":"simplegeo",
    "wof:belongsto":[],
    "wof:breaches":[],
    "wof:concordances":{
        "sg:id":"SG_5Wk8V0iZw0sM7Qmb7kPCJn_36.753679_-83.036575@1294252573"
    },
    "wof:country":"US",
    "wof:created":1461886951,
    "wof:geomhash":"9004acb4817785420586f4c6f42be54a",
    "wof:hierarchy":[],
    "wof:id":722699047,
    "wof:lastmodified":1461886951,
    "wof:name":"Hayes Insurance",
    "wof:parent_id":-1,
    "wof:placetype":"venue",
    "wof:superseded_by":[],
    "wof:supersedes":[],
    "wof:tags":[]
},
  "bbox": [
    -83.036575,
    36.753679,
    -83.036575,
    36.753679
],
  "geometry": {"coordinates":[-83.036575,36.753679],"type":"Point"}
}