{
  "id": 722677629,
  "type": "Feature",
  "properties": {
    "edtf:cessation":"uuuu",
    "edtf:inception":"uuuu",
    "geom:area":0.0,
    "geom:bbox":"-77.425841,38.828025,-77.425841,38.828025",
    "geom:latitude":38.828025,
    "geom:longitude":-77.425841,
    "iso:country":"US",
    "sg:address":"13810 Fount Beattie Ct",
    "sg:city":"Centreville",
    "sg:classifiers":[
        {
            "category":"Manufacturing",
            "subcategory":"Printing",
            "type":"Manufacturing & Wholesale Goods"
        }
    ],
    "sg:owner":"simplegeo",
    "sg:phone":"+1 703 830 8779",
    "sg:postcode":"20121",
    "sg:province":"VA",
    "sg:tags":[
        "printer"
    ],
    "src:geom":"simplegeo",
    "wof:belongsto":[],
    "wof:breaches":[],
    "wof:concordances":{
        "sg:id":"SG_3OSsFkkU6hiGe3t3091q9H_38.828025_-77.425841@1294252573"
    },
    "wof:country":"US",
    "wof:created":1461886540,
    "wof:geomhash":"ac71643638e30de2600d0681d15e2cea",
    "wof:hierarchy":[],
    "wof:id":722677629,
    "wof:lastmodified":1461886540,
    "wof:name":"Premier Graphics",
    "wof:parent_id":-1,
    "wof:placetype":"venue",
    "wof:superseded_by":[],
    "wof:supersedes":[],
    "wof:tags":[
        "printer"
    ]
},
  "bbox": [
    -77.425841,
    38.828025,
    -77.425841,
    38.828025
],
  "geometry": {"coordinates":[-77.42584100000001,38.828025],"type":"Point"}
}