{
  "id": 739426297,
  "type": "Feature",
  "properties": {
    "edtf:cessation":"uuuu",
    "edtf:inception":"uuuu",
    "geom:area":0.0,
    "geom:bbox":"-77.501238,38.25326,-77.501238,38.25326",
    "geom:latitude":38.25326,
    "geom:longitude":-77.501238,
    "iso:country":"US",
    "sg:address":"10821 Courthouse Rd",
    "sg:city":"Fredericksburg",
    "sg:classifiers":[
        {
            "category":"Home & Garden",
            "subcategory":"Household Appliances",
            "type":"Retail Goods"
        }
    ],
    "sg:owner":"simplegeo",
    "sg:phone":"+1 540 898 5354",
    "sg:postcode":"22407",
    "sg:province":"VA",
    "src:geom":"simplegeo",
    "wof:belongsto":[],
    "wof:breaches":[],
    "wof:concordances":{
        "sg:id":"SG_3Zs6khnsAYe0pjcNwxwAVv_38.253260_-77.501238@1294252573"
    },
    "wof:country":"US",
    "wof:created":1461907096,
    "wof:geomhash":"2f0054dcb189b25d4a540115baefb48b",
    "wof:hierarchy":[],
    "wof:id":739426297,
    "wof:lastmodified":1461907096,
    "wof:name":"Rainbow Vacume Sales and Svcs",
    "wof:parent_id":-1,
    "wof:placetype":"venue",
    "wof:superseded_by":[],
    "wof:supersedes":[],
    "wof:tags":[]
},
  "bbox": [
    -77.501238,
    38.25326,
    -77.501238,
    38.25326
],
  "geometry": {"coordinates":[-77.501238,38.25326],"type":"Point"}
}