{
  "id": 723000533,
  "type": "Feature",
  "properties": {
    "edtf:cessation":"uuuu",
    "edtf:inception":"uuuu",
    "geom:area":0.0,
    "geom:bbox":"-77.462927,38.874312,-77.462927,38.874312",
    "geom:latitude":38.874312,
    "geom:longitude":-77.462927,
    "iso:country":"US",
    "sg:address":"5180 Parkstone Dr",
    "sg:city":"Chantilly",
    "sg:classifiers":[
        {
            "category":"Banks & Credit Unions",
            "subcategory":"Investment Brokerage",
            "type":"Services"
        }
    ],
    "sg:owner":"simplegeo",
    "sg:phone":"+1 703 378 2900",
    "sg:postcode":"20151",
    "sg:province":"VA",
    "sg:tags":[
        "advisory",
        "financial"
    ],
    "src:geom":"simplegeo",
    "wof:belongsto":[],
    "wof:breaches":[],
    "wof:concordances":{
        "sg:id":"SG_5JNCRhK8EZ1mnDH4g7D5sR_38.874312_-77.462927@1294252573"
    },
    "wof:country":"US",
    "wof:created":1461892915,
    "wof:geomhash":"3bdbafbbb50d523549bff69de08a52e3",
    "wof:hierarchy":[],
    "wof:id":723000533,
    "wof:lastmodified":1461892915,
    "wof:name":"ICS Financial",
    "wof:parent_id":-1,
    "wof:placetype":"venue",
    "wof:superseded_by":[],
    "wof:supersedes":[],
    "wof:tags":[
        "advisory",
        "financial"
    ]
},
  "bbox": [
    -77.462927,
    38.874312,
    -77.462927,
    38.874312
],
  "geometry": {"coordinates":[-77.46292699999999,38.874312],"type":"Point"}
}