{
  "id": 722955919,
  "type": "Feature",
  "properties": {
    "edtf:cessation":"uuuu",
    "edtf:inception":"uuuu",
    "geom:area":0.0,
    "geom:bbox":"-77.513864,38.787687,-77.513864,38.787687",
    "geom:latitude":38.787687,
    "geom:longitude":-77.513864,
    "iso:country":"US",
    "sg:address":"10600 Sudley Manor Dr",
    "sg:city":"Manassas",
    "sg:classifiers":[
        {
            "category":"Real Estate",
            "subcategory":"Real Estate Operator",
            "type":"Services"
        }
    ],
    "sg:owner":"simplegeo",
    "sg:phone":"+1 703 330 3996",
    "sg:postcode":"20109",
    "sg:province":"VA",
    "sg:tags":[
        "building",
        "nonresidential"
    ],
    "src:geom":"simplegeo",
    "wof:belongsto":[],
    "wof:breaches":[],
    "wof:concordances":{
        "sg:id":"SG_640ad6uGOk3RInoaOZFdTQ_38.787687_-77.513864@1294252573"
    },
    "wof:country":"US",
    "wof:created":1461891942,
    "wof:geomhash":"5fb1f35fe386cb9763903afb8d155003",
    "wof:hierarchy":[],
    "wof:id":722955919,
    "wof:lastmodified":1461891942,
    "wof:name":"Combined Properties",
    "wof:parent_id":-1,
    "wof:placetype":"venue",
    "wof:superseded_by":[],
    "wof:supersedes":[],
    "wof:tags":[
        "building",
        "nonresidential"
    ]
},
  "bbox": [
    -77.513864,
    38.787687,
    -77.513864,
    38.787687
],
  "geometry": {"coordinates":[-77.513864,38.787687],"type":"Point"}
}