{
  "id": 722709445,
  "type": "Feature",
  "properties": {
    "edtf:cessation":"uuuu",
    "edtf:inception":"uuuu",
    "geom:area":0.0,
    "geom:bbox":"-79.92976,37.283865,-79.92976,37.283865",
    "geom:latitude":37.283865,
    "geom:longitude":-79.92976,
    "iso:country":"US",
    "sg:address":"1312 Plantation Rd NE",
    "sg:city":"Roanoke",
    "sg:classifiers":[
        {
            "category":"Social Services",
            "subcategory":"",
            "type":"Services"
        }
    ],
    "sg:owner":"simplegeo",
    "sg:phone":"+1 540 344 7048",
    "sg:postcode":"24012",
    "sg:province":"VA",
    "sg:tags":[
        "organization",
        "welfare"
    ],
    "src:geom":"simplegeo",
    "wof:belongsto":[],
    "wof:breaches":[],
    "wof:concordances":{
        "sg:id":"SG_4uayDX5g9ffc4iq8beLhTM_37.283865_-79.929760@1294252573"
    },
    "wof:country":"US",
    "wof:created":1461887141,
    "wof:geomhash":"3c2efbb16eb7685d7f2a16ede9072a61",
    "wof:hierarchy":[],
    "wof:id":722709445,
    "wof:lastmodified":1461887141,
    "wof:name":"Family Preservation Svc-Va",
    "wof:parent_id":-1,
    "wof:placetype":"venue",
    "wof:superseded_by":[],
    "wof:supersedes":[],
    "wof:tags":[
        "organization",
        "welfare"
    ]
},
  "bbox": [
    -79.92976,
    37.283865,
    -79.92976,
    37.283865
],
  "geometry": {"coordinates":[-79.92976,37.283865],"type":"Point"}
}