{
  "id": 722862743,
  "type": "Feature",
  "properties": {
    "edtf:cessation":"uuuu",
    "edtf:inception":"uuuu",
    "geom:area":0.0,
    "geom:bbox":"-77.639762,37.71759,-77.639762,37.71759",
    "geom:latitude":37.71759,
    "geom:longitude":-77.639762,
    "iso:country":"US",
    "sg:address":"11290 Howards Mill Rd",
    "sg:city":"Glen Allen",
    "sg:classifiers":[
        {
            "category":"Communications",
            "subcategory":"",
            "type":"Services"
        }
    ],
    "sg:owner":"simplegeo",
    "sg:phone":"+1 804 749 8044",
    "sg:postcode":"23059",
    "sg:province":"VA",
    "src:geom":"simplegeo",
    "wof:belongsto":[],
    "wof:breaches":[],
    "wof:concordances":{
        "sg:id":"SG_43aHQnr03HUlFAYdGIT3Ri_37.717590_-77.639762@1294252573"
    },
    "wof:country":"US",
    "wof:created":1461890065,
    "wof:geomhash":"ed3895d37f529990fb19911313bd737d",
    "wof:hierarchy":[],
    "wof:id":722862743,
    "wof:lastmodified":1461890065,
    "wof:name":"Pinnacle Towers Inc",
    "wof:parent_id":-1,
    "wof:placetype":"venue",
    "wof:superseded_by":[],
    "wof:supersedes":[],
    "wof:tags":[]
},
  "bbox": [
    -77.639762,
    37.71759,
    -77.639762,
    37.71759
],
  "geometry": {"coordinates":[-77.639762,37.71759],"type":"Point"}
}