{
  "id": 722947877,
  "type": "Feature",
  "properties": {
    "edtf:cessation":"uuuu",
    "edtf:inception":"uuuu",
    "geom:area":0.0,
    "geom:bbox":"-77.263298,37.494147,-77.263298,37.494147",
    "geom:latitude":37.494147,
    "geom:longitude":-77.263298,
    "iso:country":"US",
    "sg:address":"6390 Memorial Dr",
    "sg:city":"Sandston",
    "sg:classifiers":[
        {
            "category":"Professional",
            "subcategory":"",
            "type":"Services"
        }
    ],
    "sg:owner":"simplegeo",
    "sg:phone":"+1 804 737 4981",
    "sg:postcode":"23150",
    "sg:province":"VA",
    "src:geom":"simplegeo",
    "wof:belongsto":[],
    "wof:breaches":[],
    "wof:concordances":{
        "sg:id":"SG_3jtHvbghvBXKNfZ7BPOXem_37.494147_-77.263298@1294252573"
    },
    "wof:country":"US",
    "wof:created":1461891785,
    "wof:geomhash":"b7f2936efcd8551a15b18907e4459d9d",
    "wof:hierarchy":[],
    "wof:id":722947877,
    "wof:lastmodified":1461891785,
    "wof:name":"Frances Helen Designs Inc",
    "wof:parent_id":-1,
    "wof:placetype":"venue",
    "wof:superseded_by":[],
    "wof:supersedes":[],
    "wof:tags":[]
},
  "bbox": [
    -77.263298,
    37.494147,
    -77.263298,
    37.494147
],
  "geometry": {"coordinates":[-77.26329800000001,37.494147],"type":"Point"}
}