{
  "id": 723514263,
  "type": "Feature",
  "properties": {
    "edtf:cessation":"uuuu",
    "edtf:inception":"uuuu",
    "geom:area":0.0,
    "geom:bbox":"-77.28511,37.305789,-77.28511,37.305789",
    "geom:latitude":37.305789,
    "geom:longitude":-77.28511,
    "iso:country":"US",
    "sg:address":"207 E Cawson St",
    "sg:city":"Hopewell",
    "sg:classifiers":[
        {
            "category":"Social Services",
            "subcategory":"Job Training",
            "type":"Services"
        }
    ],
    "sg:owner":"simplegeo",
    "sg:phone":"+1 804 458 5460",
    "sg:postcode":"23860",
    "sg:province":"VA",
    "src:geom":"simplegeo",
    "wof:belongsto":[],
    "wof:breaches":[],
    "wof:concordances":{
        "sg:id":"SG_38klpQZMKzmZfx6ZDALbUF_37.305789_-77.285110@1294252573"
    },
    "wof:country":"US",
    "wof:created":1461903311,
    "wof:geomhash":"60db7db31e6291973854340ceec82695",
    "wof:hierarchy":[],
    "wof:id":723514263,
    "wof:lastmodified":1461903311,
    "wof:name":"Reach E A P",
    "wof:parent_id":-1,
    "wof:placetype":"venue",
    "wof:superseded_by":[],
    "wof:supersedes":[],
    "wof:tags":[]
},
  "bbox": [
    -77.28511,
    37.305789,
    -77.28511,
    37.305789
],
  "geometry": {"coordinates":[-77.28511,37.305789],"type":"Point"}
}