{
  "id": 739462695,
  "type": "Feature",
  "properties": {
    "edtf:cessation":"uuuu",
    "edtf:inception":"uuuu",
    "geom:area":0.0,
    "geom:bbox":"-77.454968,38.844377,-77.454968,38.844377",
    "geom:latitude":38.844377,
    "geom:longitude":-77.454968,
    "iso:country":"US",
    "sg:address":"14710 Southwarke Pl",
    "sg:city":"Centreville",
    "sg:classifiers":[
        {
            "category":"Shopping",
            "subcategory":"Clothing, Apparel, & Fashions",
            "type":"Retail Goods"
        }
    ],
    "sg:owner":"simplegeo",
    "sg:phone":"+1 703 830 9131",
    "sg:postcode":"20120",
    "sg:province":"VA",
    "src:geom":"simplegeo",
    "wof:belongsto":[],
    "wof:breaches":[],
    "wof:concordances":{
        "sg:id":"SG_5FwMEIBSSkdJSqgtC8nKdp_38.844377_-77.454968@1294252573"
    },
    "wof:country":"US",
    "wof:created":1461907761,
    "wof:geomhash":"164453a545585ab9c24c0fadf8886986",
    "wof:hierarchy":[],
    "wof:id":739462695,
    "wof:lastmodified":1461907761,
    "wof:name":"Tonys & Idas Tailoring",
    "wof:parent_id":-1,
    "wof:placetype":"venue",
    "wof:superseded_by":[],
    "wof:supersedes":[],
    "wof:tags":[]
},
  "bbox": [
    -77.454968,
    38.844377,
    -77.454968,
    38.844377
],
  "geometry": {"coordinates":[-77.45496799999999,38.844377],"type":"Point"}
}