{
  "id": 723120299,
  "type": "Feature",
  "properties": {
    "edtf:cessation":"uuuu",
    "edtf:inception":"uuuu",
    "geom:area":0.0,
    "geom:bbox":"-77.318163,38.819337,-77.318163,38.819337",
    "geom:latitude":38.819337,
    "geom:longitude":-77.318163,
    "iso:country":"US",
    "sg:address":"10717 Ames St",
    "sg:city":"Fairfax",
    "sg:classifiers":[
        {
            "category":"Shopping",
            "subcategory":"Used Merchandise",
            "type":"Retail Goods"
        }
    ],
    "sg:owner":"simplegeo",
    "sg:phone":"+1 703 273 3866",
    "sg:postcode":"22032",
    "sg:province":"VA",
    "src:geom":"simplegeo",
    "wof:belongsto":[],
    "wof:breaches":[],
    "wof:concordances":{
        "sg:id":"SG_0WKqY3GS5NDvskTKiNlBQC_38.819337_-77.318163@1294252573"
    },
    "wof:country":"US",
    "wof:created":1461895525,
    "wof:geomhash":"2260caa04ca67447d235d2aeaca978a3",
    "wof:hierarchy":[],
    "wof:id":723120299,
    "wof:lastmodified":1461895525,
    "wof:name":"Attic Tubes",
    "wof:parent_id":-1,
    "wof:placetype":"venue",
    "wof:superseded_by":[],
    "wof:supersedes":[],
    "wof:tags":[]
},
  "bbox": [
    -77.318163,
    38.819337,
    -77.318163,
    38.819337
],
  "geometry": {"coordinates":[-77.318163,38.819337],"type":"Point"}
}