{
  "id": 739257279,
  "type": "Feature",
  "properties": {
    "edtf:cessation":"uuuu",
    "edtf:inception":"uuuu",
    "geom:area":0.0,
    "geom:bbox":"-78.904906,38.432225,-78.904906,38.432225",
    "geom:latitude":38.432225,
    "geom:longitude":-78.904906,
    "iso:country":"US",
    "sg:address":"1910 Erickson Ave",
    "sg:city":"Harrisonburg",
    "sg:classifiers":[
        {
            "category":"Travel",
            "subcategory":"Travel Agent",
            "type":"Entertainment"
        }
    ],
    "sg:owner":"simplegeo",
    "sg:phone":"+1 540 438 0863",
    "sg:postcode":"22801",
    "sg:province":"VA",
    "sg:tags":[
        "agency"
    ],
    "src:geom":"simplegeo",
    "wof:belongsto":[],
    "wof:breaches":[],
    "wof:concordances":{
        "sg:id":"SG_4usVg2TRQSSrHjEm6U2Wf4_38.432225_-78.904906@1294252573"
    },
    "wof:country":"US",
    "wof:created":1461903643,
    "wof:geomhash":"db1b3d28b497cb1e5d597b56ad627523",
    "wof:hierarchy":[],
    "wof:id":739257279,
    "wof:lastmodified":1461903643,
    "wof:name":"Butterfly Vacations",
    "wof:parent_id":-1,
    "wof:placetype":"venue",
    "wof:superseded_by":[],
    "wof:supersedes":[],
    "wof:tags":[
        "agency"
    ]
},
  "bbox": [
    -78.904906,
    38.432225,
    -78.904906,
    38.432225
],
  "geometry": {"coordinates":[-78.904906,38.432225],"type":"Point"}
}