{
  "id": 722753219,
  "type": "Feature",
  "properties": {
    "edtf:cessation":"uuuu",
    "edtf:inception":"uuuu",
    "geom:area":0.0,
    "geom:bbox":"-77.545942,37.612365,-77.545942,37.612365",
    "geom:latitude":37.612365,
    "geom:longitude":-77.545942,
    "iso:country":"US",
    "sg:address":"1907 Nortonia Rd",
    "sg:city":"Richmond",
    "sg:classifiers":[
        {
            "category":"Professional",
            "subcategory":"",
            "type":"Services"
        }
    ],
    "sg:owner":"simplegeo",
    "sg:phone":"+1 804 288 5061",
    "sg:postcode":"23229",
    "sg:province":"VA",
    "src:geom":"simplegeo",
    "wof:belongsto":[],
    "wof:breaches":[],
    "wof:concordances":{
        "sg:id":"SG_6KBwhCsu0FN1TAEbCLpQUM_37.612365_-77.545942@1294252573"
    },
    "wof:country":"US",
    "wof:created":1461887997,
    "wof:geomhash":"1ef1035c9ff4c38e508bc911298ab008",
    "wof:hierarchy":[],
    "wof:id":722753219,
    "wof:lastmodified":1461887997,
    "wof:name":"Charles H Smith",
    "wof:parent_id":-1,
    "wof:placetype":"venue",
    "wof:superseded_by":[],
    "wof:supersedes":[],
    "wof:tags":[]
},
  "bbox": [
    -77.545942,
    37.612365,
    -77.545942,
    37.612365
],
  "geometry": {"coordinates":[-77.545942,37.612365],"type":"Point"}
}