{
  "id": 739627405,
  "type": "Feature",
  "properties": {
    "edtf:cessation":"uuuu",
    "edtf:inception":"uuuu",
    "geom:area":0.0,
    "geom:bbox":"-77.121449,38.845402,-77.121449,38.845402",
    "geom:latitude":38.845402,
    "geom:longitude":-77.121449,
    "iso:country":"US",
    "sg:address":"5597 Seminary Rd",
    "sg:city":"Falls Church",
    "sg:classifiers":[
        {
            "category":"Autos & Motor Vehicles",
            "subcategory":"Automobile Sales",
            "type":"Retail Goods"
        }
    ],
    "sg:owner":"simplegeo",
    "sg:phone":"+1 202 528 5233",
    "sg:postcode":"22041",
    "sg:province":"VA",
    "sg:tags":[
        "limo"
    ],
    "sg:website":"www.rendezvoustrans.com",
    "src:geom":"simplegeo",
    "wof:belongsto":[],
    "wof:breaches":[],
    "wof:concordances":{
        "sg:id":"SG_3WA6ushP9XwFHMPSVQQFgg_38.845402_-77.121449@1303262538"
    },
    "wof:country":"US",
    "wof:created":1461910980,
    "wof:geomhash":"2b37d415702d5801f234d334aa240aff",
    "wof:hierarchy":[],
    "wof:id":739627405,
    "wof:lastmodified":1461910980,
    "wof:name":"Rendez-Vous Limousine LLC",
    "wof:parent_id":-1,
    "wof:placetype":"venue",
    "wof:superseded_by":[],
    "wof:supersedes":[],
    "wof:tags":[
        "limo"
    ]
},
  "bbox": [
    -77.121449,
    38.845402,
    -77.121449,
    38.845402
],
  "geometry": {"coordinates":[-77.121449,38.845402],"type":"Point"}
}