{
  "id": 722994329,
  "type": "Feature",
  "properties": {
    "edtf:cessation":"uuuu",
    "edtf:inception":"uuuu",
    "geom:area":0.0,
    "geom:bbox":"-77.37656,37.553352,-77.37656,37.553352",
    "geom:latitude":37.553352,
    "geom:longitude":-77.37656,
    "iso:country":"US",
    "sg:address":"909 Dabbs House Rd",
    "sg:city":"Richmond",
    "sg:classifiers":[
        {
            "category":"Insurance",
            "subcategory":"Hazard Insurance",
            "type":"Services"
        }
    ],
    "sg:owner":"simplegeo",
    "sg:phone":"+1 804 794 1174",
    "sg:postcode":"23223",
    "sg:province":"VA",
    "sg:tags":[
        "carrier",
        "surety"
    ],
    "src:geom":"simplegeo",
    "wof:belongsto":[],
    "wof:breaches":[],
    "wof:concordances":{
        "sg:id":"SG_6oztekLem1XTBHz0wVNtuP_37.553352_-77.376560@1294252573"
    },
    "wof:country":"US",
    "wof:created":1461892773,
    "wof:geomhash":"a9435625cecdefb384da7540155c33f2",
    "wof:hierarchy":[],
    "wof:id":722994329,
    "wof:lastmodified":1461892773,
    "wof:name":"State Farm Insurance",
    "wof:parent_id":-1,
    "wof:placetype":"venue",
    "wof:superseded_by":[],
    "wof:supersedes":[],
    "wof:tags":[
        "carrier",
        "surety"
    ]
},
  "bbox": [
    -77.37656,
    37.553352,
    -77.37656,
    37.553352
],
  "geometry": {"coordinates":[-77.37656,37.553352],"type":"Point"}
}