{
  "id": 723304735,
  "type": "Feature",
  "properties": {
    "edtf:cessation":"uuuu",
    "edtf:inception":"uuuu",
    "geom:area":0.0,
    "geom:bbox":"-77.403927,37.227603,-77.403927,37.227603",
    "geom:latitude":37.227603,
    "geom:longitude":-77.403927,
    "iso:country":"US",
    "sg:address":"8 W Washington St",
    "sg:city":"Petersburg",
    "sg:classifiers":[
        {
            "category":"Home & Garden",
            "subcategory":"Furniture",
            "type":"Retail Goods"
        }
    ],
    "sg:owner":"simplegeo",
    "sg:phone":"+1 804 733 7946",
    "sg:postcode":"23803",
    "sg:province":"VA",
    "src:geom":"simplegeo",
    "wof:belongsto":[],
    "wof:breaches":[],
    "wof:concordances":{
        "sg:id":"SG_4iSMrHywqwWH5RfGJLXiOH_37.227603_-77.403927@1294252573"
    },
    "wof:country":"US",
    "wof:created":1461899159,
    "wof:geomhash":"c4be70250eab9b0cfbe498c7a87c90d9",
    "wof:hierarchy":[],
    "wof:id":723304735,
    "wof:lastmodified":1461899159,
    "wof:name":"Lighthouse Furniture & Appls",
    "wof:parent_id":-1,
    "wof:placetype":"venue",
    "wof:superseded_by":[],
    "wof:supersedes":[],
    "wof:tags":[]
},
  "bbox": [
    -77.403927,
    37.227603,
    -77.403927,
    37.227603
],
  "geometry": {"coordinates":[-77.403927,37.227603],"type":"Point"}
}