{
  "id": 723325061,
  "type": "Feature",
  "properties": {
    "edtf:cessation":"uuuu",
    "edtf:inception":"uuuu",
    "geom:area":0.0,
    "geom:bbox":"-80.091055,37.360515,-80.091055,37.360515",
    "geom:latitude":37.360515,
    "geom:longitude":-80.091055,
    "iso:country":"US",
    "sg:address":"4049 Bluebird Ln",
    "sg:city":"Salem",
    "sg:classifiers":[
        {
            "category":"Farming",
            "subcategory":"Farm",
            "type":"Manufacturing & Wholesale Goods"
        }
    ],
    "sg:owner":"simplegeo",
    "sg:phone":"+1 540 384 8052",
    "sg:postcode":"24153",
    "sg:province":"VA",
    "sg:tags":[
        "crop",
        "general"
    ],
    "src:geom":"simplegeo",
    "wof:belongsto":[],
    "wof:breaches":[],
    "wof:concordances":{
        "sg:id":"SG_3oEggZNqNybNPZ2seisNUP_37.360515_-80.091055@1294252573"
    },
    "wof:country":"US",
    "wof:created":1461899542,
    "wof:geomhash":"8581985436a9b90576ab88df959efb08",
    "wof:hierarchy":[],
    "wof:id":723325061,
    "wof:lastmodified":1461899542,
    "wof:name":"R J R Farms Inc",
    "wof:parent_id":-1,
    "wof:placetype":"venue",
    "wof:superseded_by":[],
    "wof:supersedes":[],
    "wof:tags":[
        "crop",
        "general"
    ]
},
  "bbox": [
    -80.091055,
    37.360515,
    -80.091055,
    37.360515
],
  "geometry": {"coordinates":[-80.091055,37.360515],"type":"Point"}
}