{
  "id": 723322741,
  "type": "Feature",
  "properties": {
    "edtf:cessation":"uuuu",
    "edtf:inception":"uuuu",
    "geom:area":0.0,
    "geom:bbox":"-80.084381,37.279007,-80.084381,37.279007",
    "geom:latitude":37.279007,
    "geom:longitude":-80.084381,
    "iso:country":"US",
    "sg:address":"2009 Millstream Dr",
    "sg:city":"Salem",
    "sg:classifiers":[
        {
            "category":"Building & Trades",
            "subcategory":"Construction",
            "type":"Services"
        }
    ],
    "sg:owner":"simplegeo",
    "sg:phone":"+1 540 389 0109",
    "sg:postcode":"24153",
    "sg:province":"VA",
    "sg:tags":[
        "house"
    ],
    "src:geom":"simplegeo",
    "wof:belongsto":[],
    "wof:breaches":[],
    "wof:concordances":{
        "sg:id":"SG_6qnBZPiB6WZWidgNCxxpMZ_37.279007_-80.084381@1294252573"
    },
    "wof:country":"US",
    "wof:created":1461899498,
    "wof:geomhash":"b0e313ef3ee6ab92ec9a602160ff89f3",
    "wof:hierarchy":[],
    "wof:id":723322741,
    "wof:lastmodified":1461899498,
    "wof:name":"Pj Remodeling",
    "wof:parent_id":-1,
    "wof:placetype":"venue",
    "wof:superseded_by":[],
    "wof:supersedes":[],
    "wof:tags":[
        "house"
    ]
},
  "bbox": [
    -80.084381,
    37.279007,
    -80.084381,
    37.279007
],
  "geometry": {"coordinates":[-80.08438099999999,37.279007],"type":"Point"}
}