{
  "id": 722771049,
  "type": "Feature",
  "properties": {
    "edtf:cessation":"uuuu",
    "edtf:inception":"uuuu",
    "geom:area":0.0,
    "geom:bbox":"-76.528603,37.392497,-76.528603,37.392497",
    "geom:latitude":37.392497,
    "geom:longitude":-76.528603,
    "iso:country":"US",
    "sg:address":"7077 George Washington Memorial Hwy",
    "sg:city":"Gloucester",
    "sg:classifiers":[
        {
            "category":"Food & Beverages",
            "subcategory":"Groceries & Convenience Stores",
            "type":"Retail Goods"
        }
    ],
    "sg:owner":"simplegeo",
    "sg:phone":"+1 804 693 6609",
    "sg:postcode":"23061",
    "sg:province":"VA",
    "src:geom":"simplegeo",
    "wof:belongsto":[],
    "wof:breaches":[],
    "wof:concordances":{
        "sg:id":"SG_21PIJ4nkH9XtChTuIpiloB_37.392497_-76.528603@1294252573"
    },
    "wof:country":"US",
    "wof:created":1461888330,
    "wof:geomhash":"8283b137769765e28c9a0f858db42cfd",
    "wof:hierarchy":[],
    "wof:id":722771049,
    "wof:lastmodified":1461888330,
    "wof:name":"Gloucester Pitt Stop",
    "wof:parent_id":-1,
    "wof:placetype":"venue",
    "wof:superseded_by":[],
    "wof:supersedes":[],
    "wof:tags":[]
},
  "bbox": [
    -76.528603,
    37.392497,
    -76.528603,
    37.392497
],
  "geometry": {"coordinates":[-76.528603,37.392497],"type":"Point"}
}