{
  "id": 722669793,
  "type": "Feature",
  "properties": {
    "edtf:cessation":"uuuu",
    "edtf:inception":"uuuu",
    "geom:area":0.0,
    "geom:bbox":"-77.495536,37.583209,-77.495536,37.583209",
    "geom:latitude":37.583209,
    "geom:longitude":-77.495536,
    "iso:country":"US",
    "sg:address":"4909 W Broad St",
    "sg:city":"Richmond",
    "sg:classifiers":[
        {
            "category":"Shopping",
            "subcategory":"Jewelry",
            "type":"Retail Goods"
        }
    ],
    "sg:owner":"simplegeo",
    "sg:phone":"+1 804 358 6922",
    "sg:postcode":"23230",
    "sg:province":"VA",
    "src:geom":"simplegeo",
    "wof:belongsto":[],
    "wof:breaches":[],
    "wof:concordances":{
        "sg:id":"SG_5KBUjvAFvtI5lGmiv8czHR_37.583209_-77.495536@1294252573"
    },
    "wof:country":"US",
    "wof:created":1461886392,
    "wof:geomhash":"d3377cbb3c584b13e2921719d94a12ee",
    "wof:hierarchy":[],
    "wof:id":722669793,
    "wof:lastmodified":1461886392,
    "wof:name":"Cowardin Jewelers",
    "wof:parent_id":-1,
    "wof:placetype":"venue",
    "wof:superseded_by":[],
    "wof:supersedes":[],
    "wof:tags":[]
},
  "bbox": [
    -77.495536,
    37.583209,
    -77.495536,
    37.583209
],
  "geometry": {"coordinates":[-77.495536,37.583209],"type":"Point"}
}