{
  "id": 722614377,
  "type": "Feature",
  "properties": {
    "edtf:cessation":"uuuu",
    "edtf:inception":"uuuu",
    "geom:area":0.0,
    "geom:bbox":"-77.543507,38.789922,-77.543507,38.789922",
    "geom:latitude":38.789922,
    "geom:longitude":-77.543507,
    "iso:country":"US",
    "sg:address":"7905 Notes Dr",
    "sg:city":"Manassas",
    "sg:classifiers":[
        {
            "category":"Real Estate",
            "subcategory":"Real Estate Agent",
            "type":"Services"
        }
    ],
    "sg:owner":"simplegeo",
    "sg:phone":"+1 703 361 1700",
    "sg:postcode":"20109",
    "sg:province":"VA",
    "src:geom":"simplegeo",
    "wof:belongsto":[],
    "wof:breaches":[],
    "wof:concordances":{
        "sg:id":"SG_5yBiQkSWI5PlZoLMefNLyl_38.789922_-77.543507@1294252573"
    },
    "wof:country":"US",
    "wof:created":1461885253,
    "wof:geomhash":"e3bbfc14d1c4d08dc36f11480ac267a9",
    "wof:hierarchy":[],
    "wof:id":722614377,
    "wof:lastmodified":1461885253,
    "wof:name":"Owens Corp",
    "wof:parent_id":-1,
    "wof:placetype":"venue",
    "wof:superseded_by":[],
    "wof:supersedes":[],
    "wof:tags":[]
},
  "bbox": [
    -77.543507,
    38.789922,
    -77.543507,
    38.789922
],
  "geometry": {"coordinates":[-77.54350700000001,38.789922],"type":"Point"}
}