{
  "id": 722636759,
  "type": "Feature",
  "properties": {
    "edtf:cessation":"uuuu",
    "edtf:inception":"uuuu",
    "geom:area":0.0,
    "geom:bbox":"-77.56884,39.097561,-77.56884,39.097561",
    "geom:latitude":39.097561,
    "geom:longitude":-77.56884,
    "iso:country":"US",
    "sg:address":"206 Alpine Dr SE",
    "sg:city":"Leesburg",
    "sg:classifiers":[
        {
            "category":"Shopping",
            "subcategory":"Discount & Variety Stores",
            "type":"Retail Goods"
        }
    ],
    "sg:owner":"simplegeo",
    "sg:phone":"+1 703 737 7656",
    "sg:postcode":"20175",
    "sg:province":"VA",
    "sg:tags":[
        "merchandise",
        "general"
    ],
    "src:geom":"simplegeo",
    "wof:belongsto":[],
    "wof:breaches":[],
    "wof:concordances":{
        "sg:id":"SG_2djANOTKS3RyujdjsD9nJn_39.097561_-77.568840@1294252573"
    },
    "wof:country":"US",
    "wof:created":1461885780,
    "wof:geomhash":"f0c032e998b57cdee49345f58c6e1d75",
    "wof:hierarchy":[],
    "wof:id":722636759,
    "wof:lastmodified":1461885780,
    "wof:name":"Worldwide Surplus",
    "wof:parent_id":-1,
    "wof:placetype":"venue",
    "wof:superseded_by":[],
    "wof:supersedes":[],
    "wof:tags":[
        "merchandise",
        "general"
    ]
},
  "bbox": [
    -77.56884,
    39.097561,
    -77.56884,
    39.097561
],
  "geometry": {"coordinates":[-77.56883999999999,39.097561],"type":"Point"}
}