{
  "id": 723221353,
  "type": "Feature",
  "properties": {
    "edtf:cessation":"uuuu",
    "edtf:inception":"uuuu",
    "geom:area":0.0,
    "geom:bbox":"-76.678795,37.077673,-76.678795,37.077673",
    "geom:latitude":37.077673,
    "geom:longitude":-76.678795,
    "iso:country":"US",
    "sg:address":"14108 Bradbys Ln",
    "sg:city":"Smithfield",
    "sg:classifiers":[
        {
            "category":"Freight",
            "subcategory":"",
            "type":"Transportation"
        }
    ],
    "sg:owner":"simplegeo",
    "sg:phone":"+1 757 365 4356",
    "sg:postcode":"23430",
    "sg:province":"VA",
    "sg:tags":[
        "operator",
        "local",
        "trucking"
    ],
    "src:geom":"simplegeo",
    "wof:belongsto":[],
    "wof:breaches":[],
    "wof:concordances":{
        "sg:id":"SG_0v33qGZsh7CQGyTkvItksK_37.077673_-76.678795@1294252573"
    },
    "wof:country":"US",
    "wof:created":1461897528,
    "wof:geomhash":"91a456bfbab79d7207e990c8608c8cff",
    "wof:hierarchy":[],
    "wof:id":723221353,
    "wof:lastmodified":1461897528,
    "wof:name":"E D Diggs Hauling",
    "wof:parent_id":-1,
    "wof:placetype":"venue",
    "wof:superseded_by":[],
    "wof:supersedes":[],
    "wof:tags":[
        "operator",
        "local",
        "trucking"
    ]
},
  "bbox": [
    -76.678795,
    37.077673,
    -76.678795,
    37.077673
],
  "geometry": {"coordinates":[-76.67879499999999,37.077673],"type":"Point"}
}