{
  "id": 722663859,
  "type": "Feature",
  "properties": {
    "edtf:cessation":"uuuu",
    "edtf:inception":"uuuu",
    "geom:area":0.0,
    "geom:bbox":"-77.684703,38.283194,-77.684703,38.283194",
    "geom:latitude":38.283194,
    "geom:longitude":-77.684703,
    "iso:country":"US",
    "sg:address":"10207 Brock Rd",
    "sg:city":"Spotsylvania",
    "sg:classifiers":[
        {
            "category":"Education",
            "subcategory":"School",
            "type":"Public Place"
        }
    ],
    "sg:owner":"simplegeo",
    "sg:phone":"+1 540 972 3870",
    "sg:postcode":"22553",
    "sg:province":"VA",
    "src:geom":"simplegeo",
    "wof:belongsto":[],
    "wof:breaches":[],
    "wof:concordances":{
        "sg:id":"SG_3qzXdUEh6EyLdMoiWar3D5_38.283194_-77.684703@1294252573"
    },
    "wof:country":"US",
    "wof:created":1461886282,
    "wof:geomhash":"10081afb7cdd1e17cbc65eed856a75ce",
    "wof:hierarchy":[],
    "wof:id":722663859,
    "wof:lastmodified":1461886282,
    "wof:name":"Brock Road Elementary School",
    "wof:parent_id":-1,
    "wof:placetype":"venue",
    "wof:superseded_by":[],
    "wof:supersedes":[],
    "wof:tags":[]
},
  "bbox": [
    -77.684703,
    38.283194,
    -77.684703,
    38.283194
],
  "geometry": {"coordinates":[-77.684703,38.283194],"type":"Point"}
}