{
  "id": 723352953,
  "type": "Feature",
  "properties": {
    "edtf:cessation":"uuuu",
    "edtf:inception":"uuuu",
    "geom:area":0.0,
    "geom:bbox":"-82.585956,36.981077,-82.585956,36.981077",
    "geom:latitude":36.981077,
    "geom:longitude":-82.585956,
    "iso:country":"US",
    "sg:address":"109 Hall Ave SW",
    "sg:city":"Wise",
    "sg:classifiers":[
        {
            "category":"Organizations",
            "subcategory":"Religious Organization",
            "type":"Services"
        }
    ],
    "sg:owner":"simplegeo",
    "sg:phone":"+1 276 328 6535",
    "sg:postcode":"24293",
    "sg:province":"VA",
    "src:geom":"simplegeo",
    "wof:belongsto":[],
    "wof:breaches":[],
    "wof:concordances":{
        "sg:id":"SG_01qpv2QlQwZsPxCaU9PanW_36.981077_-82.585956@1294252573"
    },
    "wof:country":"US",
    "wof:created":1461900052,
    "wof:geomhash":"9c16d054884eea632438ff8c8aa22a9c",
    "wof:hierarchy":[],
    "wof:id":723352953,
    "wof:lastmodified":1461900052,
    "wof:name":"Indian Crk Freewill Baptist",
    "wof:parent_id":420547321,
    "wof:placetype":"venue",
    "wof:superseded_by":[],
    "wof:supersedes":[],
    "wof:tags":[]
},
  "bbox": [
    -82.585956,
    36.981077,
    -82.585956,
    36.981077
],
  "geometry": {"coordinates":[-82.585956,36.981077],"type":"Point"}
}