{
  "id": 722571913,
  "type": "Feature",
  "properties": {
    "edtf:cessation":"uuuu",
    "edtf:inception":"uuuu",
    "geom:area":0.0,
    "geom:bbox":"-76.637699,36.97885,-76.637699,36.97885",
    "geom:latitude":36.97885,
    "geom:longitude":-76.637699,
    "iso:country":"US",
    "sg:address":"501 Main St",
    "sg:city":"Smithfield",
    "sg:classifiers":[
        {
            "category":"Banks & Credit Unions",
            "subcategory":"Bank",
            "type":"Services"
        }
    ],
    "sg:owner":"simplegeo",
    "sg:phone":"+1 757 357 6250",
    "sg:postcode":"23430",
    "sg:province":"VA",
    "src:geom":"simplegeo",
    "wof:belongsto":[],
    "wof:breaches":[],
    "wof:concordances":{
        "sg:id":"SG_7Kr8h6i8k0F1pJ8CoxWLVg_36.978850_-76.637699@1294252573"
    },
    "wof:country":"US",
    "wof:created":1461884443,
    "wof:geomhash":"348f8a7cfbd0626a293a8163078146ac",
    "wof:hierarchy":[],
    "wof:id":722571913,
    "wof:lastmodified":1461884443,
    "wof:name":"Smithfield Packing CU",
    "wof:parent_id":-1,
    "wof:placetype":"venue",
    "wof:superseded_by":[],
    "wof:supersedes":[],
    "wof:tags":[]
},
  "bbox": [
    -76.637699,
    36.97885,
    -76.637699,
    36.97885
],
  "geometry": {"coordinates":[-76.637699,36.97885],"type":"Point"}
}