{
  "id": 739505101,
  "type": "Feature",
  "properties": {
    "edtf:cessation":"uuuu",
    "edtf:inception":"uuuu",
    "geom:area":0.0,
    "geom:bbox":"-78.192482,39.148945,-78.192482,39.148945",
    "geom:latitude":39.148945,
    "geom:longitude":-78.192482,
    "iso:country":"US",
    "sg:address":"631 Pritchards Hill Ct",
    "sg:city":"Winchester",
    "sg:classifiers":[
        {
            "category":"Professional",
            "subcategory":"Business Services",
            "type":"Services"
        }
    ],
    "sg:owner":"simplegeo",
    "sg:phone":"+1 540 723 8683",
    "sg:postcode":"22601",
    "sg:province":"VA",
    "src:geom":"simplegeo",
    "wof:belongsto":[],
    "wof:breaches":[],
    "wof:concordances":{
        "sg:id":"SG_0SSYqog2jUQrgFwOnZeMw3_39.148945_-78.192482@1294252573"
    },
    "wof:country":"US",
    "wof:created":1461908521,
    "wof:geomhash":"e3aa69a41bc5088833444715cf1b6b48",
    "wof:hierarchy":[],
    "wof:id":739505101,
    "wof:lastmodified":1461908521,
    "wof:name":"Jek Enterprises LLC",
    "wof:parent_id":-1,
    "wof:placetype":"venue",
    "wof:superseded_by":[],
    "wof:supersedes":[],
    "wof:tags":[]
},
  "bbox": [
    -78.192482,
    39.148945,
    -78.192482,
    39.148945
],
  "geometry": {"coordinates":[-78.192482,39.148945],"type":"Point"}
}