{
  "id": 722595345,
  "type": "Feature",
  "properties": {
    "edtf:cessation":"uuuu",
    "edtf:inception":"uuuu",
    "geom:area":0.0,
    "geom:bbox":"-77.42245,38.329595,-77.42245,38.329595",
    "geom:latitude":38.329595,
    "geom:longitude":-77.42245,
    "iso:country":"US",
    "sg:address":"508 Deacon Rd",
    "sg:city":"Fredericksburg",
    "sg:classifiers":[
        {
            "category":"Building & Trades",
            "subcategory":"Plumbing",
            "type":"Services"
        }
    ],
    "sg:owner":"simplegeo",
    "sg:phone":"+1 540 373 1766",
    "sg:postcode":"22405",
    "sg:province":"VA",
    "sg:tags":[
        "conditioning",
        "air",
        "system",
        "contractor"
    ],
    "src:geom":"simplegeo",
    "wof:belongsto":[],
    "wof:breaches":[],
    "wof:concordances":{
        "sg:id":"SG_58cUOLtXNoDBWNewGVIbip_38.329595_-77.422450@1294252573"
    },
    "wof:country":"US",
    "wof:created":1461884887,
    "wof:geomhash":"b96fda73f220e573786b9a0d94a4a90d",
    "wof:hierarchy":[],
    "wof:id":722595345,
    "wof:lastmodified":1461884887,
    "wof:name":"Bryant Heating & Cooling",
    "wof:parent_id":420547191,
    "wof:placetype":"venue",
    "wof:superseded_by":[],
    "wof:supersedes":[],
    "wof:tags":[
        "conditioning",
        "air",
        "system",
        "contractor"
    ]
},
  "bbox": [
    -77.42245,
    38.329595,
    -77.42245,
    38.329595
],
  "geometry": {"coordinates":[-77.42245,38.329595],"type":"Point"}
}