{
  "id": 722959957,
  "type": "Feature",
  "properties": {
    "edtf:cessation":"uuuu",
    "edtf:inception":"uuuu",
    "geom:area":0.0,
    "geom:bbox":"-78.402824,37.303267,-78.402824,37.303267",
    "geom:latitude":37.303267,
    "geom:longitude":-78.402824,
    "iso:country":"US",
    "sg:address":"720 Oak St",
    "sg:city":"Farmville",
    "sg:classifiers":[
        {
            "category":"Real Estate",
            "subcategory":"Real Estate Agent",
            "type":"Services"
        }
    ],
    "sg:owner":"simplegeo",
    "sg:phone":"+1 434 392 6191",
    "sg:postcode":"23901",
    "sg:province":"VA",
    "sg:tags":[
        "consulting",
        "management"
    ],
    "src:geom":"simplegeo",
    "wof:belongsto":[],
    "wof:breaches":[],
    "wof:concordances":{
        "sg:id":"SG_2t75NLk1vFisGJV7sl6UJO_37.303267_-78.402824@1294252573"
    },
    "wof:country":"US",
    "wof:created":1461892036,
    "wof:geomhash":"0482a4b8ed5dbb8ec298c24f3464b802",
    "wof:hierarchy":[],
    "wof:id":722959957,
    "wof:lastmodified":1461892036,
    "wof:name":"Coldwell Banker",
    "wof:parent_id":-1,
    "wof:placetype":"venue",
    "wof:superseded_by":[],
    "wof:supersedes":[],
    "wof:tags":[
        "consulting",
        "management"
    ]
},
  "bbox": [
    -78.402824,
    37.303267,
    -78.402824,
    37.303267
],
  "geometry": {"coordinates":[-78.402824,37.303267],"type":"Point"}
}