{
  "id": 739313177,
  "type": "Feature",
  "properties": {
    "edtf:cessation":"uuuu",
    "edtf:inception":"uuuu",
    "geom:area":0.0,
    "geom:bbox":"-77.769109,39.138968,-77.769109,39.138968",
    "geom:latitude":39.138968,
    "geom:longitude":-77.769109,
    "iso:country":"US",
    "sg:address":"19 Main St",
    "sg:city":"Round Hill",
    "sg:classifiers":[
        {
            "category":"Food & Beverages",
            "subcategory":"Groceries & Convenience Stores",
            "type":"Retail Goods"
        }
    ],
    "sg:owner":"simplegeo",
    "sg:phone":"+1 540 338 3291",
    "sg:postcode":"20141",
    "sg:province":"VA",
    "sg:tags":[
        "grocer"
    ],
    "src:geom":"simplegeo",
    "wof:belongsto":[],
    "wof:breaches":[],
    "wof:concordances":{
        "sg:id":"SG_6nTlLYviOwx6ldZpl0Xohq_39.138968_-77.769109@1294252573"
    },
    "wof:country":"US",
    "wof:created":1461904833,
    "wof:geomhash":"8970da1ccdbf64019b8863e838946f30",
    "wof:hierarchy":[],
    "wof:id":739313177,
    "wof:lastmodified":1461904833,
    "wof:name":"Round Hill Grocery Co",
    "wof:parent_id":-1,
    "wof:placetype":"venue",
    "wof:superseded_by":[],
    "wof:supersedes":[],
    "wof:tags":[
        "grocer"
    ]
},
  "bbox": [
    -77.769109,
    39.138968,
    -77.769109,
    39.138968
],
  "geometry": {"coordinates":[-77.769109,39.138968],"type":"Point"}
}