{
  "id": 722724653,
  "type": "Feature",
  "properties": {
    "edtf:cessation":"uuuu",
    "edtf:inception":"uuuu",
    "geom:area":0.0,
    "geom:bbox":"-78.189455,39.144753,-78.189455,39.144753",
    "geom:latitude":39.144753,
    "geom:longitude":-78.189455,
    "iso:country":"US",
    "sg:address":"3050 Valley Ave",
    "sg:city":"Winchester",
    "sg:classifiers":[
        {
            "category":"Shopping",
            "subcategory":"",
            "type":"Retail Goods"
        }
    ],
    "sg:owner":"simplegeo",
    "sg:phone":"+1 540 535 1701",
    "sg:postcode":"22601",
    "sg:province":"VA",
    "sg:tags":[
        "hearing",
        "equipment",
        "supply",
        "impaired"
    ],
    "src:geom":"simplegeo",
    "wof:belongsto":[],
    "wof:breaches":[],
    "wof:concordances":{
        "sg:id":"SG_4OkdMOtsyXRUKeMkzpZgL7_39.144753_-78.189455@1294252573"
    },
    "wof:country":"US",
    "wof:created":1461887428,
    "wof:geomhash":"59b8b9bc74c4d5c5d7eec91d6f96bafd",
    "wof:hierarchy":[],
    "wof:id":722724653,
    "wof:lastmodified":1461887428,
    "wof:name":"American Auditory Ctr",
    "wof:parent_id":-1,
    "wof:placetype":"venue",
    "wof:superseded_by":[],
    "wof:supersedes":[],
    "wof:tags":[
        "hearing",
        "equipment",
        "supply",
        "impaired"
    ]
},
  "bbox": [
    -78.189455,
    39.144753,
    -78.189455,
    39.144753
],
  "geometry": {"coordinates":[-78.189455,39.144753],"type":"Point"}
}