{
  "id": 723047739,
  "type": "Feature",
  "properties": {
    "edtf:cessation":"uuuu",
    "edtf:inception":"uuuu",
    "geom:area":0.0,
    "geom:bbox":"-78.89277,38.418616,-78.89277,38.418616",
    "geom:latitude":38.418616,
    "geom:longitude":-78.89277,
    "iso:country":"US",
    "sg:address":"160 E Mosby Rd",
    "sg:city":"Harrisonburg",
    "sg:classifiers":[
        {
            "category":"Autos & Motor Vehicles",
            "subcategory":"Auto Supplies",
            "type":"Retail Goods"
        }
    ],
    "sg:owner":"simplegeo",
    "sg:phone":"+1 540 564 1944",
    "sg:postcode":"22801",
    "sg:province":"VA",
    "sg:tags":[
        "automobile",
        "stereo",
        "radio"
    ],
    "src:geom":"simplegeo",
    "wof:belongsto":[],
    "wof:breaches":[],
    "wof:concordances":{
        "sg:id":"SG_14Pa4jHehH8SDEQc928Ryg_38.418616_-78.892770@1294252573"
    },
    "wof:country":"US",
    "wof:created":1461893965,
    "wof:geomhash":"863290401cf0785f362a4734afe0e0fb",
    "wof:hierarchy":[],
    "wof:id":723047739,
    "wof:lastmodified":1461893965,
    "wof:name":"Superior Sound & Sound Control",
    "wof:parent_id":-1,
    "wof:placetype":"venue",
    "wof:superseded_by":[],
    "wof:supersedes":[],
    "wof:tags":[
        "automobile",
        "stereo",
        "radio"
    ]
},
  "bbox": [
    -78.89277,
    38.418616,
    -78.89277,
    38.418616
],
  "geometry": {"coordinates":[-78.89277,38.418616],"type":"Point"}
}