{
  "id": 722609551,
  "type": "Feature",
  "properties": {
    "edtf:cessation":"uuuu",
    "edtf:inception":"uuuu",
    "geom:area":0.0,
    "geom:bbox":"-77.424829,38.757158,-77.424829,38.757158",
    "geom:latitude":38.757158,
    "geom:longitude":-77.424829,
    "iso:country":"US",
    "sg:address":"9303 Paul Dr",
    "sg:city":"Manassas",
    "sg:classifiers":[
        {
            "category":"Professional",
            "subcategory":"",
            "type":"Services"
        }
    ],
    "sg:owner":"simplegeo",
    "sg:phone":"+1 703 392 5866",
    "sg:postcode":"20111",
    "sg:province":"VA",
    "src:geom":"simplegeo",
    "wof:belongsto":[],
    "wof:breaches":[],
    "wof:concordances":{
        "sg:id":"SG_0fd6vlUbBHawogfch7wJL3_38.757158_-77.424829@1294252573"
    },
    "wof:country":"US",
    "wof:created":1461885166,
    "wof:geomhash":"7d1a9b3d4cb813955ced6e56ef401b1a",
    "wof:hierarchy":[],
    "wof:id":722609551,
    "wof:lastmodified":1461885166,
    "wof:name":"Chh Corp",
    "wof:parent_id":-1,
    "wof:placetype":"venue",
    "wof:superseded_by":[],
    "wof:supersedes":[],
    "wof:tags":[]
},
  "bbox": [
    -77.424829,
    38.757158,
    -77.424829,
    38.757158
],
  "geometry": {"coordinates":[-77.424829,38.757158],"type":"Point"}
}