{
  "id": 723146345,
  "type": "Feature",
  "properties": {
    "edtf:cessation":"uuuu",
    "edtf:inception":"uuuu",
    "geom:area":0.0,
    "geom:bbox":"-77.451123,38.893287,-77.451123,38.893287",
    "geom:latitude":38.893287,
    "geom:longitude":-77.451123,
    "iso:country":"US",
    "sg:address":"14600 Flint Lee Rd",
    "sg:city":"Chantilly",
    "sg:classifiers":[
        {
            "category":"Manufacturing",
            "subcategory":"Signs",
            "type":"Manufacturing & Wholesale Goods"
        }
    ],
    "sg:owner":"simplegeo",
    "sg:phone":"+1 703 502 1060",
    "sg:postcode":"20151",
    "sg:province":"VA",
    "src:geom":"simplegeo",
    "wof:belongsto":[],
    "wof:breaches":[],
    "wof:concordances":{
        "sg:id":"SG_3fftoagGH329GImfveLeaj_38.893287_-77.451123@1294252573"
    },
    "wof:country":"US",
    "wof:created":1461896024,
    "wof:geomhash":"8b87129c88cdca78fad68a85cdd55396",
    "wof:hierarchy":[],
    "wof:id":723146345,
    "wof:lastmodified":1461896024,
    "wof:name":"Sign Guy",
    "wof:parent_id":-1,
    "wof:placetype":"venue",
    "wof:superseded_by":[],
    "wof:supersedes":[],
    "wof:tags":[]
},
  "bbox": [
    -77.451123,
    38.893287,
    -77.451123,
    38.893287
],
  "geometry": {"coordinates":[-77.451123,38.893287],"type":"Point"}
}