{
  "id": 739310627,
  "type": "Feature",
  "properties": {
    "edtf:cessation":"uuuu",
    "edtf:inception":"uuuu",
    "geom:area":0.0,
    "geom:bbox":"-77.149789,38.873362,-77.149789,38.873362",
    "geom:latitude":38.873362,
    "geom:longitude":-77.149789,
    "iso:country":"US",
    "sg:address":"6619 Wilson Blvd",
    "sg:city":"Falls Church",
    "sg:classifiers":[
        {
            "category":"Restaurant",
            "subcategory":"",
            "type":"Food & Drink"
        }
    ],
    "sg:owner":"simplegeo",
    "sg:phone":"+1 703 533 8822",
    "sg:postcode":"22044",
    "sg:province":"VA",
    "sg:tags":[
        "eating"
    ],
    "src:geom":"simplegeo",
    "wof:belongsto":[],
    "wof:breaches":[],
    "wof:concordances":{
        "sg:id":"SG_1ygBHEJtG5bqvGu9nU1nu5_38.873362_-77.149789@1294252573"
    },
    "wof:country":"US",
    "wof:created":1461904780,
    "wof:geomhash":"3ff39917e0e3b0343a0aa823226ef3af",
    "wof:hierarchy":[],
    "wof:id":739310627,
    "wof:lastmodified":1461904780,
    "wof:name":"New Moon Carry Out",
    "wof:parent_id":-1,
    "wof:placetype":"venue",
    "wof:superseded_by":[],
    "wof:supersedes":[],
    "wof:tags":[
        "eating"
    ]
},
  "bbox": [
    -77.149789,
    38.873362,
    -77.149789,
    38.873362
],
  "geometry": {"coordinates":[-77.149789,38.873362],"type":"Point"}
}