{
  "id": 722991059,
  "type": "Feature",
  "properties": {
    "edtf:cessation":"uuuu",
    "edtf:inception":"uuuu",
    "geom:area":0.0,
    "geom:bbox":"-77.279935,38.741594,-77.279935,38.741594",
    "geom:latitude":38.741594,
    "geom:longitude":-77.279935,
    "iso:country":"US",
    "sg:address":"7989 Oak Bridge Ln",
    "sg:city":"Fairfax Station",
    "sg:classifiers":[
        {
            "category":"Professional",
            "subcategory":"Business Services",
            "type":"Services"
        }
    ],
    "sg:owner":"simplegeo",
    "sg:phone":"+1 703 690 5896",
    "sg:postcode":"22039",
    "sg:province":"VA",
    "src:geom":"simplegeo",
    "wof:belongsto":[
        85688747,
        102191575,
        85633793,
        101729807,
        102084863,
        85842501
    ],
    "wof:breaches":[],
    "wof:concordances":{
        "sg:id":"SG_0pwjnEQrnPpU2GcKnXP0GR_38.741594_-77.279935@1294252573"
    },
    "wof:country":"US",
    "wof:created":1461892710,
    "wof:geomhash":"efc9d4cf8c62166d527fc5012d90e773",
    "wof:hierarchy":[
        {
            "continent_id":102191575,
            "country_id":85633793,
            "county_id":102084863,
            "locality_id":101729807,
            "neighbourhood_id":85842501,
            "region_id":85688747,
            "venue_id":722991059
        }
    ],
    "wof:id":722991059,
    "wof:lastmodified":1461892710,
    "wof:name":"Magnolia Interiors",
    "wof:parent_id":85842501,
    "wof:placetype":"venue",
    "wof:superseded_by":[],
    "wof:supersedes":[],
    "wof:tags":[]
},
  "bbox": [
    -77.279935,
    38.741594,
    -77.279935,
    38.741594
],
  "geometry": {"coordinates":[-77.27993499999999,38.741594],"type":"Point"}
}