{
  "id": 739305039,
  "type": "Feature",
  "properties": {
    "edtf:cessation":"uuuu",
    "edtf:inception":"uuuu",
    "geom:area":0.0,
    "geom:bbox":"-77.038905,38.812737,-77.038905,38.812737",
    "geom:latitude":38.812737,
    "geom:longitude":-77.038905,
    "iso:country":"US",
    "sg:address":"816 Rivergate Pl",
    "sg:city":"Alexandria",
    "sg:classifiers":[
        {
            "category":"Professional",
            "subcategory":"Detective & Security Services",
            "type":"Services"
        }
    ],
    "sg:owner":"simplegeo",
    "sg:phone":"+1 703 299 0359",
    "sg:postcode":"22314",
    "sg:province":"VA",
    "sg:tags":[
        "car"
    ],
    "src:geom":"simplegeo",
    "wof:belongsto":[],
    "wof:breaches":[],
    "wof:concordances":{
        "sg:id":"SG_3v6lnGMvhZGhQ8g5OJk4cU_38.812737_-77.038905@1294252573"
    },
    "wof:country":"US",
    "wof:created":1461904681,
    "wof:geomhash":"92847d68ab425ca8b33bb1ae50d9f22f",
    "wof:hierarchy":[],
    "wof:id":739305039,
    "wof:lastmodified":1461904681,
    "wof:name":"Diem Polygraph Services",
    "wof:parent_id":-1,
    "wof:placetype":"venue",
    "wof:superseded_by":[],
    "wof:supersedes":[],
    "wof:tags":[
        "car"
    ]
},
  "bbox": [
    -77.038905,
    38.812737,
    -77.038905,
    38.812737
],
  "geometry": {"coordinates":[-77.038905,38.812737],"type":"Point"}
}