{
  "id": 739386723,
  "type": "Feature",
  "properties": {
    "edtf:cessation":"uuuu",
    "edtf:inception":"uuuu",
    "geom:area":0.0,
    "geom:bbox":"-77.477504,38.75275,-77.477504,38.75275",
    "geom:latitude":38.75275,
    "geom:longitude":-77.477504,
    "iso:country":"US",
    "sg:address":"9300 Peabody St",
    "sg:city":"Manassas",
    "sg:classifiers":[
        {
            "category":"Professional",
            "subcategory":"Business Services",
            "type":"Services"
        }
    ],
    "sg:owner":"simplegeo",
    "sg:phone":"+1 703 393 2743",
    "sg:postcode":"20110",
    "sg:province":"VA",
    "sg:tags":[
        "translator",
        "interpreter"
    ],
    "src:geom":"simplegeo",
    "wof:belongsto":[],
    "wof:breaches":[],
    "wof:concordances":{
        "sg:id":"SG_0zJ8jyyDXzwGKkpNE3bMJk_38.752750_-77.477504@1294252573"
    },
    "wof:country":"US",
    "wof:created":1461906330,
    "wof:geomhash":"2c50d52e359ff25afa505ce75138090d",
    "wof:hierarchy":[],
    "wof:id":739386723,
    "wof:lastmodified":1461906330,
    "wof:name":"Centro Hispano",
    "wof:parent_id":-1,
    "wof:placetype":"venue",
    "wof:superseded_by":[],
    "wof:supersedes":[],
    "wof:tags":[
        "translator",
        "interpreter"
    ]
},
  "bbox": [
    -77.477504,
    38.75275,
    -77.477504,
    38.75275
],
  "geometry": {"coordinates":[-77.477504,38.75275],"type":"Point"}
}