{
  "id": 739515091,
  "type": "Feature",
  "properties": {
    "edtf:cessation":"uuuu",
    "edtf:inception":"uuuu",
    "geom:area":0.0,
    "geom:bbox":"-77.393613,37.20052,-77.393613,37.20052",
    "geom:latitude":37.20052,
    "geom:longitude":-77.393613,
    "iso:country":"US",
    "sg:address":"1812 Westover Ave",
    "sg:city":"Petersburg",
    "sg:classifiers":[
        {
            "category":"Professional",
            "subcategory":"Business Services",
            "type":"Services"
        }
    ],
    "sg:owner":"simplegeo",
    "sg:phone":"+1 804 862 2946",
    "sg:postcode":"23805",
    "sg:province":"VA",
    "src:geom":"simplegeo",
    "wof:belongsto":[],
    "wof:breaches":[],
    "wof:concordances":{
        "sg:id":"SG_5OfqGi5vRNhTXmNjTtgoE4_37.200520_-77.393613@1294252573"
    },
    "wof:country":"US",
    "wof:created":1461908706,
    "wof:geomhash":"b50a8a4ddff4db13909972fdffd012e3",
    "wof:hierarchy":[],
    "wof:id":739515091,
    "wof:lastmodified":1461908706,
    "wof:name":"Awx Technologies",
    "wof:parent_id":-1,
    "wof:placetype":"venue",
    "wof:superseded_by":[],
    "wof:supersedes":[],
    "wof:tags":[]
},
  "bbox": [
    -77.393613,
    37.20052,
    -77.393613,
    37.20052
],
  "geometry": {"coordinates":[-77.393613,37.20052],"type":"Point"}
}