{
  "id": 739522455,
  "type": "Feature",
  "properties": {
    "edtf:cessation":"uuuu",
    "edtf:inception":"uuuu",
    "geom:area":0.0,
    "geom:bbox":"-77.518856,38.79246,-77.518856,38.79246",
    "geom:latitude":38.79246,
    "geom:longitude":-77.518856,
    "iso:country":"US",
    "sg:address":"10783 Primrose Ct",
    "sg:city":"Manassas",
    "sg:classifiers":[
        {
            "category":"Professional",
            "subcategory":"Business Services",
            "type":"Services"
        }
    ],
    "sg:owner":"simplegeo",
    "sg:phone":"+1 703 365 8664",
    "sg:postcode":"20109",
    "sg:province":"VA",
    "src:geom":"simplegeo",
    "wof:belongsto":[],
    "wof:breaches":[],
    "wof:concordances":{
        "sg:id":"SG_1upGS86TzAVfXYHnL4vveL_38.792460_-77.518856@1294252573"
    },
    "wof:country":"US",
    "wof:created":1461908841,
    "wof:geomhash":"61af26d976bfee65ee5b965cc95111a7",
    "wof:hierarchy":[],
    "wof:id":739522455,
    "wof:lastmodified":1461908841,
    "wof:name":"Toni R Cason",
    "wof:parent_id":-1,
    "wof:placetype":"venue",
    "wof:superseded_by":[],
    "wof:supersedes":[],
    "wof:tags":[]
},
  "bbox": [
    -77.518856,
    38.79246,
    -77.518856,
    38.79246
],
  "geometry": {"coordinates":[-77.518856,38.79246],"type":"Point"}
}