{
  "id": 722650505,
  "type": "Feature",
  "properties": {
    "edtf:cessation":"uuuu",
    "edtf:inception":"uuuu",
    "geom:area":0.0,
    "geom:bbox":"-78.11958,38.260047,-78.11958,38.260047",
    "geom:latitude":38.260047,
    "geom:longitude":-78.11958,
    "iso:country":"US",
    "sg:address":"680 University Ln",
    "sg:city":"Orange",
    "sg:classifiers":[
        {
            "category":"Health Services",
            "subcategory":"Nursing And Care Facility",
            "type":"Services"
        }
    ],
    "sg:owner":"simplegeo",
    "sg:phone":"+1 540 661 3333",
    "sg:postcode":"22960",
    "sg:province":"VA",
    "src:geom":"simplegeo",
    "wof:belongsto":[],
    "wof:breaches":[],
    "wof:concordances":{
        "sg:id":"SG_0trQu6mvr3lbvPtI6da8Ra_38.260047_-78.119580@1294252573"
    },
    "wof:country":"US",
    "wof:created":1461886027,
    "wof:geomhash":"9635a8ea672853263ad76f77c510ae99",
    "wof:hierarchy":[],
    "wof:id":722650505,
    "wof:lastmodified":1461886027,
    "wof:name":"Amerisist Inc",
    "wof:parent_id":-1,
    "wof:placetype":"venue",
    "wof:superseded_by":[],
    "wof:supersedes":[],
    "wof:tags":[]
},
  "bbox": [
    -78.11958,
    38.260047,
    -78.11958,
    38.260047
],
  "geometry": {"coordinates":[-78.11958,38.260047],"type":"Point"}
}