{
  "id": 722995259,
  "type": "Feature",
  "properties": {
    "edtf:cessation":"uuuu",
    "edtf:inception":"uuuu",
    "geom:area":0.0,
    "geom:bbox":"-76.436657,37.175597,-76.436657,37.175597",
    "geom:latitude":37.175597,
    "geom:longitude":-76.436657,
    "iso:country":"US",
    "sg:address":"300 Robs Rd",
    "sg:city":"Yorktown",
    "sg:classifiers":[
        {
            "category":"Wholesale",
            "subcategory":"Poultry",
            "type":"Manufacturing & Wholesale Goods"
        }
    ],
    "sg:owner":"simplegeo",
    "sg:phone":"+1 757 898 3911",
    "sg:postcode":"23692",
    "sg:province":"VA",
    "src:geom":"simplegeo",
    "wof:belongsto":[],
    "wof:breaches":[],
    "wof:concordances":{
        "sg:id":"SG_6icwQhO8zyPFHq48Ukvoqe_37.175597_-76.436657@1294252573"
    },
    "wof:country":"US",
    "wof:created":1461892790,
    "wof:geomhash":"bafe260d589e48b539fb1a71cb0d5fc3",
    "wof:hierarchy":[],
    "wof:id":722995259,
    "wof:lastmodified":1461892790,
    "wof:name":"Presson Eggs",
    "wof:parent_id":-1,
    "wof:placetype":"venue",
    "wof:superseded_by":[],
    "wof:supersedes":[],
    "wof:tags":[]
},
  "bbox": [
    -76.436657,
    37.175597,
    -76.436657,
    37.175597
],
  "geometry": {"coordinates":[-76.436657,37.175597],"type":"Point"}
}