{
  "id": 723178663,
  "type": "Feature",
  "properties": {
    "edtf:cessation":"uuuu",
    "edtf:inception":"uuuu",
    "geom:area":0.0,
    "geom:bbox":"-77.432434,37.402267,-77.432434,37.402267",
    "geom:latitude":37.402267,
    "geom:longitude":-77.432434,
    "iso:country":"US",
    "sg:address":"9010 Jefferson Davis Hwy",
    "sg:city":"Richmond",
    "sg:classifiers":[
        {
            "category":"Restaurant",
            "subcategory":"",
            "type":"Food & Drink"
        }
    ],
    "sg:owner":"simplegeo",
    "sg:phone":"+1 804 261 4802",
    "sg:postcode":"23237",
    "sg:province":"VA",
    "sg:tags":[
        "eating"
    ],
    "src:geom":"simplegeo",
    "wof:belongsto":[],
    "wof:breaches":[],
    "wof:concordances":{
        "sg:id":"SG_25cs1oS3e90ognf0tGtSU2_37.402267_-77.432434@1294252573"
    },
    "wof:country":"US",
    "wof:created":1461896659,
    "wof:geomhash":"5e1b4be624813fa11ea9c838d1928816",
    "wof:hierarchy":[],
    "wof:id":723178663,
    "wof:lastmodified":1461896659,
    "wof:name":"Dairy Queen",
    "wof:parent_id":-1,
    "wof:placetype":"venue",
    "wof:superseded_by":[],
    "wof:supersedes":[],
    "wof:tags":[
        "eating"
    ]
},
  "bbox": [
    -77.432434,
    37.402267,
    -77.432434,
    37.402267
],
  "geometry": {"coordinates":[-77.432434,37.402267],"type":"Point"}
}