{
  "id": 722630987,
  "type": "Feature",
  "properties": {
    "edtf:cessation":"uuuu",
    "edtf:inception":"uuuu",
    "geom:area":0.0,
    "geom:bbox":"-78.473103,38.253692,-78.473103,38.253692",
    "geom:latitude":38.253692,
    "geom:longitude":-78.473103,
    "iso:country":"US",
    "sg:address":"156 Shepherds Hill Rd",
    "sg:city":"Stanardsville",
    "sg:classifiers":[
        {
            "category":"Shopping",
            "subcategory":"Crafts & Fabrics",
            "type":"Retail Goods"
        }
    ],
    "sg:owner":"simplegeo",
    "sg:phone":"+1 434 985 7083",
    "sg:postcode":"22973",
    "sg:province":"VA",
    "sg:tags":[
        "yarn"
    ],
    "sg:website":"www.carodanfarm.com",
    "src:geom":"simplegeo",
    "wof:belongsto":[],
    "wof:breaches":[],
    "wof:concordances":{
        "sg:id":"SG_3XJUIQKNFjIpyqY4nRdXlp_38.253692_-78.473103@1294252573"
    },
    "wof:country":"US",
    "wof:created":1461885643,
    "wof:geomhash":"510046164b9becf02836bdf6900c92ac",
    "wof:hierarchy":[],
    "wof:id":722630987,
    "wof:lastmodified":1461885643,
    "wof:name":"Carodan Farm Wool Shop",
    "wof:parent_id":-1,
    "wof:placetype":"venue",
    "wof:superseded_by":[],
    "wof:supersedes":[],
    "wof:tags":[
        "yarn"
    ]
},
  "bbox": [
    -78.473103,
    38.253692,
    -78.473103,
    38.253692
],
  "geometry": {"coordinates":[-78.47310299999999,38.253692],"type":"Point"}
}