{
  "id": 723071629,
  "type": "Feature",
  "properties": {
    "edtf:cessation":"uuuu",
    "edtf:inception":"uuuu",
    "geom:area":0.0,
    "geom:bbox":"-79.952862,37.267216,-79.952862,37.267216",
    "geom:latitude":37.267216,
    "geom:longitude":-79.952862,
    "iso:country":"US",
    "sg:address":"502 Elm Ave SW",
    "sg:city":"Roanoke",
    "sg:classifiers":[
        {
            "category":"Food & Beverages",
            "subcategory":"Groceries & Convenience Stores",
            "type":"Retail Goods"
        }
    ],
    "sg:owner":"simplegeo",
    "sg:phone":"+1 540 342 3224",
    "sg:postcode":"24016",
    "sg:province":"VA",
    "src:geom":"simplegeo",
    "wof:belongsto":[],
    "wof:breaches":[],
    "wof:concordances":{
        "sg:id":"SG_1ooZ43ihondGLxi4QjTOHw_37.267216_-79.952862@1294252573"
    },
    "wof:country":"US",
    "wof:created":1461894493,
    "wof:geomhash":"4f2937242f6db69ec2a1a076ef2e546a",
    "wof:hierarchy":[],
    "wof:id":723071629,
    "wof:lastmodified":1461894493,
    "wof:name":"Sparkys",
    "wof:parent_id":-1,
    "wof:placetype":"venue",
    "wof:superseded_by":[],
    "wof:supersedes":[],
    "wof:tags":[]
},
  "bbox": [
    -79.952862,
    37.267216,
    -79.952862,
    37.267216
],
  "geometry": {"coordinates":[-79.952862,37.267216],"type":"Point"}
}