{
  "id": 739314705,
  "type": "Feature",
  "properties": {
    "edtf:cessation":"uuuu",
    "edtf:inception":"uuuu",
    "geom:area":0.0,
    "geom:bbox":"-77.664248,37.404185,-77.664248,37.404185",
    "geom:latitude":37.404185,
    "geom:longitude":-77.664248,
    "iso:country":"US",
    "sg:address":"13965 Hull Street Rd",
    "sg:city":"Midlothian",
    "sg:classifiers":[
        {
            "category":"Cinema",
            "subcategory":"Movie Rental",
            "type":"Entertainment"
        }
    ],
    "sg:owner":"simplegeo",
    "sg:phone":"+1 804 739 5987",
    "sg:postcode":"23112",
    "sg:province":"VA",
    "sg:tags":[
        "leasing",
        "video",
        "disc",
        "tape"
    ],
    "src:geom":"simplegeo",
    "wof:belongsto":[],
    "wof:breaches":[],
    "wof:concordances":{
        "sg:id":"SG_0iWpVenReRHZB524KmAya4_37.404185_-77.664248@1294252573"
    },
    "wof:country":"US",
    "wof:created":1461904861,
    "wof:geomhash":"487770571b132abdb8729194cef4581d",
    "wof:hierarchy":[],
    "wof:id":739314705,
    "wof:lastmodified":1461904861,
    "wof:name":"Movie Gallery",
    "wof:parent_id":-1,
    "wof:placetype":"venue",
    "wof:superseded_by":[],
    "wof:supersedes":[],
    "wof:tags":[
        "leasing",
        "video",
        "disc",
        "tape"
    ]
},
  "bbox": [
    -77.664248,
    37.404185,
    -77.664248,
    37.404185
],
  "geometry": {"coordinates":[-77.664248,37.404185],"type":"Point"}
}