{
  "id": 722874495,
  "type": "Feature",
  "properties": {
    "edtf:cessation":"uuuu",
    "edtf:inception":"uuuu",
    "geom:area":0.0,
    "geom:bbox":"-78.130822,36.724307,-78.130822,36.724307",
    "geom:latitude":36.724307,
    "geom:longitude":-78.130822,
    "iso:country":"US",
    "sg:address":"215 S Hill Ave",
    "sg:city":"South Hill",
    "sg:classifiers":[
        {
            "category":"Retail",
            "subcategory":"Repair Shop",
            "type":"Services"
        }
    ],
    "sg:owner":"simplegeo",
    "sg:phone":"+1 434 955 2522",
    "sg:postcode":"23970",
    "sg:province":"VA",
    "src:geom":"simplegeo",
    "wof:belongsto":[],
    "wof:breaches":[],
    "wof:concordances":{
        "sg:id":"SG_1WiqooASXug961IhTYl5rE_36.724307_-78.130822@1294252573"
    },
    "wof:country":"US",
    "wof:created":1461890285,
    "wof:geomhash":"ced5497dfdb7950206b040fe86585e43",
    "wof:hierarchy":[],
    "wof:id":722874495,
    "wof:lastmodified":1461890285,
    "wof:name":"Southside Upholstery",
    "wof:parent_id":-1,
    "wof:placetype":"venue",
    "wof:superseded_by":[],
    "wof:supersedes":[],
    "wof:tags":[]
},
  "bbox": [
    -78.130822,
    36.724307,
    -78.130822,
    36.724307
],
  "geometry": {"coordinates":[-78.13082199999999,36.724307],"type":"Point"}
}