{
  "id": 739694581,
  "type": "Feature",
  "properties": {
    "edtf:cessation":"uuuu",
    "edtf:inception":"uuuu",
    "geom:area":0.0,
    "geom:bbox":"-77.526966,38.24408,-77.526966,38.24408",
    "geom:latitude":38.24408,
    "geom:longitude":-77.526966,
    "iso:country":"US",
    "sg:address":"9137 Courthouse Rd Ste 200",
    "sg:city":"Spotsylvania",
    "sg:classifiers":[
        {
            "category":"Professional",
            "subcategory":"Lawyer & Legal Services",
            "type":"Services"
        }
    ],
    "sg:owner":"simplegeo",
    "sg:phone":"+1 540 582 8300",
    "sg:postcode":"22553",
    "sg:province":"VA",
    "sg:tags":[
        "attorney",
        "injury",
        "estate",
        "family",
        "personal",
        "divorce",
        "practice",
        "planning",
        "law"
    ],
    "src:geom":"simplegeo",
    "wof:belongsto":[],
    "wof:breaches":[],
    "wof:concordances":{
        "sg:id":"SG_6onBiFvhdh3qGCzgiajvIX_38.244080_-77.526966@1303262547"
    },
    "wof:country":"US",
    "wof:created":1461912429,
    "wof:geomhash":"f9e87c6ced2e1e62ec7de92f8a1b0c37",
    "wof:hierarchy":[],
    "wof:id":739694581,
    "wof:lastmodified":1461912429,
    "wof:name":"Beverley Mc Namara Liposky",
    "wof:parent_id":-1,
    "wof:placetype":"venue",
    "wof:superseded_by":[],
    "wof:supersedes":[],
    "wof:tags":[
        "attorney",
        "injury",
        "estate",
        "family",
        "personal",
        "divorce",
        "practice",
        "planning",
        "law"
    ]
},
  "bbox": [
    -77.526966,
    38.24408,
    -77.526966,
    38.24408
],
  "geometry": {"coordinates":[-77.526966,38.24408],"type":"Point"}
}