{
  "id": 723338813,
  "type": "Feature",
  "properties": {
    "edtf:cessation":"uuuu",
    "edtf:inception":"uuuu",
    "geom:area":0.0,
    "geom:bbox":"-77.411475,38.871772,-77.411475,38.871772",
    "geom:latitude":38.871772,
    "geom:longitude":-77.411475,
    "iso:country":"US",
    "sg:address":"4507 Stone Pine Ct",
    "sg:city":"Chantilly",
    "sg:classifiers":[
        {
            "category":"Professional",
            "subcategory":"Management & Consulting",
            "type":"Services"
        }
    ],
    "sg:owner":"simplegeo",
    "sg:phone":"+1 703 222 1218",
    "sg:postcode":"20151",
    "sg:province":"VA",
    "src:geom":"simplegeo",
    "wof:belongsto":[],
    "wof:breaches":[],
    "wof:concordances":{
        "sg:id":"SG_7FXkoqHVKVziMKoMvDTYaC_38.871772_-77.411475@1294252573"
    },
    "wof:country":"US",
    "wof:created":1461899788,
    "wof:geomhash":"9bbe962297e2d2cac83f168022e9c7bb",
    "wof:hierarchy":[],
    "wof:id":723338813,
    "wof:lastmodified":1461899788,
    "wof:name":"Utility Cost Management Inc",
    "wof:parent_id":-1,
    "wof:placetype":"venue",
    "wof:superseded_by":[],
    "wof:supersedes":[],
    "wof:tags":[]
},
  "bbox": [
    -77.411475,
    38.871772,
    -77.411475,
    38.871772
],
  "geometry": {"coordinates":[-77.411475,38.871772],"type":"Point"}
}