{
  "id": 723232319,
  "type": "Feature",
  "properties": {
    "edtf:cessation":"uuuu",
    "edtf:inception":"uuuu",
    "geom:area":0.0,
    "geom:bbox":"-77.510218,37.644638,-77.510218,37.644638",
    "geom:latitude":37.644638,
    "geom:longitude":-77.510218,
    "iso:country":"US",
    "sg:address":"10214 Wolfe Manor Ct",
    "sg:city":"Glen Allen",
    "sg:classifiers":[
        {
            "category":"Professional",
            "subcategory":"Computer Services",
            "type":"Services"
        }
    ],
    "sg:owner":"simplegeo",
    "sg:phone":"+1 804 672 0903",
    "sg:postcode":"23060",
    "sg:province":"VA",
    "sg:tags":[
        "datum"
    ],
    "src:geom":"simplegeo",
    "wof:belongsto":[],
    "wof:breaches":[],
    "wof:concordances":{
        "sg:id":"SG_72eVMFjl5nm5hyUIlKk37D_37.644638_-77.510218@1294252573"
    },
    "wof:country":"US",
    "wof:created":1461897754,
    "wof:geomhash":"0cd70640c2a8a42bbe028e08fb12d975",
    "wof:hierarchy":[],
    "wof:id":723232319,
    "wof:lastmodified":1461897754,
    "wof:name":"Del Business Systems",
    "wof:parent_id":-1,
    "wof:placetype":"venue",
    "wof:superseded_by":[],
    "wof:supersedes":[],
    "wof:tags":[
        "datum"
    ]
},
  "bbox": [
    -77.510218,
    37.644638,
    -77.510218,
    37.644638
],
  "geometry": {"coordinates":[-77.51021799999999,37.644638],"type":"Point"}
}