{
  "id": 722740447,
  "type": "Feature",
  "properties": {
    "edtf:cessation":"uuuu",
    "edtf:inception":"uuuu",
    "geom:area":0.0,
    "geom:bbox":"-78.456433,36.801645,-78.456433,36.801645",
    "geom:latitude":36.801645,
    "geom:longitude":-78.456433,
    "iso:country":"US",
    "sg:address":"439 Walker St",
    "sg:city":"Chase City",
    "sg:classifiers":[
        {
            "category":"Farming",
            "subcategory":"Farm",
            "type":"Manufacturing & Wholesale Goods"
        }
    ],
    "sg:owner":"simplegeo",
    "sg:phone":"+1 434 372 4674",
    "sg:postcode":"23924",
    "sg:province":"VA",
    "sg:tags":[
        "crop",
        "general"
    ],
    "src:geom":"simplegeo",
    "wof:belongsto":[],
    "wof:breaches":[],
    "wof:concordances":{
        "sg:id":"SG_5SC7UtLIkJiXNm9sppOw4k_36.801645_-78.456433@1294252573"
    },
    "wof:country":"US",
    "wof:created":1461887753,
    "wof:geomhash":"fdd404df8c460e5b52c2b506c19c8707",
    "wof:hierarchy":[],
    "wof:id":722740447,
    "wof:lastmodified":1461887753,
    "wof:name":"W Rutledge",
    "wof:parent_id":-1,
    "wof:placetype":"venue",
    "wof:superseded_by":[],
    "wof:supersedes":[],
    "wof:tags":[
        "crop",
        "general"
    ]
},
  "bbox": [
    -78.456433,
    36.801645,
    -78.456433,
    36.801645
],
  "geometry": {"coordinates":[-78.456433,36.801645],"type":"Point"}
}