{
  "id": 723065811,
  "type": "Feature",
  "properties": {
    "edtf:cessation":"uuuu",
    "edtf:inception":"uuuu",
    "geom:area":0.0,
    "geom:bbox":"-77.466389,37.607532,-77.466389,37.607532",
    "geom:latitude":37.607532,
    "geom:longitude":-77.466389,
    "iso:country":"US",
    "sg:address":"5503 Bloomingdale Ave",
    "sg:city":"Richmond",
    "sg:classifiers":[
        {
            "category":"Health Services",
            "subcategory":"Clinic",
            "type":"Services"
        }
    ],
    "sg:owner":"simplegeo",
    "sg:phone":"+1 804 261 2847",
    "sg:postcode":"23228",
    "sg:province":"VA",
    "sg:tags":[
        "home",
        "care"
    ],
    "src:geom":"simplegeo",
    "wof:belongsto":[],
    "wof:breaches":[],
    "wof:concordances":{
        "sg:id":"SG_3rv11WVUOW4D59hzHMQpT6_37.607532_-77.466389@1294252573"
    },
    "wof:country":"US",
    "wof:created":1461894340,
    "wof:geomhash":"53fcd3520f52f45e8545e2841f6ca80c",
    "wof:hierarchy":[],
    "wof:id":723065811,
    "wof:lastmodified":1461894340,
    "wof:name":"Patti A Salter",
    "wof:parent_id":-1,
    "wof:placetype":"venue",
    "wof:superseded_by":[],
    "wof:supersedes":[],
    "wof:tags":[
        "home",
        "care"
    ]
},
  "bbox": [
    -77.466389,
    37.607532,
    -77.466389,
    37.607532
],
  "geometry": {"coordinates":[-77.46638900000001,37.607532],"type":"Point"}
}