{
  "id": 739369833,
  "type": "Feature",
  "properties": {
    "edtf:cessation":"uuuu",
    "edtf:inception":"uuuu",
    "geom:area":0.0,
    "geom:bbox":"-77.437136,38.776971,-77.437136,38.776971",
    "geom:latitude":38.776971,
    "geom:longitude":-77.437136,
    "iso:country":"US",
    "sg:address":"9110 Industry Dr",
    "sg:city":"Manassas Park",
    "sg:classifiers":[
        {
            "category":"Building & Trades",
            "subcategory":"Construction",
            "type":"Services"
        }
    ],
    "sg:owner":"simplegeo",
    "sg:phone":"+1 703 330 9937",
    "sg:postcode":"20111",
    "sg:province":"VA",
    "sg:tags":[
        "painting",
        "dry wall",
        "contractor",
        "drywall"
    ],
    "src:geom":"simplegeo",
    "wof:belongsto":[],
    "wof:breaches":[],
    "wof:concordances":{
        "sg:id":"SG_4ZH3a9z7kMCjSxGsLXPHX1_38.776971_-77.437136@1294252573"
    },
    "wof:country":"US",
    "wof:created":1461905993,
    "wof:geomhash":"0631447cf1aff99b285b23c0cb8a58e6",
    "wof:hierarchy":[],
    "wof:id":739369833,
    "wof:lastmodified":1461905993,
    "wof:name":"Interior Specialties Inc",
    "wof:parent_id":-1,
    "wof:placetype":"venue",
    "wof:superseded_by":[],
    "wof:supersedes":[],
    "wof:tags":[
        "painting",
        "dry wall",
        "contractor",
        "drywall"
    ]
},
  "bbox": [
    -77.437136,
    38.776971,
    -77.437136,
    38.776971
],
  "geometry": {"coordinates":[-77.437136,38.776971],"type":"Point"}
}