{
  "id": 739251817,
  "type": "Feature",
  "properties": {
    "edtf:cessation":"uuuu",
    "edtf:inception":"uuuu",
    "geom:area":0.0,
    "geom:bbox":"-77.545222,38.84514,-77.545222,38.84514",
    "geom:latitude":38.84514,
    "geom:longitude":-77.545222,
    "iso:country":"US",
    "sg:address":"5004 Gum Springs Rd",
    "sg:city":"Manassas",
    "sg:classifiers":[
        {
            "category":"Building & Trades",
            "subcategory":"Landscaping Services",
            "type":"Services"
        }
    ],
    "sg:owner":"simplegeo",
    "sg:phone":"+1 703 753 4900",
    "sg:postcode":"20109",
    "sg:province":"VA",
    "src:geom":"simplegeo",
    "wof:belongsto":[],
    "wof:breaches":[],
    "wof:concordances":{
        "sg:id":"SG_4tEmrIznC0pcHa8ywNO5QH_38.845140_-77.545222@1294252573"
    },
    "wof:country":"US",
    "wof:created":1461903527,
    "wof:geomhash":"4f520a4704f5b367b638c77d47593344",
    "wof:hierarchy":[],
    "wof:id":739251817,
    "wof:lastmodified":1461903527,
    "wof:name":"Freedom Tree Service",
    "wof:parent_id":-1,
    "wof:placetype":"venue",
    "wof:superseded_by":[],
    "wof:supersedes":[],
    "wof:tags":[]
},
  "bbox": [
    -77.545222,
    38.84514,
    -77.545222,
    38.84514
],
  "geometry": {"coordinates":[-77.545222,38.84514],"type":"Point"}
}