{
  "id": 723504823,
  "type": "Feature",
  "properties": {
    "edtf:cessation":"uuuu",
    "edtf:inception":"uuuu",
    "geom:area":0.0,
    "geom:bbox":"-77.716029,39.075069,-77.716029,39.075069",
    "geom:latitude":39.075069,
    "geom:longitude":-77.716029,
    "iso:country":"US",
    "sg:address":"19605 Greggsville Rd",
    "sg:city":"Purcellville",
    "sg:classifiers":[
        {
            "category":"Shopping",
            "subcategory":"Computers & Home Electronics",
            "type":"Retail Goods"
        }
    ],
    "sg:owner":"simplegeo",
    "sg:phone":"+1 540 338 0022",
    "sg:postcode":"20132",
    "sg:province":"VA",
    "sg:tags":[
        "software"
    ],
    "src:geom":"simplegeo",
    "wof:belongsto":[],
    "wof:breaches":[],
    "wof:concordances":{
        "sg:id":"SG_5Vbip5QovFgKQseLzG31Tm_39.075069_-77.716029@1294252573"
    },
    "wof:country":"US",
    "wof:created":1461903065,
    "wof:geomhash":"612e79348762107f88e4cf3e71e97180",
    "wof:hierarchy":[],
    "wof:id":723504823,
    "wof:lastmodified":1461903065,
    "wof:name":"James E Degay",
    "wof:parent_id":-1,
    "wof:placetype":"venue",
    "wof:superseded_by":[],
    "wof:supersedes":[],
    "wof:tags":[
        "software"
    ]
},
  "bbox": [
    -77.716029,
    39.075069,
    -77.716029,
    39.075069
],
  "geometry": {"coordinates":[-77.71602900000001,39.075069],"type":"Point"}
}