{
  "id": 722975981,
  "type": "Feature",
  "properties": {
    "edtf:cessation":"uuuu",
    "edtf:inception":"uuuu",
    "geom:area":0.0,
    "geom:bbox":"-77.845519,37.243177,-77.845519,37.243177",
    "geom:latitude":37.243177,
    "geom:longitude":-77.845519,
    "iso:country":"US",
    "sg:address":"9860 Jennings Ln",
    "sg:city":"Amelia Court Hse",
    "sg:classifiers":[
        {
            "category":"Retail",
            "subcategory":"Auto Repair",
            "type":"Services"
        }
    ],
    "sg:owner":"simplegeo",
    "sg:phone":"+1 804 561 1945",
    "sg:postcode":"23002",
    "sg:province":"VA",
    "sg:tags":[
        "automotive",
        "trailer"
    ],
    "src:geom":"simplegeo",
    "wof:belongsto":[],
    "wof:breaches":[],
    "wof:concordances":{
        "sg:id":"SG_0hsYwFFIkcr3v6qEXOmRAV_37.243177_-77.845519@1294252573"
    },
    "wof:country":"US",
    "wof:created":1461892380,
    "wof:geomhash":"206a46a6615b9ded273c032bc119df78",
    "wof:hierarchy":[],
    "wof:id":722975981,
    "wof:lastmodified":1461892380,
    "wof:name":"J T's Mobile Trailer Repair",
    "wof:parent_id":-1,
    "wof:placetype":"venue",
    "wof:superseded_by":[],
    "wof:supersedes":[],
    "wof:tags":[
        "automotive",
        "trailer"
    ]
},
  "bbox": [
    -77.845519,
    37.243177,
    -77.845519,
    37.243177
],
  "geometry": {"coordinates":[-77.845519,37.243177],"type":"Point"}
}