{
  "id": 722686341,
  "type": "Feature",
  "properties": {
    "edtf:cessation":"uuuu",
    "edtf:inception":"uuuu",
    "geom:area":0.0,
    "geom:bbox":"-77.745639,38.98942,-77.745639,38.98942",
    "geom:latitude":38.98942,
    "geom:longitude":-77.745639,
    "iso:country":"US",
    "sg:address":"22854 Waterlily Ln",
    "sg:city":"Middleburg",
    "sg:classifiers":[
        {
            "category":"Organizations",
            "subcategory":"Non-profit Organization",
            "type":"Services"
        }
    ],
    "sg:owner":"simplegeo",
    "sg:phone":"+1 540 687 8411",
    "sg:postcode":"20117",
    "sg:province":"VA",
    "src:geom":"simplegeo",
    "wof:belongsto":[],
    "wof:breaches":[],
    "wof:concordances":{
        "sg:id":"SG_0vD8D81tKrjfCx1MGocpsL_38.989420_-77.745639@1294252573"
    },
    "wof:country":"US",
    "wof:created":1461886705,
    "wof:geomhash":"8ff6c0db1240127ade229c28082ccddc",
    "wof:hierarchy":[],
    "wof:id":722686341,
    "wof:lastmodified":1461886705,
    "wof:name":"Middleburg Hunt",
    "wof:parent_id":-1,
    "wof:placetype":"venue",
    "wof:superseded_by":[],
    "wof:supersedes":[],
    "wof:tags":[]
},
  "bbox": [
    -77.745639,
    38.98942,
    -77.745639,
    38.98942
],
  "geometry": {"coordinates":[-77.745639,38.98942],"type":"Point"}
}