{
  "id": 739708681,
  "type": "Feature",
  "properties": {
    "edtf:cessation":"uuuu",
    "edtf:inception":"uuuu",
    "geom:area":0.0,
    "geom:bbox":"-77.442188,37.711554,-77.442188,37.711554",
    "geom:latitude":37.711554,
    "geom:longitude":-77.442188,
    "iso:country":"US",
    "sg:address":"11228 Hopson Rd",
    "sg:city":"Ashland",
    "sg:classifiers":[
        {
            "category":"Manufacturing",
            "subcategory":"Tools & Machinery",
            "type":"Manufacturing & Wholesale Goods"
        },
        {
            "category":"Autos & Motor Vehicles",
            "subcategory":"Auto Supplies",
            "type":"Retail Goods"
        }
    ],
    "sg:owner":"simplegeo",
    "sg:phone":"+1 804 752 6025",
    "sg:postcode":"23005",
    "sg:province":"VA",
    "sg:tags":[
        "automobile",
        "machine",
        "parts",
        "accessories-wholesale",
        "part",
        "manufacturer"
    ],
    "sg:website":"http://www.powertraincontrolsolutions.com",
    "src:geom":"simplegeo",
    "wof:belongsto":[],
    "wof:breaches":[],
    "wof:concordances":{
        "sg:id":"SG_7Z1rtEnv6uU0McYtmYDt8Z_37.711554_-77.442188@1303262548"
    },
    "wof:country":"US",
    "wof:created":1461912756,
    "wof:geomhash":"4411620fe27f1a35c8bd7f93696032aa",
    "wof:hierarchy":[],
    "wof:id":739708681,
    "wof:lastmodified":1461912756,
    "wof:name":"Powertrain Control Solutions",
    "wof:parent_id":-1,
    "wof:placetype":"venue",
    "wof:superseded_by":[],
    "wof:supersedes":[],
    "wof:tags":[
        "automobile",
        "machine",
        "parts",
        "accessories-wholesale",
        "part",
        "manufacturer"
    ]
},
  "bbox": [
    -77.442188,
    37.711554,
    -77.442188,
    37.711554
],
  "geometry": {"coordinates":[-77.442188,37.711554],"type":"Point"}
}