{
  "id": 723144761,
  "type": "Feature",
  "properties": {
    "edtf:cessation":"uuuu",
    "edtf:inception":"uuuu",
    "geom:area":0.0,
    "geom:bbox":"-79.714372,37.380037,-79.714372,37.380037",
    "geom:latitude":37.380037,
    "geom:longitude":-79.714372,
    "iso:country":"US",
    "sg:address":"1231 Colonial Fort Dr",
    "sg:city":"Montvale",
    "sg:classifiers":[
        {
            "category":"Shopping",
            "subcategory":"Computers & Home Electronics",
            "type":"Retail Goods"
        }
    ],
    "sg:owner":"simplegeo",
    "sg:phone":"+1 540 947 5100",
    "sg:postcode":"24122",
    "sg:province":"VA",
    "sg:tags":[
        "audio"
    ],
    "src:geom":"simplegeo",
    "wof:belongsto":[],
    "wof:breaches":[],
    "wof:concordances":{
        "sg:id":"SG_3KnnOT9T9mEFyPYT8vKAK0_37.380037_-79.714372@1294252573"
    },
    "wof:country":"US",
    "wof:created":1461895990,
    "wof:geomhash":"b9e2be6f5c5d9e5bfa82b49bc6d68e8a",
    "wof:hierarchy":[],
    "wof:id":723144761,
    "wof:lastmodified":1461895990,
    "wof:name":"Ambassador Enterprises",
    "wof:parent_id":-1,
    "wof:placetype":"venue",
    "wof:superseded_by":[],
    "wof:supersedes":[],
    "wof:tags":[
        "audio"
    ]
},
  "bbox": [
    -79.714372,
    37.380037,
    -79.714372,
    37.380037
],
  "geometry": {"coordinates":[-79.714372,37.380037],"type":"Point"}
}