{
  "id": 723317533,
  "type": "Feature",
  "properties": {
    "edtf:cessation":"uuuu",
    "edtf:inception":"uuuu",
    "geom:area":0.0,
    "geom:bbox":"-77.77043,37.660754,-77.77043,37.660754",
    "geom:latitude":37.660754,
    "geom:longitude":-77.77043,
    "iso:country":"US",
    "sg:address":"1324 Shallow Well Rd",
    "sg:city":"Manakin Sabot",
    "sg:classifiers":[
        {
            "category":"Farming",
            "subcategory":"Livestock Farm",
            "type":"Manufacturing & Wholesale Goods"
        }
    ],
    "sg:owner":"simplegeo",
    "sg:phone":"+1 804 784 5344",
    "sg:postcode":"23103",
    "sg:province":"VA",
    "sg:tags":[
        "beef",
        "feedlot",
        "cattle"
    ],
    "src:geom":"simplegeo",
    "wof:belongsto":[],
    "wof:breaches":[],
    "wof:concordances":{
        "sg:id":"SG_3Xl77kSVMSXrux4jGmhF54_37.660754_-77.770430@1294252573"
    },
    "wof:country":"US",
    "wof:created":1461899406,
    "wof:geomhash":"ef874cf54d76f57bd8863241c53c4086",
    "wof:hierarchy":[],
    "wof:id":723317533,
    "wof:lastmodified":1461899406,
    "wof:name":"Belleville",
    "wof:parent_id":-1,
    "wof:placetype":"venue",
    "wof:superseded_by":[],
    "wof:supersedes":[],
    "wof:tags":[
        "beef",
        "feedlot",
        "cattle"
    ]
},
  "bbox": [
    -77.77043,
    37.660754,
    -77.77043,
    37.660754
],
  "geometry": {"coordinates":[-77.77043,37.660754],"type":"Point"}
}