{
  "id": 739479561,
  "type": "Feature",
  "properties": {
    "edtf:cessation":"uuuu",
    "edtf:inception":"uuuu",
    "geom:area":0.0,
    "geom:bbox":"-77.406567,37.227293,-77.406567,37.227293",
    "geom:latitude":37.227293,
    "geom:longitude":-77.406567,
    "iso:country":"US",
    "sg:address":"111 W Washington St",
    "sg:city":"Petersburg",
    "sg:classifiers":[
        {
            "category":"Shopping",
            "subcategory":"Music",
            "type":"Retail Goods"
        }
    ],
    "sg:owner":"simplegeo",
    "sg:phone":"+1 804 732 1171",
    "sg:postcode":"23803",
    "sg:province":"VA",
    "sg:tags":[
        "compact",
        "record",
        "disc",
        "tape"
    ],
    "src:geom":"simplegeo",
    "wof:belongsto":[],
    "wof:breaches":[],
    "wof:concordances":{
        "sg:id":"SG_7GhaGpbUrM4AyrAby7ek8F_37.227293_-77.406567@1294252573"
    },
    "wof:country":"US",
    "wof:created":1461908064,
    "wof:geomhash":"8e71cf136ec2dc697d392f075c18707c",
    "wof:hierarchy":[],
    "wof:id":739479561,
    "wof:lastmodified":1461908064,
    "wof:name":"Gospel Express Record Shop",
    "wof:parent_id":-1,
    "wof:placetype":"venue",
    "wof:superseded_by":[],
    "wof:supersedes":[],
    "wof:tags":[
        "compact",
        "record",
        "disc",
        "tape"
    ]
},
  "bbox": [
    -77.406567,
    37.227293,
    -77.406567,
    37.227293
],
  "geometry": {"coordinates":[-77.406567,37.227293],"type":"Point"}
}