{
  "id": 739412871,
  "type": "Feature",
  "properties": {
    "edtf:cessation":"uuuu",
    "edtf:inception":"uuuu",
    "geom:area":0.0,
    "geom:bbox":"-77.458715,37.208402,-77.458715,37.208402",
    "geom:latitude":37.208402,
    "geom:longitude":-77.458715,
    "iso:country":"US",
    "sg:address":"4612 Boydton Plank Rd",
    "sg:city":"Petersburg",
    "sg:classifiers":[
        {
            "category":"Retail",
            "subcategory":"Auto Repair",
            "type":"Services"
        }
    ],
    "sg:owner":"simplegeo",
    "sg:phone":"+1 804 733 4753",
    "sg:postcode":"23803",
    "sg:province":"VA",
    "sg:tags":[
        "body",
        "automobile",
        "painting"
    ],
    "src:geom":"simplegeo",
    "wof:belongsto":[],
    "wof:breaches":[],
    "wof:concordances":{
        "sg:id":"SG_6Fq1aXYhrumcpy2efastqx_37.208402_-77.458715@1294252573"
    },
    "wof:country":"US",
    "wof:created":1461906820,
    "wof:geomhash":"f27093acb477d3d12bb58668400fe70b",
    "wof:hierarchy":[],
    "wof:id":739412871,
    "wof:lastmodified":1461906820,
    "wof:name":"Lyn's Body & Paint Shop Inc",
    "wof:parent_id":-1,
    "wof:placetype":"venue",
    "wof:superseded_by":[],
    "wof:supersedes":[],
    "wof:tags":[
        "body",
        "automobile",
        "painting"
    ]
},
  "bbox": [
    -77.458715,
    37.208402,
    -77.458715,
    37.208402
],
  "geometry": {"coordinates":[-77.458715,37.208402],"type":"Point"}
}