{
  "id": 739527233,
  "type": "Feature",
  "properties": {
    "edtf:cessation":"uuuu",
    "edtf:inception":"uuuu",
    "geom:area":0.0,
    "geom:bbox":"-77.864457,36.747736,-77.864457,36.747736",
    "geom:latitude":36.747736,
    "geom:longitude":-77.864457,
    "iso:country":"US",
    "sg:address":"10233 Governor Harrison Pkwy",
    "sg:city":"Lawrenceville",
    "sg:classifiers":[
        {
            "category":"Banks & Credit Unions",
            "subcategory":"Bank",
            "type":"Services"
        }
    ],
    "sg:owner":"simplegeo",
    "sg:phone":"+1 434 848 3900",
    "sg:postcode":"23868",
    "sg:province":"VA",
    "src:geom":"simplegeo",
    "wof:belongsto":[],
    "wof:breaches":[],
    "wof:concordances":{
        "sg:id":"SG_1bwY9pJME66sZ6I2qJe0Sr_36.747736_-77.864457@1294252573"
    },
    "wof:country":"US",
    "wof:created":1461908925,
    "wof:geomhash":"5f6cb1b743f28889794932999911e71e",
    "wof:hierarchy":[],
    "wof:id":739527233,
    "wof:lastmodified":1461908925,
    "wof:name":"First-Citizens Bank & Trust Co",
    "wof:parent_id":-1,
    "wof:placetype":"venue",
    "wof:superseded_by":[],
    "wof:supersedes":[],
    "wof:tags":[]
},
  "bbox": [
    -77.864457,
    36.747736,
    -77.864457,
    36.747736
],
  "geometry": {"coordinates":[-77.864457,36.747736],"type":"Point"}
}