{
  "id": 722743531,
  "type": "Feature",
  "properties": {
    "edtf:cessation":"uuuu",
    "edtf:inception":"uuuu",
    "geom:area":0.0,
    "geom:bbox":"-81.533353,37.11208,-81.533353,37.11208",
    "geom:latitude":37.11208,
    "geom:longitude":-81.533353,
    "iso:country":"US",
    "sg:address":"209 W Main St",
    "sg:city":"Tazewell",
    "sg:classifiers":[
        {
            "category":"Insurance",
            "subcategory":"Insurance Agent",
            "type":"Services"
        }
    ],
    "sg:owner":"simplegeo",
    "sg:phone":"+1 276 988 9750",
    "sg:postcode":"24651",
    "sg:province":"VA",
    "src:geom":"simplegeo",
    "wof:belongsto":[],
    "wof:breaches":[],
    "wof:concordances":{
        "sg:id":"SG_6pHtCX9gqSPDihDkM7hazE_37.112080_-81.533353@1294252573"
    },
    "wof:country":"US",
    "wof:created":1461887817,
    "wof:geomhash":"1f2d560d692e3b8472e86d91b581e211",
    "wof:hierarchy":[],
    "wof:id":722743531,
    "wof:lastmodified":1461887817,
    "wof:name":"Hal Keene & Assosiates Ing",
    "wof:parent_id":420547299,
    "wof:placetype":"venue",
    "wof:superseded_by":[],
    "wof:supersedes":[],
    "wof:tags":[]
},
  "bbox": [
    -81.533353,
    37.11208,
    -81.533353,
    37.11208
],
  "geometry": {"coordinates":[-81.53335300000001,37.11208],"type":"Point"}
}