{
  "id": 722917825,
  "type": "Feature",
  "properties": {
    "edtf:cessation":"uuuu",
    "edtf:inception":"uuuu",
    "geom:area":0.0,
    "geom:bbox":"-77.685444,37.393947,-77.685444,37.393947",
    "geom:latitude":37.393947,
    "geom:longitude":-77.685444,
    "iso:country":"US",
    "sg:address":"7820 Breaker Point Ct",
    "sg:city":"Chesterfield",
    "sg:classifiers":[
        {
            "category":"Building & Trades",
            "subcategory":"Plumbing",
            "type":"Services"
        }
    ],
    "sg:owner":"simplegeo",
    "sg:phone":"+1 804 639 0399",
    "sg:postcode":"23832",
    "sg:province":"VA",
    "sg:tags":[
        "contractor"
    ],
    "src:geom":"simplegeo",
    "wof:belongsto":[],
    "wof:breaches":[],
    "wof:concordances":{
        "sg:id":"SG_24peM0ftZDErUHRdk6TWBL_37.393947_-77.685444@1294252573"
    },
    "wof:country":"US",
    "wof:created":1461891139,
    "wof:geomhash":"244be8619e7622fe7399db174e483185",
    "wof:hierarchy":[],
    "wof:id":722917825,
    "wof:lastmodified":1461891139,
    "wof:name":"Duncan Plumbing",
    "wof:parent_id":-1,
    "wof:placetype":"venue",
    "wof:superseded_by":[],
    "wof:supersedes":[],
    "wof:tags":[
        "contractor"
    ]
},
  "bbox": [
    -77.685444,
    37.393947,
    -77.685444,
    37.393947
],
  "geometry": {"coordinates":[-77.685444,37.393947],"type":"Point"}
}