{
  "id": 722831083,
  "type": "Feature",
  "properties": {
    "edtf:cessation":"uuuu",
    "edtf:inception":"uuuu",
    "geom:area":0.0,
    "geom:bbox":"-78.028361,37.174555,-78.028361,37.174555",
    "geom:latitude":37.174555,
    "geom:longitude":-78.028361,
    "iso:country":"US",
    "sg:address":"3294 Bible Rd",
    "sg:city":"Crewe",
    "sg:classifiers":[
        {
            "category":"Retail",
            "subcategory":"Repair Shop",
            "type":"Services"
        }
    ],
    "sg:owner":"simplegeo",
    "sg:phone":"+1 434 645 9093",
    "sg:postcode":"23930",
    "sg:province":"VA",
    "src:geom":"simplegeo",
    "wof:belongsto":[],
    "wof:breaches":[],
    "wof:concordances":{
        "sg:id":"SG_7E2KwNYhtS9N2qxbjkbvyO_37.174555_-78.028361@1294252573"
    },
    "wof:country":"US",
    "wof:created":1461889465,
    "wof:geomhash":"2369332df4a2f3d9188dfb3f0163b0d7",
    "wof:hierarchy":[],
    "wof:id":722831083,
    "wof:lastmodified":1461889465,
    "wof:name":"Garlands Repair Service",
    "wof:parent_id":-1,
    "wof:placetype":"venue",
    "wof:superseded_by":[],
    "wof:supersedes":[],
    "wof:tags":[]
},
  "bbox": [
    -78.028361,
    37.174555,
    -78.028361,
    37.174555
],
  "geometry": {"coordinates":[-78.028361,37.174555],"type":"Point"}
}