{
  "id": 723486259,
  "type": "Feature",
  "properties": {
    "edtf:cessation":"uuuu",
    "edtf:inception":"uuuu",
    "geom:area":0.0,
    "geom:bbox":"-80.056891,37.292893,-80.056891,37.292893",
    "geom:latitude":37.292893,
    "geom:longitude":-80.056891,
    "iso:country":"US",
    "sg:address":"42 E Main St",
    "sg:city":"Salem",
    "sg:classifiers":[
        {
            "category":"Social Services",
            "subcategory":"Child Care",
            "type":"Services"
        }
    ],
    "sg:owner":"simplegeo",
    "sg:phone":"+1 540 389 9307",
    "sg:postcode":"24153",
    "sg:province":"VA",
    "sg:tags":[
        "day"
    ],
    "src:geom":"simplegeo",
    "wof:belongsto":[],
    "wof:breaches":[],
    "wof:concordances":{
        "sg:id":"SG_0FjMPwy3tEZ9yOURzuwnmn_37.292893_-80.056891@1294252573"
    },
    "wof:country":"US",
    "wof:created":1461902655,
    "wof:geomhash":"fd451ab3b5ef2e6867cd08079f36d729",
    "wof:hierarchy":[],
    "wof:id":723486259,
    "wof:lastmodified":1461902655,
    "wof:name":"St Annes Day School",
    "wof:parent_id":-1,
    "wof:placetype":"venue",
    "wof:superseded_by":[],
    "wof:supersedes":[],
    "wof:tags":[
        "day"
    ]
},
  "bbox": [
    -80.056891,
    37.292893,
    -80.056891,
    37.292893
],
  "geometry": {"coordinates":[-80.05689099999999,37.292893],"type":"Point"}
}