{
  "id": 739471009,
  "type": "Feature",
  "properties": {
    "edtf:cessation":"uuuu",
    "edtf:inception":"uuuu",
    "geom:area":0.0,
    "geom:bbox":"-77.627315,37.612584,-77.627315,37.612584",
    "geom:latitude":37.612584,
    "geom:longitude":-77.627315,
    "iso:country":"US",
    "sg:address":"11800 N Downs Sq",
    "sg:city":"Richmond",
    "sg:classifiers":[
        {
            "category":"Manufacturing",
            "subcategory":"Metals",
            "type":"Manufacturing & Wholesale Goods"
        }
    ],
    "sg:owner":"simplegeo",
    "sg:phone":"+1 804 741 9160",
    "sg:postcode":"23238",
    "sg:province":"VA",
    "sg:tags":[
        "tool",
        "mfg"
    ],
    "src:geom":"simplegeo",
    "wof:belongsto":[],
    "wof:breaches":[],
    "wof:concordances":{
        "sg:id":"SG_6fHtEHnwzSXQQKjZC2213q_37.612584_-77.627315@1294252573"
    },
    "wof:country":"US",
    "wof:created":1461907904,
    "wof:geomhash":"bafcdc71a3e9d65d9150adcc6f8efef3",
    "wof:hierarchy":[],
    "wof:id":739471009,
    "wof:lastmodified":1461907904,
    "wof:name":"Level Tech",
    "wof:parent_id":-1,
    "wof:placetype":"venue",
    "wof:superseded_by":[],
    "wof:supersedes":[],
    "wof:tags":[
        "tool",
        "mfg"
    ]
},
  "bbox": [
    -77.627315,
    37.612584,
    -77.627315,
    37.612584
],
  "geometry": {"coordinates":[-77.627315,37.612584],"type":"Point"}
}