{
  "id": 723338479,
  "type": "Feature",
  "properties": {
    "edtf:cessation":"uuuu",
    "edtf:inception":"uuuu",
    "geom:area":0.0,
    "geom:bbox":"-81.534394,37.11137,-81.534394,37.11137",
    "geom:latitude":37.11137,
    "geom:longitude":-81.534394,
    "iso:country":"US",
    "sg:address":"237 W Main St",
    "sg:city":"Tazewell",
    "sg:classifiers":[
        {
            "category":"Social Services",
            "subcategory":"",
            "type":"Services"
        }
    ],
    "sg:owner":"simplegeo",
    "sg:phone":"+1 276 988 7727",
    "sg:postcode":"24651",
    "sg:province":"VA",
    "sg:tags":[
        "probation"
    ],
    "src:geom":"simplegeo",
    "wof:belongsto":[],
    "wof:breaches":[],
    "wof:concordances":{
        "sg:id":"SG_6v2Q7eSFqfNO9UrIYqRd3J_37.111370_-81.534394@1294252573"
    },
    "wof:country":"US",
    "wof:created":1461899781,
    "wof:geomhash":"b2deca35391a5d9dc050f67fb5bac861",
    "wof:hierarchy":[],
    "wof:id":723338479,
    "wof:lastmodified":1461899781,
    "wof:name":"Probation & Parole Office",
    "wof:parent_id":420547299,
    "wof:placetype":"venue",
    "wof:superseded_by":[],
    "wof:supersedes":[],
    "wof:tags":[
        "probation"
    ]
},
  "bbox": [
    -81.534394,
    37.11137,
    -81.534394,
    37.11137
],
  "geometry": {"coordinates":[-81.53439400000001,37.11137],"type":"Point"}
}