{
  "id": 722622301,
  "type": "Feature",
  "properties": {
    "edtf:cessation":"uuuu",
    "edtf:inception":"uuuu",
    "geom:area":0.0,
    "geom:bbox":"-77.383057,36.846857,-77.383057,36.846857",
    "geom:latitude":36.846857,
    "geom:longitude":-77.383057,
    "iso:country":"US",
    "sg:address":"21191 Parham Cir",
    "sg:city":"Jarratt",
    "sg:classifiers":[
        {
            "category":"Retail",
            "subcategory":"Auto Repair",
            "type":"Services"
        }
    ],
    "sg:owner":"simplegeo",
    "sg:phone":"+1 434 535 0220",
    "sg:postcode":"23867",
    "sg:province":"VA",
    "sg:tags":[
        "automotive"
    ],
    "src:geom":"simplegeo",
    "wof:belongsto":[],
    "wof:breaches":[],
    "wof:concordances":{
        "sg:id":"SG_6jzk3nsVJl6qZtcenzEiFm_36.846857_-77.383057@1294252573"
    },
    "wof:country":"US",
    "wof:created":1461885433,
    "wof:geomhash":"675a50737dc2d7ba12091ae90020b012",
    "wof:hierarchy":[],
    "wof:id":722622301,
    "wof:lastmodified":1461885433,
    "wof:name":"Williams Towing & Transport",
    "wof:parent_id":-1,
    "wof:placetype":"venue",
    "wof:superseded_by":[],
    "wof:supersedes":[],
    "wof:tags":[
        "automotive"
    ]
},
  "bbox": [
    -77.383057,
    36.846857,
    -77.383057,
    36.846857
],
  "geometry": {"coordinates":[-77.38305699999999,36.846857],"type":"Point"}
}