{
  "id": 723224515,
  "type": "Feature",
  "properties": {
    "edtf:cessation":"uuuu",
    "edtf:inception":"uuuu",
    "geom:area":0.0,
    "geom:bbox":"-77.450222,38.860955,-77.450222,38.860955",
    "geom:latitude":38.860955,
    "geom:longitude":-77.450222,
    "iso:country":"US",
    "sg:address":"14413 N Slope St",
    "sg:city":"Centreville",
    "sg:classifiers":[
        {
            "category":"Professional",
            "subcategory":"Business Services",
            "type":"Services"
        }
    ],
    "sg:owner":"simplegeo",
    "sg:phone":"+1 703 818 8332",
    "sg:postcode":"20120",
    "sg:province":"VA",
    "src:geom":"simplegeo",
    "wof:belongsto":[],
    "wof:breaches":[],
    "wof:concordances":{
        "sg:id":"SG_4jfNdOw2vFCRVrdanEt3EW_38.860955_-77.450222@1294252573"
    },
    "wof:country":"US",
    "wof:created":1461897585,
    "wof:geomhash":"30ad5b0a1f69d203505fd58a17107ea0",
    "wof:hierarchy":[],
    "wof:id":723224515,
    "wof:lastmodified":1461897585,
    "wof:name":"Electronic Media Solutions",
    "wof:parent_id":-1,
    "wof:placetype":"venue",
    "wof:superseded_by":[],
    "wof:supersedes":[],
    "wof:tags":[]
},
  "bbox": [
    -77.450222,
    38.860955,
    -77.450222,
    38.860955
],
  "geometry": {"coordinates":[-77.450222,38.860955],"type":"Point"}
}