{
  "id": 723078277,
  "type": "Feature",
  "properties": {
    "edtf:cessation":"uuuu",
    "edtf:inception":"uuuu",
    "geom:area":0.0,
    "geom:bbox":"-77.444318,37.479394,-77.444318,37.479394",
    "geom:latitude":37.479394,
    "geom:longitude":-77.444318,
    "iso:country":"US",
    "sg:address":"3206 Jefferson Davis Hwy",
    "sg:city":"Richmond",
    "sg:classifiers":[
        {
            "category":"Restaurant",
            "subcategory":"",
            "type":"Food & Drink"
        }
    ],
    "sg:owner":"simplegeo",
    "sg:phone":"+1 804 231 7401",
    "sg:postcode":"23234",
    "sg:province":"VA",
    "sg:tags":[
        "caterer"
    ],
    "src:geom":"simplegeo",
    "wof:belongsto":[],
    "wof:breaches":[],
    "wof:concordances":{
        "sg:id":"SG_0sHD8wNqQLv5oMklibKyx9_37.479394_-77.444318@1294252573"
    },
    "wof:country":"US",
    "wof:created":1461894648,
    "wof:geomhash":"eb07d96277b35f5c0be8083f4936e6c8",
    "wof:hierarchy":[],
    "wof:id":723078277,
    "wof:lastmodified":1461894648,
    "wof:name":"Golden Skillet Chicken",
    "wof:parent_id":-1,
    "wof:placetype":"venue",
    "wof:superseded_by":[],
    "wof:supersedes":[],
    "wof:tags":[
        "caterer"
    ]
},
  "bbox": [
    -77.444318,
    37.479394,
    -77.444318,
    37.479394
],
  "geometry": {"coordinates":[-77.444318,37.479394],"type":"Point"}
}