{
  "id": 739603319,
  "type": "Feature",
  "properties": {
    "edtf:cessation":"uuuu",
    "edtf:inception":"uuuu",
    "geom:area":0.0,
    "geom:bbox":"-77.518922,38.788046,-77.518922,38.788046",
    "geom:latitude":38.788046,
    "geom:longitude":-77.518922,
    "iso:country":"US",
    "sg:address":"7928 Donegan Dr",
    "sg:city":"Manassas",
    "sg:classifiers":[
        {
            "category":"Health Services",
            "subcategory":"Health Practitioner",
            "type":"Services"
        }
    ],
    "sg:owner":"simplegeo",
    "sg:phone":"+1 703 257 3333",
    "sg:postcode":"20109",
    "sg:province":"VA",
    "sg:tags":[
        "therapy",
        "physical"
    ],
    "sg:website":"www.thejacksonclinics.com",
    "src:geom":"simplegeo",
    "wof:belongsto":[],
    "wof:breaches":[],
    "wof:concordances":{
        "sg:id":"SG_3C5qNjEJDjzCYarCu8jj67_38.788046_-77.518922@1303262495"
    },
    "wof:country":"US",
    "wof:created":1461910480,
    "wof:geomhash":"c0df086a0eb1586894258aff7cd56875",
    "wof:hierarchy":[],
    "wof:id":739603319,
    "wof:lastmodified":1461910480,
    "wof:name":"Jackson Clinics the",
    "wof:parent_id":-1,
    "wof:placetype":"venue",
    "wof:superseded_by":[],
    "wof:supersedes":[],
    "wof:tags":[
        "therapy",
        "physical"
    ]
},
  "bbox": [
    -77.518922,
    38.788046,
    -77.518922,
    38.788046
],
  "geometry": {"coordinates":[-77.518922,38.788046],"type":"Point"}
}