{
  "id": 723190835,
  "type": "Feature",
  "properties": {
    "edtf:cessation":"uuuu",
    "edtf:inception":"uuuu",
    "geom:area":0.0,
    "geom:bbox":"-77.569829,38.764782,-77.569829,38.764782",
    "geom:latitude":38.764782,
    "geom:longitude":-77.569829,
    "iso:country":"US",
    "sg:address":"9002 Roaring Spring Loop",
    "sg:city":"Bristow",
    "sg:classifiers":[
        {
            "category":"Professional",
            "subcategory":"Accounting & Tax Preparation",
            "type":"Services"
        }
    ],
    "sg:owner":"simplegeo",
    "sg:phone":"+1 703 369 7682",
    "sg:postcode":"20136",
    "sg:province":"VA",
    "sg:tags":[
        "bookkeeping",
        "general"
    ],
    "src:geom":"simplegeo",
    "wof:belongsto":[],
    "wof:breaches":[],
    "wof:concordances":{
        "sg:id":"SG_4KhPEkBl6UFIaHGc5d1uLY_38.764782_-77.569829@1294252573"
    },
    "wof:country":"US",
    "wof:created":1461896901,
    "wof:geomhash":"66abb45f487525bd4b2f5300b576719f",
    "wof:hierarchy":[],
    "wof:id":723190835,
    "wof:lastmodified":1461896901,
    "wof:name":"Expressly Numbers",
    "wof:parent_id":-1,
    "wof:placetype":"venue",
    "wof:superseded_by":[],
    "wof:supersedes":[],
    "wof:tags":[
        "bookkeeping",
        "general"
    ]
},
  "bbox": [
    -77.569829,
    38.764782,
    -77.569829,
    38.764782
],
  "geometry": {"coordinates":[-77.569829,38.764782],"type":"Point"}
}