{
  "id": 739515721,
  "type": "Feature",
  "properties": {
    "edtf:cessation":"uuuu",
    "edtf:inception":"uuuu",
    "geom:area":0.0,
    "geom:bbox":"-77.575074,37.64177,-77.575074,37.64177",
    "geom:latitude":37.64177,
    "geom:longitude":-77.575074,
    "iso:country":"US",
    "sg:address":"9960 Mayland Dr",
    "sg:city":"Richmond",
    "sg:classifiers":[
        {
            "category":"Banks & Credit Unions",
            "subcategory":"Bank",
            "type":"Services"
        }
    ],
    "sg:owner":"simplegeo",
    "sg:phone":"+1 804 967 2940",
    "sg:postcode":"23233",
    "sg:province":"VA",
    "sg:tags":[
        "national",
        "commercial"
    ],
    "sg:website":"www.fnanb.com",
    "src:geom":"simplegeo",
    "wof:belongsto":[],
    "wof:breaches":[],
    "wof:concordances":{
        "sg:id":"SG_5yMLrame2FaKcArHl72r0s_37.641770_-77.575074@1294252573"
    },
    "wof:country":"US",
    "wof:created":1461908716,
    "wof:geomhash":"abe99ab2329d41240863df418cf94df7",
    "wof:hierarchy":[],
    "wof:id":739515721,
    "wof:lastmodified":1461908716,
    "wof:name":"First North American National",
    "wof:parent_id":-1,
    "wof:placetype":"venue",
    "wof:superseded_by":[],
    "wof:supersedes":[],
    "wof:tags":[
        "national",
        "commercial"
    ]
},
  "bbox": [
    -77.575074,
    37.64177,
    -77.575074,
    37.64177
],
  "geometry": {"coordinates":[-77.575074,37.64177],"type":"Point"}
}