{
  "id": 722823287,
  "type": "Feature",
  "properties": {
    "edtf:cessation":"uuuu",
    "edtf:inception":"uuuu",
    "geom:area":0.0,
    "geom:bbox":"-82.185643,36.595044,-82.185643,36.595044",
    "geom:latitude":36.595044,
    "geom:longitude":-82.185643,
    "iso:country":"US",
    "sg:address":"710 State St",
    "sg:city":"Bristol",
    "sg:classifiers":[
        {
            "category":"Professional",
            "subcategory":"Accounting & Tax Preparation",
            "type":"Services"
        }
    ],
    "sg:owner":"simplegeo",
    "sg:phone":"+1 423 990 1040",
    "sg:postcode":"37620",
    "sg:province":"VA",
    "sg:tags":[
        "return"
    ],
    "src:geom":"simplegeo",
    "wof:belongsto":[],
    "wof:breaches":[],
    "wof:concordances":{
        "sg:id":"SG_6Lq9S27JqnHcx4Me4la6rw_36.595044_-82.185643@1294252573"
    },
    "wof:country":"US",
    "wof:created":1461889324,
    "wof:geomhash":"dc620367724a3ca1cca941a6679998f2",
    "wof:hierarchy":[],
    "wof:id":722823287,
    "wof:lastmodified":1461889324,
    "wof:name":"Liberty Tax Service",
    "wof:parent_id":-1,
    "wof:placetype":"venue",
    "wof:superseded_by":[],
    "wof:supersedes":[],
    "wof:tags":[
        "return"
    ]
},
  "bbox": [
    -82.185643,
    36.595044,
    -82.185643,
    36.595044
],
  "geometry": {"coordinates":[-82.185643,36.595044],"type":"Point"}
}