{
  "id": 723049025,
  "type": "Feature",
  "properties": {
    "edtf:cessation":"uuuu",
    "edtf:inception":"uuuu",
    "geom:area":0.0,
    "geom:bbox":"-77.477743,37.639918,-77.477743,37.639918",
    "geom:latitude":37.639918,
    "geom:longitude":-77.477743,
    "iso:country":"US",
    "sg:address":"9009 Willowbrook Dr",
    "sg:city":"Richmond",
    "sg:classifiers":[
        {
            "category":"Recreation",
            "subcategory":"",
            "type":"Entertainment"
        }
    ],
    "sg:owner":"simplegeo",
    "sg:phone":"+1 804 553 1967",
    "sg:postcode":"23228",
    "sg:province":"VA",
    "sg:tags":[
        "instruction",
        "golf"
    ],
    "src:geom":"simplegeo",
    "wof:belongsto":[],
    "wof:breaches":[],
    "wof:concordances":{
        "sg:id":"SG_01bEa7PVuZaG7Ay2NB8jaP_37.639918_-77.477743@1294252573"
    },
    "wof:country":"US",
    "wof:created":1461893988,
    "wof:geomhash":"4f86db00243bbd6a9a97eef134a3fba1",
    "wof:hierarchy":[],
    "wof:id":723049025,
    "wof:lastmodified":1461893988,
    "wof:name":"Michelob Ultra Golf Tour",
    "wof:parent_id":-1,
    "wof:placetype":"venue",
    "wof:superseded_by":[],
    "wof:supersedes":[],
    "wof:tags":[
        "instruction",
        "golf"
    ]
},
  "bbox": [
    -77.477743,
    37.639918,
    -77.477743,
    37.639918
],
  "geometry": {"coordinates":[-77.477743,37.639918],"type":"Point"}
}