{
  "id": 739696019,
  "type": "Feature",
  "properties": {
    "edtf:cessation":"uuuu",
    "edtf:inception":"uuuu",
    "geom:area":0.0,
    "geom:bbox":"-78.50765,38.886885,-78.50765,38.886885",
    "geom:latitude":38.886885,
    "geom:longitude":-78.50765,
    "iso:country":"US",
    "sg:address":"332 N Lee St",
    "sg:city":"Woodstock",
    "sg:classifiers":[
        {
            "category":"Building & Trades",
            "subcategory":"Construction",
            "type":"Services"
        }
    ],
    "sg:owner":"simplegeo",
    "sg:phone":"+1 540 325 0377",
    "sg:postcode":"22664",
    "sg:province":"VA",
    "sg:tags":[
        "altering",
        "remodeling",
        "contractor"
    ],
    "src:geom":"simplegeo",
    "wof:belongsto":[],
    "wof:breaches":[],
    "wof:concordances":{
        "sg:id":"SG_2ymmHVJkrDt8BkHMi0UZe3_38.886885_-78.507650@1303262547"
    },
    "wof:country":"US",
    "wof:created":1461912462,
    "wof:geomhash":"10fc99ecb2af308257a412e9472a0063",
    "wof:hierarchy":[],
    "wof:id":739696019,
    "wof:lastmodified":1461912462,
    "wof:name":"Black Dog Renovation",
    "wof:parent_id":-1,
    "wof:placetype":"venue",
    "wof:superseded_by":[],
    "wof:supersedes":[],
    "wof:tags":[
        "altering",
        "remodeling",
        "contractor"
    ]
},
  "bbox": [
    -78.50765,
    38.886885,
    -78.50765,
    38.886885
],
  "geometry": {"coordinates":[-78.50765,38.886885],"type":"Point"}
}