{
  "id": 722932985,
  "type": "Feature",
  "properties": {
    "edtf:cessation":"uuuu",
    "edtf:inception":"uuuu",
    "geom:area":0.0,
    "geom:bbox":"-77.417887,38.814574,-77.417887,38.814574",
    "geom:latitude":38.814574,
    "geom:longitude":-77.417887,
    "iso:country":"US",
    "sg:address":"6414 Battle Rock Dr",
    "sg:city":"Clifton",
    "sg:classifiers":[
        {
            "category":"Building & Trades",
            "subcategory":"Construction",
            "type":"Services"
        }
    ],
    "sg:owner":"simplegeo",
    "sg:phone":"+1 703 815 2223",
    "sg:postcode":"20124",
    "sg:province":"VA",
    "sg:tags":[
        "equipment",
        "commercial",
        "contractor"
    ],
    "src:geom":"simplegeo",
    "wof:belongsto":[],
    "wof:breaches":[],
    "wof:concordances":{
        "sg:id":"SG_1Mtl1FIen2XkKOhrpAIWfa_38.814574_-77.417887@1294252573"
    },
    "wof:country":"US",
    "wof:created":1461891471,
    "wof:geomhash":"ebbebe6cc0c706df14e7e4a0d76b7d94",
    "wof:hierarchy":[],
    "wof:id":722932985,
    "wof:lastmodified":1461891471,
    "wof:name":"Multi Scope",
    "wof:parent_id":-1,
    "wof:placetype":"venue",
    "wof:superseded_by":[],
    "wof:supersedes":[],
    "wof:tags":[
        "equipment",
        "commercial",
        "contractor"
    ]
},
  "bbox": [
    -77.417887,
    38.814574,
    -77.417887,
    38.814574
],
  "geometry": {"coordinates":[-77.41788699999999,38.814574],"type":"Point"}
}