{
  "id": 723353281,
  "type": "Feature",
  "properties": {
    "edtf:cessation":"uuuu",
    "edtf:inception":"uuuu",
    "geom:area":0.0,
    "geom:bbox":"-78.491749,38.952241,-78.491749,38.952241",
    "geom:latitude":38.952241,
    "geom:longitude":-78.491749,
    "iso:country":"US",
    "sg:address":"9480 Back Rd",
    "sg:city":"Maurertown",
    "sg:classifiers":[
        {
            "category":"Farming",
            "subcategory":"Livestock Farm",
            "type":"Manufacturing & Wholesale Goods"
        }
    ],
    "sg:owner":"simplegeo",
    "sg:phone":"+1 540 436 9255",
    "sg:postcode":"22644",
    "sg:province":"VA",
    "sg:tags":[
        "beef",
        "feedlot",
        "cattle"
    ],
    "src:geom":"simplegeo",
    "wof:belongsto":[],
    "wof:breaches":[],
    "wof:concordances":{
        "sg:id":"SG_22XsBAP6uLBRTaMsaVMcv1_38.952241_-78.491749@1294252573"
    },
    "wof:country":"US",
    "wof:created":1461900059,
    "wof:geomhash":"fdac813c301f7180acd3b781b7271804",
    "wof:hierarchy":[],
    "wof:id":723353281,
    "wof:lastmodified":1461900059,
    "wof:name":"French Brothers",
    "wof:parent_id":-1,
    "wof:placetype":"venue",
    "wof:superseded_by":[],
    "wof:supersedes":[],
    "wof:tags":[
        "beef",
        "feedlot",
        "cattle"
    ]
},
  "bbox": [
    -78.491749,
    38.952241,
    -78.491749,
    38.952241
],
  "geometry": {"coordinates":[-78.491749,38.952241],"type":"Point"}
}