{
  "id": 722885529,
  "type": "Feature",
  "properties": {
    "edtf:cessation":"uuuu",
    "edtf:inception":"uuuu",
    "geom:area":0.0,
    "geom:bbox":"-77.92027,38.270449,-77.92027,38.270449",
    "geom:latitude":38.270449,
    "geom:longitude":-77.92027,
    "iso:country":"US",
    "sg:address":"26042 Lafayette Dr",
    "sg:city":"Rhoadesville",
    "sg:classifiers":[
        {
            "category":"Organizations",
            "subcategory":"Religious Organization",
            "type":"Services"
        }
    ],
    "sg:owner":"simplegeo",
    "sg:phone":"+1 540 854 7527",
    "sg:postcode":"22542",
    "sg:province":"VA",
    "sg:tags":[
        "church"
    ],
    "src:geom":"simplegeo",
    "wof:belongsto":[],
    "wof:breaches":[],
    "wof:concordances":{
        "sg:id":"SG_786c1sFU3AQsfRcol72GoA_38.270449_-77.920270@1294252573"
    },
    "wof:country":"US",
    "wof:created":1461890496,
    "wof:geomhash":"10dd912420eb1dcf5404c12a50912cdc",
    "wof:hierarchy":[],
    "wof:id":722885529,
    "wof:lastmodified":1461890496,
    "wof:name":"Rhoadesville Baptist Church",
    "wof:parent_id":-1,
    "wof:placetype":"venue",
    "wof:superseded_by":[],
    "wof:supersedes":[],
    "wof:tags":[
        "church"
    ]
},
  "bbox": [
    -77.92027,
    38.270449,
    -77.92027,
    38.270449
],
  "geometry": {"coordinates":[-77.92027,38.270449],"type":"Point"}
}