{
  "id": 739403391,
  "type": "Feature",
  "properties": {
    "edtf:cessation":"uuuu",
    "edtf:inception":"uuuu",
    "geom:area":0.0,
    "geom:bbox":"-78.561157,36.621967,-78.561157,36.621967",
    "geom:latitude":36.621967,
    "geom:longitude":-78.561157,
    "iso:country":"US",
    "sg:address":"801 Virginia Ave",
    "sg:city":"Clarksville",
    "sg:classifiers":[
        {
            "category":"Travel",
            "subcategory":"Hotels & Motels",
            "type":"Entertainment"
        }
    ],
    "sg:owner":"simplegeo",
    "sg:phone":"+1 434 374 2866",
    "sg:postcode":"23927",
    "sg:province":"VA",
    "sg:tags":[
        "breakfast",
        "operation",
        "bed",
        "accommodation"
    ],
    "src:geom":"simplegeo",
    "wof:belongsto":[],
    "wof:breaches":[],
    "wof:concordances":{
        "sg:id":"SG_0vaQT9ThIalXHCwRTSt0i8_36.621967_-78.561157@1294252573"
    },
    "wof:country":"US",
    "wof:created":1461906641,
    "wof:geomhash":"4f012cc04d3520dfef447e869f40c6cf",
    "wof:hierarchy":[],
    "wof:id":739403391,
    "wof:lastmodified":1461906641,
    "wof:name":"Cooper's Landing",
    "wof:parent_id":-1,
    "wof:placetype":"venue",
    "wof:superseded_by":[],
    "wof:supersedes":[],
    "wof:tags":[
        "breakfast",
        "operation",
        "bed",
        "accommodation"
    ]
},
  "bbox": [
    -78.561157,
    36.621967,
    -78.561157,
    36.621967
],
  "geometry": {"coordinates":[-78.56115699999999,36.621967],"type":"Point"}
}