{
  "id": 723293493,
  "type": "Feature",
  "properties": {
    "edtf:cessation":"uuuu",
    "edtf:inception":"uuuu",
    "geom:area":0.0,
    "geom:bbox":"-77.46016,37.645149,-77.46016,37.645149",
    "geom:latitude":37.645149,
    "geom:longitude":-77.46016,
    "iso:country":"US",
    "sg:address":"9010 Brook Rd",
    "sg:city":"Glen Allen",
    "sg:classifiers":[
        {
            "category":"Restaurant",
            "subcategory":"",
            "type":"Food & Drink"
        }
    ],
    "sg:owner":"simplegeo",
    "sg:phone":"+1 804 264 9189",
    "sg:postcode":"23060",
    "sg:province":"VA",
    "src:geom":"simplegeo",
    "wof:belongsto":[],
    "wof:breaches":[],
    "wof:concordances":{
        "sg:id":"SG_1igRgzUYOeXVGlxvvMVSQ8_37.645149_-77.460160@1294252573"
    },
    "wof:country":"US",
    "wof:created":1461898939,
    "wof:geomhash":"2dbf2f6c88e49adf632418ae38a11363",
    "wof:hierarchy":[],
    "wof:id":723293493,
    "wof:lastmodified":1461898939,
    "wof:name":"Aunt Sarah's LLC",
    "wof:parent_id":-1,
    "wof:placetype":"venue",
    "wof:superseded_by":[],
    "wof:supersedes":[],
    "wof:tags":[]
},
  "bbox": [
    -77.46016,
    37.645149,
    -77.46016,
    37.645149
],
  "geometry": {"coordinates":[-77.46016,37.645149],"type":"Point"}
}