{
  "id": 739613661,
  "type": "Feature",
  "properties": {
    "edtf:cessation":"uuuu",
    "edtf:inception":"uuuu",
    "geom:area":0.0,
    "geom:bbox":"-77.635254,38.812642,-77.635254,38.812642",
    "geom:latitude":38.812642,
    "geom:longitude":-77.635254,
    "iso:country":"US",
    "sg:address":"6611 Jefferson St #303",
    "sg:city":"Haymarket",
    "sg:classifiers":[
        {
            "category":"Insurance",
            "subcategory":"Hazard Insurance",
            "type":"Services"
        }
    ],
    "sg:owner":"simplegeo",
    "sg:phone":"+1 571 261 2700",
    "sg:postcode":"20169",
    "sg:province":"VA",
    "sg:website":"www.stoveragency.com",
    "src:geom":"simplegeo",
    "wof:belongsto":[],
    "wof:breaches":[],
    "wof:concordances":{
        "sg:id":"SG_0SJPHhM3oNjueNCSQWKGZx_38.812642_-77.635254@1303262496"
    },
    "wof:country":"US",
    "wof:created":1461910679,
    "wof:geomhash":"002a1f5ebfd6ea95e934926056d3874d",
    "wof:hierarchy":[],
    "wof:id":739613661,
    "wof:lastmodified":1461910679,
    "wof:name":"Stover Insurance",
    "wof:parent_id":-1,
    "wof:placetype":"venue",
    "wof:superseded_by":[],
    "wof:supersedes":[],
    "wof:tags":[]
},
  "bbox": [
    -77.635254,
    38.812642,
    -77.635254,
    38.812642
],
  "geometry": {"coordinates":[-77.635254,38.812642],"type":"Point"}
}