{
  "id": 722792695,
  "type": "Feature",
  "properties": {
    "edtf:cessation":"uuuu",
    "edtf:inception":"uuuu",
    "geom:area":0.0,
    "geom:bbox":"-77.539975,38.261527,-77.539975,38.261527",
    "geom:latitude":38.261527,
    "geom:longitude":-77.539975,
    "iso:country":"US",
    "sg:address":"11117 Leavells Rd",
    "sg:city":"Fredericksburg",
    "sg:classifiers":[
        {
            "category":"Social Services",
            "subcategory":"Child Care",
            "type":"Services"
        }
    ],
    "sg:owner":"simplegeo",
    "sg:phone":"+1 540 898 9269",
    "sg:postcode":"22407",
    "sg:province":"VA",
    "sg:tags":[
        "day"
    ],
    "sg:website":"www.minnieland.com",
    "src:geom":"simplegeo",
    "wof:belongsto":[],
    "wof:breaches":[],
    "wof:concordances":{
        "sg:id":"SG_0elpHRdwAHWqSZPd5TMBwk_38.261527_-77.539975@1294252573"
    },
    "wof:country":"US",
    "wof:created":1461888748,
    "wof:geomhash":"0992d9cd9d3d6d95e4eb93faa969af6a",
    "wof:hierarchy":[],
    "wof:id":722792695,
    "wof:lastmodified":1461888748,
    "wof:name":"Minnieland Private Day School",
    "wof:parent_id":-1,
    "wof:placetype":"venue",
    "wof:superseded_by":[],
    "wof:supersedes":[],
    "wof:tags":[
        "day"
    ]
},
  "bbox": [
    -77.539975,
    38.261527,
    -77.539975,
    38.261527
],
  "geometry": {"coordinates":[-77.539975,38.261527],"type":"Point"}
}