{
  "id": 723126133,
  "type": "Feature",
  "properties": {
    "edtf:cessation":"uuuu",
    "edtf:inception":"uuuu",
    "geom:area":0.0,
    "geom:bbox":"-77.524458,37.458834,-77.524458,37.458834",
    "geom:latitude":37.458834,
    "geom:longitude":-77.524458,
    "iso:country":"US",
    "sg:address":"6971 Slate Rd",
    "sg:city":"Chesterfield",
    "sg:classifiers":[
        {
            "category":"Building & Trades",
            "subcategory":"Construction",
            "type":"Services"
        }
    ],
    "sg:owner":"simplegeo",
    "sg:phone":"+1 804 674 1733",
    "sg:postcode":"23832",
    "sg:province":"VA",
    "sg:tags":[
        "house"
    ],
    "src:geom":"simplegeo",
    "wof:belongsto":[],
    "wof:breaches":[],
    "wof:concordances":{
        "sg:id":"SG_3K8DxyCZpqiId9fdEOFQi2_37.458834_-77.524458@1294252573"
    },
    "wof:country":"US",
    "wof:created":1461895623,
    "wof:geomhash":"f0b8949053d421981dc88f1a42f99df0",
    "wof:hierarchy":[],
    "wof:id":723126133,
    "wof:lastmodified":1461895623,
    "wof:name":"Montgomery Enterprises",
    "wof:parent_id":420546613,
    "wof:placetype":"venue",
    "wof:superseded_by":[],
    "wof:supersedes":[],
    "wof:tags":[
        "house"
    ]
},
  "bbox": [
    -77.524458,
    37.458834,
    -77.524458,
    37.458834
],
  "geometry": {"coordinates":[-77.524458,37.458834],"type":"Point"}
}