{
  "id": 739376183,
  "type": "Feature",
  "properties": {
    "edtf:cessation":"uuuu",
    "edtf:inception":"uuuu",
    "geom:area":0.0,
    "geom:bbox":"-75.839775,37.611654,-75.839775,37.611654",
    "geom:latitude":37.611654,
    "geom:longitude":-75.839775,
    "iso:country":"US",
    "sg:address":"31540 Boston Rd",
    "sg:city":"Painter",
    "sg:classifiers":[
        {
            "category":"Professional",
            "subcategory":"",
            "type":"Services"
        }
    ],
    "sg:owner":"simplegeo",
    "sg:phone":"+1 757 442 4666",
    "sg:postcode":"23420",
    "sg:province":"VA",
    "sg:tags":[
        "establishment"
    ],
    "src:geom":"simplegeo",
    "wof:belongsto":[],
    "wof:breaches":[],
    "wof:concordances":{
        "sg:id":"SG_4jJJZW15gzNbatUAN40802_37.611654_-75.839775@1294252573"
    },
    "wof:country":"US",
    "wof:created":1461906120,
    "wof:geomhash":"ded0465946babd8e9472741602fafa66",
    "wof:hierarchy":[],
    "wof:id":739376183,
    "wof:lastmodified":1461906120,
    "wof:name":"Crawley & Crawley",
    "wof:parent_id":420546535,
    "wof:placetype":"venue",
    "wof:superseded_by":[],
    "wof:supersedes":[],
    "wof:tags":[
        "establishment"
    ]
},
  "bbox": [
    -75.839775,
    37.611654,
    -75.839775,
    37.611654
],
  "geometry": {"coordinates":[-75.839775,37.611654],"type":"Point"}
}