{
  "id": 739722999,
  "type": "Feature",
  "properties": {
    "edtf:cessation":"uuuu",
    "edtf:inception":"uuuu",
    "geom:area":0.0,
    "geom:bbox":"-77.472819,37.44293,-77.472819,37.44293",
    "geom:latitude":37.44293,
    "geom:longitude":-77.472819,
    "iso:country":"US",
    "sg:address":"5730 Hopkins Rd",
    "sg:city":"Richmond",
    "sg:classifiers":[
        {
            "category":"Shopping",
            "subcategory":"Department Store",
            "type":"Retail Goods"
        },
        {
            "category":"Shopping",
            "subcategory":"Discount & Variety Stores",
            "type":"Retail Goods"
        },
        {
            "category":"Shopping",
            "subcategory":"",
            "type":"Retail Goods"
        }
    ],
    "sg:owner":"simplegeo",
    "sg:phone":"+1 804 743 7780",
    "sg:postcode":"23234",
    "sg:province":"VA",
    "sg:tags":[
        "merchandise"
    ],
    "sg:website":"http://www.biglots.com/",
    "src:geom":"simplegeo",
    "wof:belongsto":[],
    "wof:breaches":[],
    "wof:concordances":{
        "sg:id":"SG_4bVJwhuXx8Lsq87eW7kEAQ_37.442930_-77.472819@1303262550"
    },
    "wof:country":"US",
    "wof:created":1461913054,
    "wof:geomhash":"fad6526a17172b36f3f100d5f239fef5",
    "wof:hierarchy":[],
    "wof:id":739722999,
    "wof:lastmodified":1461913054,
    "wof:name":"Big Lots",
    "wof:parent_id":-1,
    "wof:placetype":"venue",
    "wof:superseded_by":[],
    "wof:supersedes":[],
    "wof:tags":[
        "merchandise"
    ]
},
  "bbox": [
    -77.472819,
    37.44293,
    -77.472819,
    37.44293
],
  "geometry": {"coordinates":[-77.472819,37.44293],"type":"Point"}
}