{
  "id": 723004843,
  "type": "Feature",
  "properties": {
    "edtf:cessation":"uuuu",
    "edtf:inception":"uuuu",
    "geom:area":0.0,
    "geom:bbox":"-78.174972,39.166337,-78.174972,39.166337",
    "geom:latitude":39.166337,
    "geom:longitude":-78.174972,
    "iso:country":"US",
    "sg:address":"1800 Plaza Dr",
    "sg:city":"Winchester",
    "sg:classifiers":[
        {
            "category":"Health Services",
            "subcategory":"Doctor",
            "type":"Services"
        }
    ],
    "sg:owner":"simplegeo",
    "sg:phone":"+1 540 667 1010",
    "sg:postcode":"22601",
    "sg:province":"VA",
    "sg:tags":[
        "dentist"
    ],
    "src:geom":"simplegeo",
    "wof:belongsto":[],
    "wof:breaches":[],
    "wof:concordances":{
        "sg:id":"SG_1dtckzXd13679j1B6F3ZKT_39.166337_-78.174972@1294252573"
    },
    "wof:country":"US",
    "wof:created":1461893039,
    "wof:geomhash":"dc5e06f18242e5d415d4dcfba1a77dfc",
    "wof:hierarchy":[],
    "wof:id":723004843,
    "wof:lastmodified":1461893039,
    "wof:name":"Robert B Hall Jr DDS",
    "wof:parent_id":-1,
    "wof:placetype":"venue",
    "wof:superseded_by":[],
    "wof:supersedes":[],
    "wof:tags":[
        "dentist"
    ]
},
  "bbox": [
    -78.174972,
    39.166337,
    -78.174972,
    39.166337
],
  "geometry": {"coordinates":[-78.174972,39.166337],"type":"Point"}
}