{
  "id": 723370507,
  "type": "Feature",
  "properties": {
    "edtf:cessation":"uuuu",
    "edtf:inception":"uuuu",
    "geom:area":0.0,
    "geom:bbox":"-77.594792,37.707091,-77.594792,37.707091",
    "geom:latitude":37.707091,
    "geom:longitude":-77.594792,
    "iso:country":"US",
    "sg:address":"11120 Cauthorne Rd",
    "sg:city":"Glen Allen",
    "sg:classifiers":[
        {
            "category":"Museum",
            "subcategory":"Botanical Garden",
            "type":"Entertainment"
        }
    ],
    "sg:owner":"simplegeo",
    "sg:phone":"+1 804 798 8933",
    "sg:postcode":"23059",
    "sg:province":"VA",
    "src:geom":"simplegeo",
    "wof:belongsto":[],
    "wof:breaches":[],
    "wof:concordances":{
        "sg:id":"SG_19MOdbDarHk6Y7az5Kk9tr_37.707091_-77.594792@1294252573"
    },
    "wof:country":"US",
    "wof:created":1461900382,
    "wof:geomhash":"dca18d8e9e963ffb32645f0ba6ca009f",
    "wof:hierarchy":[],
    "wof:id":723370507,
    "wof:lastmodified":1461900382,
    "wof:name":"Wildlife International",
    "wof:parent_id":-1,
    "wof:placetype":"venue",
    "wof:superseded_by":[],
    "wof:supersedes":[],
    "wof:tags":[]
},
  "bbox": [
    -77.594792,
    37.707091,
    -77.594792,
    37.707091
],
  "geometry": {"coordinates":[-77.594792,37.707091],"type":"Point"}
}