{
  "id": 723313941,
  "type": "Feature",
  "properties": {
    "edtf:cessation":"uuuu",
    "edtf:inception":"uuuu",
    "geom:area":0.0,
    "geom:bbox":"-80.049209,37.273339,-80.049209,37.273339",
    "geom:latitude":37.273339,
    "geom:longitude":-80.049209,
    "iso:country":"US",
    "sg:address":"405 Apperson Dr",
    "sg:city":"Salem",
    "sg:classifiers":[
        {
            "category":"Food & Beverages",
            "subcategory":"Specialty",
            "type":"Retail Goods"
        }
    ],
    "sg:owner":"simplegeo",
    "sg:phone":"+1 540 387 3055",
    "sg:postcode":"24153",
    "sg:province":"VA",
    "sg:tags":[
        "health",
        "diet"
    ],
    "src:geom":"simplegeo",
    "wof:belongsto":[],
    "wof:breaches":[],
    "wof:concordances":{
        "sg:id":"SG_6r3gDYWBetDlFCDHSewFBM_37.273339_-80.049209@1294252573"
    },
    "wof:country":"US",
    "wof:created":1461899335,
    "wof:geomhash":"5ea1d4b2d2ce0441720053f912d73f2c",
    "wof:hierarchy":[],
    "wof:id":723313941,
    "wof:lastmodified":1461899335,
    "wof:name":"Lifeline Vitamin Outlet",
    "wof:parent_id":-1,
    "wof:placetype":"venue",
    "wof:superseded_by":[],
    "wof:supersedes":[],
    "wof:tags":[
        "health",
        "diet"
    ]
},
  "bbox": [
    -80.049209,
    37.273339,
    -80.049209,
    37.273339
],
  "geometry": {"coordinates":[-80.049209,37.273339],"type":"Point"}
}