{
  "id": 739485551,
  "type": "Feature",
  "properties": {
    "edtf:cessation":"uuuu",
    "edtf:inception":"uuuu",
    "geom:area":0.0,
    "geom:bbox":"-80.058205,37.285691,-80.058205,37.285691",
    "geom:latitude":37.285691,
    "geom:longitude":-80.058205,
    "iso:country":"US",
    "sg:address":"614 Chapman St",
    "sg:city":"Salem",
    "sg:classifiers":[
        {
            "category":"Professional",
            "subcategory":"Business Services",
            "type":"Services"
        }
    ],
    "sg:owner":"simplegeo",
    "sg:phone":"+1 540 387 9570",
    "sg:postcode":"24153",
    "sg:province":"VA",
    "sg:tags":[
        "water",
        "equipment",
        "treatment",
        "sales"
    ],
    "src:geom":"simplegeo",
    "wof:belongsto":[],
    "wof:breaches":[],
    "wof:concordances":{
        "sg:id":"SG_2kuGDjCH4QisJyRgE33vi5_37.285691_-80.058205@1294252573"
    },
    "wof:country":"US",
    "wof:created":1461908170,
    "wof:geomhash":"f309828ceee3a43ce6c8569d4089d26e",
    "wof:hierarchy":[],
    "wof:id":739485551,
    "wof:lastmodified":1461908170,
    "wof:name":"Ecowater Systems",
    "wof:parent_id":-1,
    "wof:placetype":"venue",
    "wof:superseded_by":[],
    "wof:supersedes":[],
    "wof:tags":[
        "water",
        "equipment",
        "treatment",
        "sales"
    ]
},
  "bbox": [
    -80.058205,
    37.285691,
    -80.058205,
    37.285691
],
  "geometry": {"coordinates":[-80.058205,37.285691],"type":"Point"}
}