{
  "id": 739685581,
  "type": "Feature",
  "properties": {
    "edtf:cessation":"uuuu",
    "edtf:inception":"uuuu",
    "geom:area":0.0,
    "geom:bbox":"-77.115599,38.832367,-77.115599,38.832367",
    "geom:latitude":38.832367,
    "geom:longitude":-77.115599,
    "iso:country":"US",
    "sg:address":"4900 Seminary Rd",
    "sg:city":"Alexandria",
    "sg:classifiers":[
        {
            "category":"Building & Trades",
            "subcategory":"Locksmith",
            "type":"Services"
        }
    ],
    "sg:owner":"simplegeo",
    "sg:phone":"+1 571 431 1522",
    "sg:postcode":"22311",
    "sg:province":"VA",
    "sg:tags":[
        "key"
    ],
    "src:geom":"simplegeo",
    "wof:belongsto":[
        85688747,
        102191575,
        85633793,
        101728581,
        102080641,
        85875825
    ],
    "wof:breaches":[],
    "wof:concordances":{
        "sg:id":"SG_0u4eKvHKGujDQn9a9dFOcw_38.832367_-77.115599@1303262545"
    },
    "wof:country":"US",
    "wof:created":1461912256,
    "wof:geomhash":"d41e2916005439456edb7620c885c763",
    "wof:hierarchy":[
        {
            "continent_id":102191575,
            "country_id":85633793,
            "county_id":102080641,
            "locality_id":101728581,
            "neighbourhood_id":85875825,
            "region_id":85688747,
            "venue_id":739685581
        }
    ],
    "wof:id":739685581,
    "wof:lastmodified":1461912256,
    "wof:name":"Seminary 24 Hour Emergency Locksmith",
    "wof:parent_id":85875825,
    "wof:placetype":"venue",
    "wof:superseded_by":[],
    "wof:supersedes":[],
    "wof:tags":[
        "key"
    ]
},
  "bbox": [
    -77.115599,
    38.832367,
    -77.115599,
    38.832367
],
  "geometry": {"coordinates":[-77.115599,38.832367],"type":"Point"}
}