{
  "id": 723325363,
  "type": "Feature",
  "properties": {
    "edtf:cessation":"uuuu",
    "edtf:inception":"uuuu",
    "geom:area":0.0,
    "geom:bbox":"-77.469059,37.66925,-77.469059,37.66925",
    "geom:latitude":37.66925,
    "geom:longitude":-77.469059,
    "iso:country":"US",
    "sg:address":"10612 Anable Ln",
    "sg:city":"Glen Allen",
    "sg:classifiers":[
        {
            "category":"Professional",
            "subcategory":"Management & Consulting",
            "type":"Services"
        }
    ],
    "sg:owner":"simplegeo",
    "sg:phone":"+1 804 264 2324",
    "sg:postcode":"23059",
    "sg:province":"VA",
    "sg:tags":[
        "consultant",
        "educational"
    ],
    "src:geom":"simplegeo",
    "wof:belongsto":[],
    "wof:breaches":[],
    "wof:concordances":{
        "sg:id":"SG_7ZjMdyD0siP437vcXXdhJj_37.669250_-77.469059@1294252573"
    },
    "wof:country":"US",
    "wof:created":1461899547,
    "wof:geomhash":"205a3b5eba39b4e3eb6baec3cc104be4",
    "wof:hierarchy":[],
    "wof:id":723325363,
    "wof:lastmodified":1461899547,
    "wof:name":"Geraldine Ellison",
    "wof:parent_id":-1,
    "wof:placetype":"venue",
    "wof:superseded_by":[],
    "wof:supersedes":[],
    "wof:tags":[
        "consultant",
        "educational"
    ]
},
  "bbox": [
    -77.469059,
    37.66925,
    -77.469059,
    37.66925
],
  "geometry": {"coordinates":[-77.469059,37.66925],"type":"Point"}
}