{
  "id": 722832583,
  "type": "Feature",
  "properties": {
    "edtf:cessation":"uuuu",
    "edtf:inception":"uuuu",
    "geom:area":0.0,
    "geom:bbox":"-77.595191,37.098888,-77.595191,37.098888",
    "geom:latitude":37.098888,
    "geom:longitude":-77.595191,
    "iso:country":"US",
    "sg:address":"18212 Bonneville Ln",
    "sg:city":"Dinwiddie",
    "sg:classifiers":[
        {
            "category":"Building & Trades",
            "subcategory":"Electrical",
            "type":"Services"
        }
    ],
    "sg:owner":"simplegeo",
    "sg:phone":"+1 804 469 3512",
    "sg:postcode":"23841",
    "sg:province":"VA",
    "sg:tags":[
        "electrical",
        "contractor"
    ],
    "src:geom":"simplegeo",
    "wof:belongsto":[],
    "wof:breaches":[],
    "wof:concordances":{
        "sg:id":"SG_0I2XinPHuYmSe9PmqSdp0m_37.098888_-77.595191@1294252573"
    },
    "wof:country":"US",
    "wof:created":1461889493,
    "wof:geomhash":"59827578d372e14a7e12a5d1467265e3",
    "wof:hierarchy":[],
    "wof:id":722832583,
    "wof:lastmodified":1461889493,
    "wof:name":"L Morgan Electrical Cont",
    "wof:parent_id":-1,
    "wof:placetype":"venue",
    "wof:superseded_by":[],
    "wof:supersedes":[],
    "wof:tags":[
        "electrical",
        "contractor"
    ]
},
  "bbox": [
    -77.595191,
    37.098888,
    -77.595191,
    37.098888
],
  "geometry": {"coordinates":[-77.595191,37.098888],"type":"Point"}
}