{
  "id": 723492275,
  "type": "Feature",
  "properties": {
    "edtf:cessation":"uuuu",
    "edtf:inception":"uuuu",
    "geom:area":0.0,
    "geom:bbox":"-76.191264,36.927082,-76.191264,36.927082",
    "geom:latitude":36.927082,
    "geom:longitude":-76.191264,
    "iso:country":"US",
    "sg:address":"9521 Shore Dr",
    "sg:city":"Norfolk",
    "sg:classifiers":[
        {
            "category":"Building & Trades",
            "subcategory":"Construction",
            "type":"Services"
        }
    ],
    "sg:owner":"simplegeo",
    "sg:phone":"+1 757 588 5021",
    "sg:postcode":"23518",
    "sg:province":"VA",
    "sg:tags":[
        "fire",
        "restoration",
        "damage"
    ],
    "src:geom":"simplegeo",
    "wof:belongsto":[],
    "wof:breaches":[],
    "wof:concordances":{
        "sg:id":"SG_6iOLxe01CO5fGVaLreqt4u_36.927082_-76.191264@1294252573"
    },
    "wof:country":"US",
    "wof:created":1461902790,
    "wof:geomhash":"f5b4c5c11754078cd25cd22be32e1073",
    "wof:hierarchy":[],
    "wof:id":723492275,
    "wof:lastmodified":1461902790,
    "wof:name":"Weathersby Drapery-Upholstery",
    "wof:parent_id":-1,
    "wof:placetype":"venue",
    "wof:superseded_by":[],
    "wof:supersedes":[],
    "wof:tags":[
        "fire",
        "restoration",
        "damage"
    ]
},
  "bbox": [
    -76.191264,
    36.927082,
    -76.191264,
    36.927082
],
  "geometry": {"coordinates":[-76.191264,36.927082],"type":"Point"}
}