{
  "id": 723251841,
  "type": "Feature",
  "properties": {
    "edtf:cessation":"uuuu",
    "edtf:inception":"uuuu",
    "geom:area":0.0,
    "geom:bbox":"-77.627109,37.609573,-77.627109,37.609573",
    "geom:latitude":37.609573,
    "geom:longitude":-77.627109,
    "iso:country":"US",
    "sg:address":"11605 Lothbury Ln",
    "sg:city":"Richmond",
    "sg:classifiers":[
        {
            "category":"Professional",
            "subcategory":"Computer Services",
            "type":"Services"
        }
    ],
    "sg:owner":"simplegeo",
    "sg:phone":"+1 804 565 9164",
    "sg:postcode":"23238",
    "sg:province":"VA",
    "sg:tags":[
        "web",
        "consulting",
        "programming"
    ],
    "src:geom":"simplegeo",
    "wof:belongsto":[],
    "wof:breaches":[],
    "wof:concordances":{
        "sg:id":"SG_49bAEP76P8eKCo2YwwIIvY_37.609573_-77.627109@1294252573"
    },
    "wof:country":"US",
    "wof:created":1461898156,
    "wof:geomhash":"f55ae1ba406dd9ddc4aafce7c7c7fafb",
    "wof:hierarchy":[],
    "wof:id":723251841,
    "wof:lastmodified":1461898156,
    "wof:name":"Home Touch Computers",
    "wof:parent_id":-1,
    "wof:placetype":"venue",
    "wof:superseded_by":[],
    "wof:supersedes":[],
    "wof:tags":[
        "web",
        "consulting",
        "programming"
    ]
},
  "bbox": [
    -77.627109,
    37.609573,
    -77.627109,
    37.609573
],
  "geometry": {"coordinates":[-77.627109,37.609573],"type":"Point"}
}