{
  "id": 739730027,
  "type": "Feature",
  "properties": {
    "edtf:cessation":"uuuu",
    "edtf:inception":"uuuu",
    "geom:area":0.0,
    "geom:bbox":"-75.991756,37.82452,-75.991756,37.82452",
    "geom:latitude":37.82452,
    "geom:longitude":-75.991756,
    "iso:country":"US",
    "sg:address":"16243 Main St",
    "sg:city":"Tangier",
    "sg:classifiers":[
        {
            "category":"Restaurant",
            "subcategory":"",
            "type":"Food & Drink"
        }
    ],
    "sg:owner":"simplegeo",
    "sg:phone":"+1 757 891 2331",
    "sg:postcode":"23440",
    "sg:province":"VA",
    "src:geom":"simplegeo",
    "wof:belongsto":[],
    "wof:breaches":[],
    "wof:concordances":{
        "sg:id":"SG_6Czvk5xfRm4ShZCWVsOmrL_37.824520_-75.991756@1303262551"
    },
    "wof:country":"US",
    "wof:created":1461913188,
    "wof:geomhash":"b1f105f72efd0c63da4ccc97704b77d9",
    "wof:hierarchy":[],
    "wof:id":739730027,
    "wof:lastmodified":1461913188,
    "wof:name":"Hilda Crockett's Chesapeake House",
    "wof:parent_id":-1,
    "wof:placetype":"venue",
    "wof:superseded_by":[],
    "wof:supersedes":[],
    "wof:tags":[]
},
  "bbox": [
    -75.991756,
    37.82452,
    -75.991756,
    37.82452
],
  "geometry": {"coordinates":[-75.991756,37.82452],"type":"Point"}
}