{
  "id": 722619257,
  "type": "Feature",
  "properties": {
    "edtf:cessation":"uuuu",
    "edtf:inception":"uuuu",
    "geom:area":0.0,
    "geom:bbox":"-77.441009,37.696532,-77.441009,37.696532",
    "geom:latitude":37.696532,
    "geom:longitude":-77.441009,
    "iso:country":"US",
    "sg:address":"10962 Richardson Rd",
    "sg:city":"Ashland",
    "sg:classifiers":[
        {
            "category":"Professional",
            "subcategory":"Management & Consulting",
            "type":"Services"
        }
    ],
    "sg:owner":"simplegeo",
    "sg:phone":"+1 804 550 1824",
    "sg:postcode":"23005",
    "sg:province":"VA",
    "sg:tags":[
        "consultant",
        "business"
    ],
    "src:geom":"simplegeo",
    "wof:belongsto":[],
    "wof:breaches":[],
    "wof:concordances":{
        "sg:id":"SG_7b2SszojixhaRjYIjmVeyh_37.696532_-77.441009@1294252573"
    },
    "wof:country":"US",
    "wof:created":1461885367,
    "wof:geomhash":"9fc8f9bee46674baa0d0c9a2bae31105",
    "wof:hierarchy":[],
    "wof:id":722619257,
    "wof:lastmodified":1461885367,
    "wof:name":"Executive Coaching & Mgmt",
    "wof:parent_id":-1,
    "wof:placetype":"venue",
    "wof:superseded_by":[],
    "wof:supersedes":[],
    "wof:tags":[
        "consultant",
        "business"
    ]
},
  "bbox": [
    -77.441009,
    37.696532,
    -77.441009,
    37.696532
],
  "geometry": {"coordinates":[-77.44100899999999,37.696532],"type":"Point"}
}