{
  "id": 722656273,
  "type": "Feature",
  "properties": {
    "edtf:cessation":"uuuu",
    "edtf:inception":"uuuu",
    "geom:area":0.0,
    "geom:bbox":"-80.036359,37.277013,-80.036359,37.277013",
    "geom:latitude":37.277013,
    "geom:longitude":-80.036359,
    "iso:country":"US",
    "sg:address":"1035 Electric Rd",
    "sg:city":"Salem",
    "sg:classifiers":[
        {
            "category":"Retail",
            "subcategory":"Veterinary Services",
            "type":"Services"
        }
    ],
    "sg:owner":"simplegeo",
    "sg:phone":"+1 540 389 0219",
    "sg:postcode":"24153",
    "sg:province":"VA",
    "src:geom":"simplegeo",
    "wof:belongsto":[],
    "wof:breaches":[],
    "wof:concordances":{
        "sg:id":"SG_4716z63KRy7askbsk3iM7d_37.277013_-80.036359@1294252573"
    },
    "wof:country":"US",
    "wof:created":1461886137,
    "wof:geomhash":"1384e64d92b82577e612998545272ab6",
    "wof:hierarchy":[],
    "wof:id":722656273,
    "wof:lastmodified":1461886137,
    "wof:name":"Noel Kimberly",
    "wof:parent_id":-1,
    "wof:placetype":"venue",
    "wof:superseded_by":[],
    "wof:supersedes":[],
    "wof:tags":[]
},
  "bbox": [
    -80.036359,
    37.277013,
    -80.036359,
    37.277013
],
  "geometry": {"coordinates":[-80.036359,37.277013],"type":"Point"}
}