{
  "id": 739624071,
  "type": "Feature",
  "properties": {
    "edtf:cessation":"uuuu",
    "edtf:inception":"uuuu",
    "geom:area":0.0,
    "geom:bbox":"-77.357636,38.857865,-77.357636,38.857865",
    "geom:latitude":38.857865,
    "geom:longitude":-77.357636,
    "iso:country":"US",
    "sg:address":"11944 Grand Commons Ave",
    "sg:city":"Fairfax",
    "sg:classifiers":[
        {
            "category":"Bakery",
            "subcategory":"",
            "type":"Food & Drink"
        }
    ],
    "sg:owner":"simplegeo",
    "sg:phone":"+1 571 522 6315",
    "sg:postcode":"22030",
    "sg:province":"VA",
    "src:geom":"simplegeo",
    "wof:belongsto":[
        85688747,
        102191575,
        85633793,
        101729805,
        102084863,
        85894019
    ],
    "wof:breaches":[],
    "wof:concordances":{
        "sg:id":"SG_50g2wCOYLwLpUp7XCffT9s_38.857865_-77.357636@1303262537"
    },
    "wof:country":"US",
    "wof:created":1461910915,
    "wof:geomhash":"c3585cee457a65c8e49565009643cbd6",
    "wof:hierarchy":[
        {
            "continent_id":102191575,
            "country_id":85633793,
            "county_id":102084863,
            "locality_id":101729805,
            "neighbourhood_id":85894019,
            "region_id":85688747,
            "venue_id":739624071
        }
    ],
    "wof:id":739624071,
    "wof:lastmodified":1461910915,
    "wof:name":"Cupcakes Actually",
    "wof:parent_id":85894019,
    "wof:placetype":"venue",
    "wof:superseded_by":[],
    "wof:supersedes":[],
    "wof:tags":[]
},
  "bbox": [
    -77.357636,
    38.857865,
    -77.357636,
    38.857865
],
  "geometry": {"coordinates":[-77.357636,38.857865],"type":"Point"}
}