{
  "id": 739686391,
  "type": "Feature",
  "properties": {
    "edtf:cessation":"uuuu",
    "edtf:inception":"uuuu",
    "geom:area":0.0,
    "geom:bbox":"-77.119644,38.839722,-77.119644,38.839722",
    "geom:latitude":38.839722,
    "geom:longitude":-77.119644,
    "iso:country":"US",
    "sg:address":"5264 Dawes Ave",
    "sg:city":"Alexandria",
    "sg:classifiers":[
        {
            "category":"Health Services",
            "subcategory":"Dentist",
            "type":"Services"
        }
    ],
    "sg:owner":"simplegeo",
    "sg:phone":"+1 703 931 2222",
    "sg:postcode":"22311",
    "sg:province":"VA",
    "src:geom":"simplegeo",
    "wof:belongsto":[],
    "wof:breaches":[],
    "wof:concordances":{
        "sg:id":"SG_420eSAxZGxwbsgUHtzA78X_38.839722_-77.119644@1303262546"
    },
    "wof:country":"US",
    "wof:created":1461912272,
    "wof:geomhash":"542b7b199d7caf600f3f5906096508af",
    "wof:hierarchy":[],
    "wof:id":739686391,
    "wof:lastmodified":1461912272,
    "wof:name":"Alexander Burch & Weiner Dental Associates Ltd",
    "wof:parent_id":-1,
    "wof:placetype":"venue",
    "wof:superseded_by":[],
    "wof:supersedes":[],
    "wof:tags":[]
},
  "bbox": [
    -77.119644,
    38.839722,
    -77.119644,
    38.839722
],
  "geometry": {"coordinates":[-77.11964399999999,38.839722],"type":"Point"}
}