{
  "id": 723423457,
  "type": "Feature",
  "properties": {
    "edtf:cessation":"uuuu",
    "edtf:inception":"uuuu",
    "geom:area":0.0,
    "geom:bbox":"-77.517221,37.594838,-77.517221,37.594838",
    "geom:latitude":37.594838,
    "geom:longitude":-77.517221,
    "iso:country":"US",
    "sg:address":"6406 Horsepen Rd",
    "sg:city":"Richmond",
    "sg:classifiers":[
        {
            "category":"Restaurant",
            "subcategory":"",
            "type":"Food & Drink"
        }
    ],
    "sg:owner":"simplegeo",
    "sg:phone":"+1 804 282 7357",
    "sg:postcode":"23226",
    "sg:province":"VA",
    "sg:tags":[
        "eating"
    ],
    "sg:website":"www.mexico-restaurant.com",
    "src:geom":"simplegeo",
    "wof:belongsto":[],
    "wof:breaches":[],
    "wof:concordances":{
        "sg:id":"SG_5DWhp7WpkFj3RFympthbbU_37.594838_-77.517221@1294252573"
    },
    "wof:country":"US",
    "wof:created":1461901432,
    "wof:geomhash":"746f2e124fd84fc22b28e388224af7c7",
    "wof:hierarchy":[],
    "wof:id":723423457,
    "wof:lastmodified":1461901432,
    "wof:name":"Mexico Restaurant",
    "wof:parent_id":-1,
    "wof:placetype":"venue",
    "wof:superseded_by":[],
    "wof:supersedes":[],
    "wof:tags":[
        "eating"
    ]
},
  "bbox": [
    -77.517221,
    37.594838,
    -77.517221,
    37.594838
],
  "geometry": {"coordinates":[-77.51722100000001,37.594838],"type":"Point"}
}