{
  "id": 739521363,
  "type": "Feature",
  "properties": {
    "edtf:cessation":"uuuu",
    "edtf:inception":"uuuu",
    "geom:area":0.0,
    "geom:bbox":"-77.284987,37.30569,-77.284987,37.30569",
    "geom:latitude":37.30569,
    "geom:longitude":-77.284987,
    "iso:country":"US",
    "sg:address":"204 E Cawson St",
    "sg:city":"Hopewell",
    "sg:classifiers":[
        {
            "category":"Retail",
            "subcategory":"Laundry & Dry Cleaning",
            "type":"Services"
        }
    ],
    "sg:owner":"simplegeo",
    "sg:phone":"+1 804 458 1005",
    "sg:postcode":"23860",
    "sg:province":"VA",
    "sg:tags":[
        "cleaners"
    ],
    "src:geom":"simplegeo",
    "wof:belongsto":[],
    "wof:breaches":[],
    "wof:concordances":{
        "sg:id":"SG_2jXnEMpnY8Q4oRvyYnRC2b_37.305690_-77.284987@1294252573"
    },
    "wof:country":"US",
    "wof:created":1461908820,
    "wof:geomhash":"2c262a2c891d3164efe5d8466b8b4537",
    "wof:hierarchy":[],
    "wof:id":739521363,
    "wof:lastmodified":1461908820,
    "wof:name":"Appomattox Dry Cleaners",
    "wof:parent_id":-1,
    "wof:placetype":"venue",
    "wof:superseded_by":[],
    "wof:supersedes":[],
    "wof:tags":[
        "cleaners"
    ]
},
  "bbox": [
    -77.284987,
    37.30569,
    -77.284987,
    37.30569
],
  "geometry": {"coordinates":[-77.284987,37.30569],"type":"Point"}
}