{
  "id": 723272165,
  "type": "Feature",
  "properties": {
    "edtf:cessation":"uuuu",
    "edtf:inception":"uuuu",
    "geom:area":0.0,
    "geom:bbox":"-77.504037,38.79041,-77.504037,38.79041",
    "geom:latitude":38.79041,
    "geom:longitude":-77.504037,
    "iso:country":"US",
    "sg:address":"7643 Quail Run Ln",
    "sg:city":"Manassas",
    "sg:classifiers":[
        {
            "category":"Building & Trades",
            "subcategory":"Landscaping Services",
            "type":"Services"
        }
    ],
    "sg:owner":"simplegeo",
    "sg:phone":"+1 703 330 0450",
    "sg:postcode":"20109",
    "sg:province":"VA",
    "src:geom":"simplegeo",
    "wof:belongsto":[],
    "wof:breaches":[],
    "wof:concordances":{
        "sg:id":"SG_4V8qS9mMtN521iQEay2InI_38.790410_-77.504037@1294252573"
    },
    "wof:country":"US",
    "wof:created":1461898543,
    "wof:geomhash":"0e4800ad5c12fdcbe20cb8b287b46bb8",
    "wof:hierarchy":[],
    "wof:id":723272165,
    "wof:lastmodified":1461898543,
    "wof:name":"Total Lawn Care",
    "wof:parent_id":-1,
    "wof:placetype":"venue",
    "wof:superseded_by":[],
    "wof:supersedes":[],
    "wof:tags":[]
},
  "bbox": [
    -77.504037,
    38.79041,
    -77.504037,
    38.79041
],
  "geometry": {"coordinates":[-77.504037,38.79041],"type":"Point"}
}