{
  "id": 723028679,
  "type": "Feature",
  "properties": {
    "edtf:cessation":"uuuu",
    "edtf:inception":"uuuu",
    "geom:area":0.0,
    "geom:bbox":"-77.353535,39.040499,-77.353535,39.040499",
    "geom:latitude":39.040499,
    "geom:longitude":-77.353535,
    "iso:country":"US",
    "sg:address":"20771 Deepwater Ter",
    "sg:city":"Sterling",
    "sg:classifiers":[
        {
            "category":"Professional",
            "subcategory":"Management & Consulting",
            "type":"Services"
        }
    ],
    "sg:owner":"simplegeo",
    "sg:phone":"+1 703 444 0534",
    "sg:postcode":"20165",
    "sg:province":"VA",
    "src:geom":"simplegeo",
    "wof:belongsto":[],
    "wof:breaches":[],
    "wof:concordances":{
        "sg:id":"SG_2rJHgnMQwXL9Z2okJGpt7R_39.040499_-77.353535@1294252573"
    },
    "wof:country":"US",
    "wof:created":1461893574,
    "wof:geomhash":"45179a0be1589bd71228d54088cc8d2b",
    "wof:hierarchy":[],
    "wof:id":723028679,
    "wof:lastmodified":1461893574,
    "wof:name":"Summit Systems Inc",
    "wof:parent_id":-1,
    "wof:placetype":"venue",
    "wof:superseded_by":[],
    "wof:supersedes":[],
    "wof:tags":[]
},
  "bbox": [
    -77.353535,
    39.040499,
    -77.353535,
    39.040499
],
  "geometry": {"coordinates":[-77.35353499999999,39.040499],"type":"Point"}
}