{
  "id": 723387317,
  "type": "Feature",
  "properties": {
    "edtf:cessation":"uuuu",
    "edtf:inception":"uuuu",
    "geom:area":0.0,
    "geom:bbox":"-77.423697,38.845939,-77.423697,38.845939",
    "geom:latitude":38.845939,
    "geom:longitude":-77.423697,
    "iso:country":"US",
    "sg:address":"5403 Middlebourne Ln",
    "sg:city":"Centreville",
    "sg:classifiers":[
        {
            "category":"Professional",
            "subcategory":"Management & Consulting",
            "type":"Services"
        }
    ],
    "sg:owner":"simplegeo",
    "sg:phone":"+1 703 393 6400",
    "sg:postcode":"20120",
    "sg:province":"VA",
    "sg:tags":[
        "business"
    ],
    "src:geom":"simplegeo",
    "wof:belongsto":[],
    "wof:breaches":[],
    "wof:concordances":{
        "sg:id":"SG_2BNTpg3guniAPIf8e51eJq_38.845939_-77.423697@1294252573"
    },
    "wof:country":"US",
    "wof:created":1461900720,
    "wof:geomhash":"a701af1f11c9789e955a2eace697cc13",
    "wof:hierarchy":[],
    "wof:id":723387317,
    "wof:lastmodified":1461900720,
    "wof:name":"Snap Inc",
    "wof:parent_id":-1,
    "wof:placetype":"venue",
    "wof:superseded_by":[],
    "wof:supersedes":[],
    "wof:tags":[
        "business"
    ]
},
  "bbox": [
    -77.423697,
    38.845939,
    -77.423697,
    38.845939
],
  "geometry": {"coordinates":[-77.423697,38.845939],"type":"Point"}
}