{
  "id": 739425707,
  "type": "Feature",
  "properties": {
    "edtf:cessation":"uuuu",
    "edtf:inception":"uuuu",
    "geom:area":0.0,
    "geom:bbox":"-77.483075,38.878758,-77.483075,38.878758",
    "geom:latitude":38.878758,
    "geom:longitude":-77.483075,
    "iso:country":"US",
    "sg:address":"5133 Pleasant Forest Dr",
    "sg:city":"Centreville",
    "sg:classifiers":[
        {
            "category":"Professional",
            "subcategory":"Computer Services",
            "type":"Services"
        }
    ],
    "sg:owner":"simplegeo",
    "sg:phone":"+1 703 222 0492",
    "sg:postcode":"20120",
    "sg:province":"VA",
    "sg:tags":[
        "consulting",
        "software"
    ],
    "src:geom":"simplegeo",
    "wof:belongsto":[],
    "wof:breaches":[],
    "wof:concordances":{
        "sg:id":"SG_2tXM6WYolejFw1EolGJ2Uz_38.878758_-77.483075@1294252573"
    },
    "wof:country":"US",
    "wof:created":1461907086,
    "wof:geomhash":"286d4845af94d5c29a36e186a1870c1f",
    "wof:hierarchy":[],
    "wof:id":739425707,
    "wof:lastmodified":1461907086,
    "wof:name":"Sekon Enterprise Inc",
    "wof:parent_id":-1,
    "wof:placetype":"venue",
    "wof:superseded_by":[],
    "wof:supersedes":[],
    "wof:tags":[
        "consulting",
        "software"
    ]
},
  "bbox": [
    -77.483075,
    38.878758,
    -77.483075,
    38.878758
],
  "geometry": {"coordinates":[-77.483075,38.878758],"type":"Point"}
}