{
  "id": 739401103,
  "type": "Feature",
  "properties": {
    "edtf:cessation":"uuuu",
    "edtf:inception":"uuuu",
    "geom:area":0.0,
    "geom:bbox":"-77.044074,38.812675,-77.044074,38.812675",
    "geom:latitude":38.812675,
    "geom:longitude":-77.044074,
    "iso:country":"US",
    "sg:address":"717 N Saint Asaph St",
    "sg:city":"Alexandria",
    "sg:classifiers":[
        {
            "category":"Shopping",
            "subcategory":"Musical Instruments",
            "type":"Retail Goods"
        }
    ],
    "sg:owner":"simplegeo",
    "sg:phone":"+1 703 548 2321",
    "sg:postcode":"22314",
    "sg:province":"VA",
    "src:geom":"simplegeo",
    "wof:belongsto":[],
    "wof:breaches":[],
    "wof:concordances":{
        "sg:id":"SG_6amM7SzFrJmM79SbjeMwNg_38.812675_-77.044074@1294252573"
    },
    "wof:country":"US",
    "wof:created":1461906600,
    "wof:geomhash":"d3cb98cc452d60e5a36b7d73d2e68cae",
    "wof:hierarchy":[],
    "wof:id":739401103,
    "wof:lastmodified":1461906600,
    "wof:name":"Acoustic Axis Instruments",
    "wof:parent_id":-1,
    "wof:placetype":"venue",
    "wof:superseded_by":[],
    "wof:supersedes":[],
    "wof:tags":[]
},
  "bbox": [
    -77.044074,
    38.812675,
    -77.044074,
    38.812675
],
  "geometry": {"coordinates":[-77.04407399999999,38.812675],"type":"Point"}
}