{
  "id": 739710507,
  "type": "Feature",
  "properties": {
    "edtf:cessation":"uuuu",
    "edtf:inception":"uuuu",
    "geom:area":0.0,
    "geom:bbox":"-77.609703,37.523209,-77.609703,37.523209",
    "geom:latitude":37.523209,
    "geom:longitude":-77.609703,
    "iso:country":"US",
    "sg:address":"2500 Promenade Pkwy",
    "sg:city":"Midlothian",
    "sg:classifiers":[
        {
            "category":"Banks & Credit Unions",
            "subcategory":"Bank",
            "type":"Services"
        }
    ],
    "sg:owner":"simplegeo",
    "sg:phone":"+1 804 594 3578",
    "sg:postcode":"23113",
    "sg:province":"VA",
    "sg:tags":[
        "saving",
        "commercial"
    ],
    "src:geom":"simplegeo",
    "wof:belongsto":[],
    "wof:breaches":[],
    "wof:concordances":{
        "sg:id":"SG_495UDasXxh7isD8Dny3bdn_37.523209_-77.609703@1303262549"
    },
    "wof:country":"US",
    "wof:created":1461912793,
    "wof:geomhash":"940422fdf92811bfdffd15698aaf722d",
    "wof:hierarchy":[],
    "wof:id":739710507,
    "wof:lastmodified":1461912793,
    "wof:name":"Central Virginia Bank",
    "wof:parent_id":-1,
    "wof:placetype":"venue",
    "wof:superseded_by":[],
    "wof:supersedes":[],
    "wof:tags":[
        "saving",
        "commercial"
    ]
},
  "bbox": [
    -77.609703,
    37.523209,
    -77.609703,
    37.523209
],
  "geometry": {"coordinates":[-77.609703,37.523209],"type":"Point"}
}