{
  "id": 739394581,
  "type": "Feature",
  "properties": {
    "edtf:cessation":"uuuu",
    "edtf:inception":"uuuu",
    "geom:area":0.0,
    "geom:bbox":"-77.273067,38.769991,-77.273067,38.769991",
    "geom:latitude":38.769991,
    "geom:longitude":-77.273067,
    "iso:country":"US",
    "sg:address":"9501 Tinker Ct",
    "sg:city":"Burke",
    "sg:classifiers":[
        {
            "category":"Professional",
            "subcategory":"Management & Consulting",
            "type":"Services"
        }
    ],
    "sg:owner":"simplegeo",
    "sg:phone":"+1 703 440 9665",
    "sg:postcode":"22015",
    "sg:province":"VA",
    "sg:tags":[
        "consultant"
    ],
    "src:geom":"simplegeo",
    "wof:belongsto":[],
    "wof:breaches":[],
    "wof:concordances":{
        "sg:id":"SG_1lq377DH38XS3bYGuVNLjw_38.769991_-77.273067@1294252573"
    },
    "wof:country":"US",
    "wof:created":1461906477,
    "wof:geomhash":"f34cf69b68c0abed0a846cc14bfc0ba3",
    "wof:hierarchy":[],
    "wof:id":739394581,
    "wof:lastmodified":1461906477,
    "wof:name":"Expert Systems Programs & Cnsl",
    "wof:parent_id":-1,
    "wof:placetype":"venue",
    "wof:superseded_by":[],
    "wof:supersedes":[],
    "wof:tags":[
        "consultant"
    ]
},
  "bbox": [
    -77.273067,
    38.769991,
    -77.273067,
    38.769991
],
  "geometry": {"coordinates":[-77.273067,38.769991],"type":"Point"}
}