{
  "id": 723114997,
  "type": "Feature",
  "properties": {
    "edtf:cessation":"uuuu",
    "edtf:inception":"uuuu",
    "geom:area":0.0,
    "geom:bbox":"-77.335924,37.66555,-77.335924,37.66555",
    "geom:latitude":37.66555,
    "geom:longitude":-77.335924,
    "iso:country":"US",
    "sg:address":"9516 Hartford Oaks Dr",
    "sg:city":"Mechanicsville",
    "sg:classifiers":[
        {
            "category":"Communications",
            "subcategory":"Film & Video Production",
            "type":"Services"
        }
    ],
    "sg:owner":"simplegeo",
    "sg:phone":"+1 804 559 5868",
    "sg:postcode":"23116",
    "sg:province":"VA",
    "sg:tags":[
        "motion",
        "picture",
        "distribution"
    ],
    "src:geom":"simplegeo",
    "wof:belongsto":[],
    "wof:breaches":[],
    "wof:concordances":{
        "sg:id":"SG_1QuiWAUAbYIPAeQdv99vqb_37.665550_-77.335924@1294252573"
    },
    "wof:country":"US",
    "wof:created":1461895418,
    "wof:geomhash":"2e862f6764e842429badb4df043a1a76",
    "wof:hierarchy":[],
    "wof:id":723114997,
    "wof:lastmodified":1461895418,
    "wof:name":"Paramount Pictures",
    "wof:parent_id":-1,
    "wof:placetype":"venue",
    "wof:superseded_by":[],
    "wof:supersedes":[],
    "wof:tags":[
        "motion",
        "picture",
        "distribution"
    ]
},
  "bbox": [
    -77.335924,
    37.66555,
    -77.335924,
    37.66555
],
  "geometry": {"coordinates":[-77.33592400000001,37.66555],"type":"Point"}
}