{
  "id": 723004611,
  "type": "Feature",
  "properties": {
    "edtf:cessation":"uuuu",
    "edtf:inception":"uuuu",
    "geom:area":0.0,
    "geom:bbox":"-77.598748,39.090088,-77.598748,39.090088",
    "geom:latitude":39.090088,
    "geom:longitude":-77.598748,
    "iso:country":"US",
    "sg:address":"639 Meade Dr SW",
    "sg:city":"Leesburg",
    "sg:classifiers":[
        {
            "category":"Wholesale",
            "subcategory":"Computers",
            "type":"Manufacturing & Wholesale Goods"
        }
    ],
    "sg:owner":"simplegeo",
    "sg:phone":"+1 703 771 6060",
    "sg:postcode":"20175",
    "sg:province":"VA",
    "src:geom":"simplegeo",
    "wof:belongsto":[],
    "wof:breaches":[],
    "wof:concordances":{
        "sg:id":"SG_0wFtZUbzmjFyOc6yEWSL0n_39.090088_-77.598748@1294252573"
    },
    "wof:country":"US",
    "wof:created":1461893032,
    "wof:geomhash":"f691ca42b0c9656f6b5c4a7c390252bc",
    "wof:hierarchy":[],
    "wof:id":723004611,
    "wof:lastmodified":1461893032,
    "wof:name":"HP",
    "wof:parent_id":-1,
    "wof:placetype":"venue",
    "wof:superseded_by":[],
    "wof:supersedes":[],
    "wof:tags":[]
},
  "bbox": [
    -77.598748,
    39.090088,
    -77.598748,
    39.090088
],
  "geometry": {"coordinates":[-77.598748,39.090088],"type":"Point"}
}