{
  "id": 723310165,
  "type": "Feature",
  "properties": {
    "edtf:cessation":"uuuu",
    "edtf:inception":"uuuu",
    "geom:area":0.0,
    "geom:bbox":"-78.91536,36.602559,-78.91536,36.602559",
    "geom:latitude":36.602559,
    "geom:longitude":-78.91536,
    "iso:country":"US",
    "sg:address":"1208 Old Roxboro Rd",
    "sg:city":"Alton",
    "sg:classifiers":[
        {
            "category":"Shopping",
            "subcategory":"Hobbies, Toys, & Games",
            "type":"Retail Goods"
        }
    ],
    "sg:owner":"simplegeo",
    "sg:phone":"+1 434 575 5685",
    "sg:postcode":"24520",
    "sg:province":"VA",
    "src:geom":"simplegeo",
    "wof:belongsto":[],
    "wof:breaches":[],
    "wof:concordances":{
        "sg:id":"SG_6amtvERXhsc6MmZrggm5QY_36.602559_-78.915360@1294252573"
    },
    "wof:country":"US",
    "wof:created":1461899265,
    "wof:geomhash":"14d42373885ae4de9a58741be68f7ebf",
    "wof:hierarchy":[],
    "wof:id":723310165,
    "wof:lastmodified":1461899265,
    "wof:name":"Anns Crafts",
    "wof:parent_id":-1,
    "wof:placetype":"venue",
    "wof:superseded_by":[],
    "wof:supersedes":[],
    "wof:tags":[]
},
  "bbox": [
    -78.91536,
    36.602559,
    -78.91536,
    36.602559
],
  "geometry": {"coordinates":[-78.91536000000001,36.602559],"type":"Point"}
}