{
  "id": 722972855,
  "type": "Feature",
  "properties": {
    "edtf:cessation":"uuuu",
    "edtf:inception":"uuuu",
    "geom:area":0.0,
    "geom:bbox":"-79.523478,37.334373,-79.523478,37.334373",
    "geom:latitude":37.334373,
    "geom:longitude":-79.523478,
    "iso:country":"US",
    "sg:address":"107 S Bridge St",
    "sg:city":"Bedford",
    "sg:classifiers":[
        {
            "category":"Insurance",
            "subcategory":"Insurance Agent",
            "type":"Services"
        }
    ],
    "sg:owner":"simplegeo",
    "sg:phone":"+1 540 586 3025",
    "sg:postcode":"24523",
    "sg:province":"VA",
    "src:geom":"simplegeo",
    "wof:belongsto":[],
    "wof:breaches":[],
    "wof:concordances":{
        "sg:id":"SG_1NlYiSpNjqo9JOugabOozY_37.334373_-79.523478@1294252573"
    },
    "wof:country":"US",
    "wof:created":1461892308,
    "wof:geomhash":"eded7a36169bda87ddf1c0d17afdee29",
    "wof:hierarchy":[],
    "wof:id":722972855,
    "wof:lastmodified":1461892308,
    "wof:name":"Nationwide Insurance",
    "wof:parent_id":-1,
    "wof:placetype":"venue",
    "wof:superseded_by":[],
    "wof:supersedes":[],
    "wof:tags":[]
},
  "bbox": [
    -79.523478,
    37.334373,
    -79.523478,
    37.334373
],
  "geometry": {"coordinates":[-79.523478,37.334373],"type":"Point"}
}