{
  "id": 722876059,
  "type": "Feature",
  "properties": {
    "edtf:cessation":"uuuu",
    "edtf:inception":"uuuu",
    "geom:area":0.0,
    "geom:bbox":"-77.496219,36.86706,-77.496219,36.86706",
    "geom:latitude":36.86706,
    "geom:longitude":-77.496219,
    "iso:country":"US",
    "sg:address":"18515 Little Mill Rd",
    "sg:city":"Jarratt",
    "sg:classifiers":[
        {
            "category":"Professional",
            "subcategory":"Art Services",
            "type":"Services"
        }
    ],
    "sg:owner":"simplegeo",
    "sg:phone":"+1 434 246 4058",
    "sg:postcode":"23867",
    "sg:province":"VA",
    "sg:tags":[
        "photography",
        "commercial"
    ],
    "src:geom":"simplegeo",
    "wof:belongsto":[],
    "wof:breaches":[],
    "wof:concordances":{
        "sg:id":"SG_7OgxPYM1yvsGjTmr5Ufy6b_36.867060_-77.496219@1294252573"
    },
    "wof:country":"US",
    "wof:created":1461890312,
    "wof:geomhash":"97c3ecdca195d3dd994fb93df30e98f6",
    "wof:hierarchy":[],
    "wof:id":722876059,
    "wof:lastmodified":1461890312,
    "wof:name":"Photography Clements Mays",
    "wof:parent_id":-1,
    "wof:placetype":"venue",
    "wof:superseded_by":[],
    "wof:supersedes":[],
    "wof:tags":[
        "photography",
        "commercial"
    ]
},
  "bbox": [
    -77.496219,
    36.86706,
    -77.496219,
    36.86706
],
  "geometry": {"coordinates":[-77.496219,36.86706],"type":"Point"}
}