{
  "id": 722844451,
  "type": "Feature",
  "properties": {
    "edtf:cessation":"uuuu",
    "edtf:inception":"uuuu",
    "geom:area":0.0,
    "geom:bbox":"-77.546381,37.508587,-77.546381,37.508587",
    "geom:latitude":37.508587,
    "geom:longitude":-77.546381,
    "iso:country":"US",
    "sg:address":"801 Stiles Ct",
    "sg:city":"Richmond",
    "sg:classifiers":[
        {
            "category":"Shopping",
            "subcategory":"Gifts & Souvenirs",
            "type":"Retail Goods"
        }
    ],
    "sg:owner":"simplegeo",
    "sg:phone":"+1 804 320 0263",
    "sg:postcode":"23235",
    "sg:province":"VA",
    "src:geom":"simplegeo",
    "wof:belongsto":[],
    "wof:breaches":[],
    "wof:concordances":{
        "sg:id":"SG_1q36AtlGU5yObHd4ISN9WH_37.508587_-77.546381@1294252573"
    },
    "wof:country":"US",
    "wof:created":1461889709,
    "wof:geomhash":"76245804425539cc6eec7100766e92eb",
    "wof:hierarchy":[],
    "wof:id":722844451,
    "wof:lastmodified":1461889709,
    "wof:name":"Evenson Associates",
    "wof:parent_id":-1,
    "wof:placetype":"venue",
    "wof:superseded_by":[],
    "wof:supersedes":[],
    "wof:tags":[]
},
  "bbox": [
    -77.546381,
    37.508587,
    -77.546381,
    37.508587
],
  "geometry": {"coordinates":[-77.546381,37.508587],"type":"Point"}
}