{
  "id": 739525353,
  "type": "Feature",
  "properties": {
    "edtf:cessation":"uuuu",
    "edtf:inception":"uuuu",
    "geom:area":0.0,
    "geom:bbox":"-77.26029,38.971887,-77.26029,38.971887",
    "geom:latitude":38.971887,
    "geom:longitude":-77.26029,
    "iso:country":"US",
    "sg:address":"9100 White Chimney Ln",
    "sg:city":"Great Falls",
    "sg:classifiers":[
        {
            "category":"Professional",
            "subcategory":"Management & Consulting",
            "type":"Services"
        }
    ],
    "sg:owner":"simplegeo",
    "sg:phone":"+1 703 759 3004",
    "sg:postcode":"22066",
    "sg:province":"VA",
    "src:geom":"simplegeo",
    "wof:belongsto":[],
    "wof:breaches":[],
    "wof:concordances":{
        "sg:id":"SG_750MFbk57H8OXkqnZ55tgL_38.971887_-77.260290@1294252573"
    },
    "wof:country":"US",
    "wof:created":1461908894,
    "wof:geomhash":"ee9c4b363ec628a0c0791fd89da24f89",
    "wof:hierarchy":[],
    "wof:id":739525353,
    "wof:lastmodified":1461908894,
    "wof:name":"Wanda Wigfall-Williams",
    "wof:parent_id":-1,
    "wof:placetype":"venue",
    "wof:superseded_by":[],
    "wof:supersedes":[],
    "wof:tags":[]
},
  "bbox": [
    -77.26029,
    38.971887,
    -77.26029,
    38.971887
],
  "geometry": {"coordinates":[-77.26029,38.971887],"type":"Point"}
}