{
  "id": 723048015,
  "type": "Feature",
  "properties": {
    "edtf:cessation":"uuuu",
    "edtf:inception":"uuuu",
    "geom:area":0.0,
    "geom:bbox":"-79.142448,37.413515,-79.142448,37.413515",
    "geom:latitude":37.413515,
    "geom:longitude":-79.142448,
    "iso:country":"US",
    "sg:address":"900 Church St",
    "sg:city":"Lynchburg",
    "sg:classifiers":[
        {
            "category":"Government",
            "subcategory":"Office",
            "type":"Public Place"
        }
    ],
    "sg:owner":"simplegeo",
    "sg:phone":"+1 434 847 1572",
    "sg:postcode":"24504",
    "sg:province":"VA",
    "sg:tags":[
        "city",
        "planning",
        "dev"
    ],
    "src:geom":"simplegeo",
    "wof:belongsto":[],
    "wof:breaches":[],
    "wof:concordances":{
        "sg:id":"SG_45Q6KhLpUs3iaYiiF72lLz_37.413515_-79.142448@1294252573"
    },
    "wof:country":"US",
    "wof:created":1461893971,
    "wof:geomhash":"942d8deeb132d41a1f8825b254431f94",
    "wof:hierarchy":[],
    "wof:id":723048015,
    "wof:lastmodified":1461893971,
    "wof:name":"Lynchburg Zoning",
    "wof:parent_id":-1,
    "wof:placetype":"venue",
    "wof:superseded_by":[],
    "wof:supersedes":[],
    "wof:tags":[
        "city",
        "planning",
        "dev"
    ]
},
  "bbox": [
    -79.142448,
    37.413515,
    -79.142448,
    37.413515
],
  "geometry": {"coordinates":[-79.142448,37.413515],"type":"Point"}
}