{
  "id": 723241321,
  "type": "Feature",
  "properties": {
    "edtf:cessation":"uuuu",
    "edtf:inception":"uuuu",
    "geom:area":0.0,
    "geom:bbox":"-78.511716,38.873628,-78.511716,38.873628",
    "geom:latitude":38.873628,
    "geom:longitude":-78.511716,
    "iso:country":"US",
    "sg:address":"717 S Main St",
    "sg:city":"Woodstock",
    "sg:classifiers":[
        {
            "category":"Real Estate",
            "subcategory":"Real Estate Agent",
            "type":"Services"
        }
    ],
    "sg:owner":"simplegeo",
    "sg:phone":"+1 540 459 5178",
    "sg:postcode":"22664",
    "sg:province":"VA",
    "sg:tags":[
        "appraiser"
    ],
    "src:geom":"simplegeo",
    "wof:belongsto":[],
    "wof:breaches":[],
    "wof:concordances":{
        "sg:id":"SG_5dIY5L26nM4vA7qB4kDw51_38.873628_-78.511716@1294252573"
    },
    "wof:country":"US",
    "wof:created":1461897936,
    "wof:geomhash":"077935c1f64f51eba4eb6968122a7625",
    "wof:hierarchy":[],
    "wof:id":723241321,
    "wof:lastmodified":1461897936,
    "wof:name":"William M Wender",
    "wof:parent_id":-1,
    "wof:placetype":"venue",
    "wof:superseded_by":[],
    "wof:supersedes":[],
    "wof:tags":[
        "appraiser"
    ]
},
  "bbox": [
    -78.511716,
    38.873628,
    -78.511716,
    38.873628
],
  "geometry": {"coordinates":[-78.51171600000001,38.873628],"type":"Point"}
}