{
  "id": 723309163,
  "type": "Feature",
  "properties": {
    "edtf:cessation":"uuuu",
    "edtf:inception":"uuuu",
    "geom:area":0.0,
    "geom:bbox":"-77.494081,38.2529,-77.494081,38.2529",
    "geom:latitude":38.2529,
    "geom:longitude":-77.494081,
    "iso:country":"US",
    "sg:address":"4805 Carr Dr",
    "sg:city":"Fredericksburg",
    "sg:classifiers":[
        {
            "category":"Government",
            "subcategory":"Office",
            "type":"Public Place"
        }
    ],
    "sg:owner":"simplegeo",
    "sg:phone":"+1 540 373 8592",
    "sg:postcode":"22408",
    "sg:province":"VA",
    "sg:tags":[
        "conservation"
    ],
    "src:geom":"simplegeo",
    "wof:belongsto":[],
    "wof:breaches":[],
    "wof:concordances":{
        "sg:id":"SG_0SmaSgWC5rIubgNVCXH0np_38.252900_-77.494081@1294252573"
    },
    "wof:country":"US",
    "wof:created":1461899247,
    "wof:geomhash":"5d664aad831be405abe132e875e2dc65",
    "wof:hierarchy":[],
    "wof:id":723309163,
    "wof:lastmodified":1461899247,
    "wof:name":"Tri County Soil & Wtr Con Dst",
    "wof:parent_id":-1,
    "wof:placetype":"venue",
    "wof:superseded_by":[],
    "wof:supersedes":[],
    "wof:tags":[
        "conservation"
    ]
},
  "bbox": [
    -77.494081,
    38.2529,
    -77.494081,
    38.2529
],
  "geometry": {"coordinates":[-77.49408099999999,38.2529],"type":"Point"}
}