{
  "id": 723297133,
  "type": "Feature",
  "properties": {
    "edtf:cessation":"uuuu",
    "edtf:inception":"uuuu",
    "geom:area":0.0,
    "geom:bbox":"-80.070652,37.287772,-80.070652,37.287772",
    "geom:latitude":37.287772,
    "geom:longitude":-80.070652,
    "iso:country":"US",
    "sg:address":"726 Roanoke St",
    "sg:city":"Salem",
    "sg:classifiers":[
        {
            "category":"Wholesale",
            "subcategory":"Medical Equipment & Supplies",
            "type":"Manufacturing & Wholesale Goods"
        }
    ],
    "sg:owner":"simplegeo",
    "sg:phone":"+1 540 375 0907",
    "sg:postcode":"24153",
    "sg:province":"VA",
    "sg:tags":[
        "physician",
        "surgeon"
    ],
    "src:geom":"simplegeo",
    "wof:belongsto":[],
    "wof:breaches":[],
    "wof:concordances":{
        "sg:id":"SG_56hqWs6UKWcHxyxf8L8ILu_37.287772_-80.070652@1294252573"
    },
    "wof:country":"US",
    "wof:created":1461899006,
    "wof:geomhash":"55c7f78874819625fc95d579cdac63d2",
    "wof:hierarchy":[],
    "wof:id":723297133,
    "wof:lastmodified":1461899006,
    "wof:name":"Hoveround Corp",
    "wof:parent_id":-1,
    "wof:placetype":"venue",
    "wof:superseded_by":[],
    "wof:supersedes":[],
    "wof:tags":[
        "physician",
        "surgeon"
    ]
},
  "bbox": [
    -80.070652,
    37.287772,
    -80.070652,
    37.287772
],
  "geometry": {"coordinates":[-80.070652,37.287772],"type":"Point"}
}