{
  "id": 722822791,
  "type": "Feature",
  "properties": {
    "edtf:cessation":"uuuu",
    "edtf:inception":"uuuu",
    "geom:area":0.0,
    "geom:bbox":"-77.296901,39.034481,-77.296901,39.034481",
    "geom:latitude":39.034481,
    "geom:longitude":-77.296901,
    "iso:country":"US",
    "sg:address":"210 Falcon Ridge Rd",
    "sg:city":"Great Falls",
    "sg:classifiers":[
        {
            "category":"Utilities",
            "subcategory":"Telephone",
            "type":"Services"
        }
    ],
    "sg:owner":"simplegeo",
    "sg:phone":"+1 703 222 2143",
    "sg:postcode":"22066",
    "sg:province":"VA",
    "sg:tags":[
        "content",
        "provision",
        "internet"
    ],
    "src:geom":"simplegeo",
    "wof:belongsto":[],
    "wof:breaches":[],
    "wof:concordances":{
        "sg:id":"SG_3fQR5wwfIoK7NfXyB1ds8P_39.034481_-77.296901@1294252573"
    },
    "wof:country":"US",
    "wof:created":1461889316,
    "wof:geomhash":"f3429f5a414dc32c8ed9abc75c5c4c44",
    "wof:hierarchy":[],
    "wof:id":722822791,
    "wof:lastmodified":1461889316,
    "wof:name":"Quantum Edge LLC",
    "wof:parent_id":-1,
    "wof:placetype":"venue",
    "wof:superseded_by":[],
    "wof:supersedes":[],
    "wof:tags":[
        "content",
        "provision",
        "internet"
    ]
},
  "bbox": [
    -77.296901,
    39.034481,
    -77.296901,
    39.034481
],
  "geometry": {"coordinates":[-77.29690100000001,39.034481],"type":"Point"}
}