{
  "id": 723307109,
  "type": "Feature",
  "properties": {
    "edtf:cessation":"uuuu",
    "edtf:inception":"uuuu",
    "geom:area":0.0,
    "geom:bbox":"-79.313716,36.572399,-79.313716,36.572399",
    "geom:latitude":36.572399,
    "geom:longitude":-79.313716,
    "iso:country":"US",
    "sg:address":"150 Airside Dr",
    "sg:city":"Danville",
    "sg:classifiers":[
        {
            "category":"Manufacturing",
            "subcategory":"Tools & Machinery",
            "type":"Manufacturing & Wholesale Goods"
        }
    ],
    "sg:owner":"simplegeo",
    "sg:phone":"+1 434 822 4600",
    "sg:postcode":"24540",
    "sg:province":"VA",
    "sg:tags":[
        "equipment",
        "calculating",
        "mfg"
    ],
    "src:geom":"simplegeo",
    "wof:belongsto":[],
    "wof:breaches":[],
    "wof:concordances":{
        "sg:id":"SG_1CxFLdS4s7yWLc4RJpp424_36.572399_-79.313716@1294252573"
    },
    "wof:country":"US",
    "wof:created":1461899211,
    "wof:geomhash":"91da93ee2cb8bf9656f0eb19ad61b43f",
    "wof:hierarchy":[],
    "wof:id":723307109,
    "wof:lastmodified":1461899211,
    "wof:name":"Diebold Inc Plant 32",
    "wof:parent_id":-1,
    "wof:placetype":"venue",
    "wof:superseded_by":[],
    "wof:supersedes":[],
    "wof:tags":[
        "equipment",
        "calculating",
        "mfg"
    ]
},
  "bbox": [
    -79.313716,
    36.572399,
    -79.313716,
    36.572399
],
  "geometry": {"coordinates":[-79.313716,36.572399],"type":"Point"}
}