{
  "id": 723144441,
  "type": "Feature",
  "properties": {
    "edtf:cessation":"uuuu",
    "edtf:inception":"uuuu",
    "geom:area":0.0,
    "geom:bbox":"-78.317876,37.914435,-78.317876,37.914435",
    "geom:latitude":37.914435,
    "geom:longitude":-78.317876,
    "iso:country":"US",
    "sg:address":"7 Bellavista Rd",
    "sg:city":"Palmyra",
    "sg:classifiers":[
        {
            "category":"Building & Trades",
            "subcategory":"Construction",
            "type":"Services"
        }
    ],
    "sg:owner":"simplegeo",
    "sg:phone":"+1 434 971 1212",
    "sg:postcode":"22963",
    "sg:province":"VA",
    "sg:tags":[
        "home",
        "builder"
    ],
    "sg:website":"www.smartfingers.com",
    "src:geom":"simplegeo",
    "wof:belongsto":[],
    "wof:breaches":[],
    "wof:concordances":{
        "sg:id":"SG_4pZjV4JVX8xHfh0xYVfua4_37.914435_-78.317876@1294252573"
    },
    "wof:country":"US",
    "wof:created":1461895985,
    "wof:geomhash":"659fb60d2e6afd53c1d0adba029eec0b",
    "wof:hierarchy":[],
    "wof:id":723144441,
    "wof:lastmodified":1461895985,
    "wof:name":"Winlake Inc",
    "wof:parent_id":-1,
    "wof:placetype":"venue",
    "wof:superseded_by":[],
    "wof:supersedes":[],
    "wof:tags":[
        "home",
        "builder"
    ]
},
  "bbox": [
    -78.317876,
    37.914435,
    -78.317876,
    37.914435
],
  "geometry": {"coordinates":[-78.317876,37.914435],"type":"Point"}
}