{
  "id": 723204507,
  "type": "Feature",
  "properties": {
    "edtf:cessation":"uuuu",
    "edtf:inception":"uuuu",
    "geom:area":0.0,
    "geom:bbox":"-77.433145,38.762761,-77.433145,38.762761",
    "geom:latitude":38.762761,
    "geom:longitude":-77.433145,
    "iso:country":"US",
    "sg:address":"9440 Black Hawk Ct",
    "sg:city":"Manassas",
    "sg:classifiers":[
        {
            "category":"Professional",
            "subcategory":"Business Services",
            "type":"Services"
        }
    ],
    "sg:owner":"simplegeo",
    "sg:phone":"+1 703 392 9064",
    "sg:postcode":"20111",
    "sg:province":"VA",
    "src:geom":"simplegeo",
    "wof:belongsto":[],
    "wof:breaches":[],
    "wof:concordances":{
        "sg:id":"SG_65HCIt7bZIDXVzIlwu5vsJ_38.762761_-77.433145@1294252573"
    },
    "wof:country":"US",
    "wof:created":1461897161,
    "wof:geomhash":"bd55061c2829a3219bb7a960320f5e24",
    "wof:hierarchy":[],
    "wof:id":723204507,
    "wof:lastmodified":1461897161,
    "wof:name":"Temalle Ltd",
    "wof:parent_id":-1,
    "wof:placetype":"venue",
    "wof:superseded_by":[],
    "wof:supersedes":[],
    "wof:tags":[]
},
  "bbox": [
    -77.433145,
    38.762761,
    -77.433145,
    38.762761
],
  "geometry": {"coordinates":[-77.433145,38.762761],"type":"Point"}
}