{
  "id": 722835107,
  "type": "Feature",
  "properties": {
    "edtf:cessation":"uuuu",
    "edtf:inception":"uuuu",
    "geom:area":0.0,
    "geom:bbox":"-77.176369,38.670968,-77.176369,38.670968",
    "geom:latitude":38.670968,
    "geom:longitude":-77.176369,
    "iso:country":"US",
    "sg:address":"10643 Gunston Rd",
    "sg:city":"Lorton",
    "sg:classifiers":[
        {
            "category":"Professional",
            "subcategory":"",
            "type":"Services"
        }
    ],
    "sg:owner":"simplegeo",
    "sg:phone":"+1 703 339 3951",
    "sg:postcode":"22079",
    "sg:province":"VA",
    "src:geom":"simplegeo",
    "wof:belongsto":[],
    "wof:breaches":[],
    "wof:concordances":{
        "sg:id":"SG_6z5LMczWA3GeYeMTfe2FmR_38.670968_-77.176369@1294252573"
    },
    "wof:country":"US",
    "wof:created":1461889540,
    "wof:geomhash":"371db8cb039c57546acd19c0d13b4ee7",
    "wof:hierarchy":[],
    "wof:id":722835107,
    "wof:lastmodified":1461889540,
    "wof:name":"Exterior Professionals Inc",
    "wof:parent_id":-1,
    "wof:placetype":"venue",
    "wof:superseded_by":[],
    "wof:supersedes":[],
    "wof:tags":[]
},
  "bbox": [
    -77.176369,
    38.670968,
    -77.176369,
    38.670968
],
  "geometry": {"coordinates":[-77.17636899999999,38.670968],"type":"Point"}
}