{
  "id": 739617337,
  "type": "Feature",
  "properties": {
    "edtf:cessation":"uuuu",
    "edtf:inception":"uuuu",
    "geom:area":0.0,
    "geom:bbox":"-77.576008,38.695898,-77.576008,38.695898",
    "geom:latitude":38.695898,
    "geom:longitude":-77.576008,
    "iso:country":"US",
    "sg:address":"12029 Hooker Ln",
    "sg:city":"Nokesville",
    "sg:classifiers":[
        {
            "category":"Health Services",
            "subcategory":"Dentist",
            "type":"Services"
        }
    ],
    "sg:owner":"simplegeo",
    "sg:phone":"+1 703 594 2763",
    "sg:postcode":"20181",
    "sg:province":"VA",
    "src:geom":"simplegeo",
    "wof:belongsto":[],
    "wof:breaches":[],
    "wof:concordances":{
        "sg:id":"SG_6gXpKVqvZoeEETFnEE6qDB_38.695898_-77.576008@1303262497"
    },
    "wof:country":"US",
    "wof:created":1461910764,
    "wof:geomhash":"9a0edc9b4dbd1536312e6e9c60bc43da",
    "wof:hierarchy":[],
    "wof:id":739617337,
    "wof:lastmodified":1461910764,
    "wof:name":"Biosca E R DDS",
    "wof:parent_id":-1,
    "wof:placetype":"venue",
    "wof:superseded_by":[],
    "wof:supersedes":[],
    "wof:tags":[]
},
  "bbox": [
    -77.576008,
    38.695898,
    -77.576008,
    38.695898
],
  "geometry": {"coordinates":[-77.576008,38.695898],"type":"Point"}
}