{
  "id": 722737931,
  "type": "Feature",
  "properties": {
    "edtf:cessation":"uuuu",
    "edtf:inception":"uuuu",
    "geom:area":0.0,
    "geom:bbox":"-77.506326,38.252871,-77.506326,38.252871",
    "geom:latitude":38.252871,
    "geom:longitude":-77.506326,
    "iso:country":"US",
    "sg:address":"10825 Houser Dr",
    "sg:city":"Fredericksburg",
    "sg:classifiers":[
        {
            "category":"Social Services",
            "subcategory":"",
            "type":"Services"
        }
    ],
    "sg:owner":"simplegeo",
    "sg:phone":"+1 540 891 5009",
    "sg:postcode":"22408",
    "sg:province":"VA",
    "sg:tags":[
        "organization",
        "welfare"
    ],
    "src:geom":"simplegeo",
    "wof:belongsto":[],
    "wof:breaches":[],
    "wof:concordances":{
        "sg:id":"SG_3dB1F6deymxWJp1AcRPkl4_38.252871_-77.506326@1294252573"
    },
    "wof:country":"US",
    "wof:created":1461887700,
    "wof:geomhash":"bde1f40e24937941014c486f4acdd6cd",
    "wof:hierarchy":[],
    "wof:id":722737931,
    "wof:lastmodified":1461887700,
    "wof:name":"Habitat For Humanity",
    "wof:parent_id":-1,
    "wof:placetype":"venue",
    "wof:superseded_by":[],
    "wof:supersedes":[],
    "wof:tags":[
        "organization",
        "welfare"
    ]
},
  "bbox": [
    -77.506326,
    38.252871,
    -77.506326,
    38.252871
],
  "geometry": {"coordinates":[-77.506326,38.252871],"type":"Point"}
}