{
  "id": 722689219,
  "type": "Feature",
  "properties": {
    "edtf:cessation":"uuuu",
    "edtf:inception":"uuuu",
    "geom:area":0.0,
    "geom:bbox":"-78.190084,39.15043,-78.190084,39.15043",
    "geom:latitude":39.15043,
    "geom:longitude":-78.190084,
    "iso:country":"US",
    "sg:address":"2700 Saratoga Dr",
    "sg:city":"Winchester",
    "sg:classifiers":[
        {
            "category":"Professional",
            "subcategory":"Engineering",
            "type":"Services"
        }
    ],
    "sg:owner":"simplegeo",
    "sg:phone":"+1 540 722 6079",
    "sg:postcode":"22601",
    "sg:province":"VA",
    "sg:tags":[
        "engineer"
    ],
    "src:geom":"simplegeo",
    "wof:belongsto":[],
    "wof:breaches":[],
    "wof:concordances":{
        "sg:id":"SG_7ajRopbCnsJkl22k1joqj3_39.150430_-78.190084@1294252573"
    },
    "wof:country":"US",
    "wof:created":1461886769,
    "wof:geomhash":"1a12b1c6082d2e2a3bd2504c2610036d",
    "wof:hierarchy":[],
    "wof:id":722689219,
    "wof:lastmodified":1461886769,
    "wof:name":"Jk's Diamond Consulting Svc",
    "wof:parent_id":-1,
    "wof:placetype":"venue",
    "wof:superseded_by":[],
    "wof:supersedes":[],
    "wof:tags":[
        "engineer"
    ]
},
  "bbox": [
    -78.190084,
    39.15043,
    -78.190084,
    39.15043
],
  "geometry": {"coordinates":[-78.190084,39.15043],"type":"Point"}
}