{
  "id": 722870661,
  "type": "Feature",
  "properties": {
    "edtf:cessation":"uuuu",
    "edtf:inception":"uuuu",
    "geom:area":0.0,
    "geom:bbox":"-77.430873,38.759377,-77.430873,38.759377",
    "geom:latitude":38.759377,
    "geom:longitude":-77.430873,
    "iso:country":"US",
    "sg:address":"9214 Matthew Dr",
    "sg:city":"Manassas",
    "sg:classifiers":[
        {
            "category":"Banks & Credit Unions",
            "subcategory":"Bank",
            "type":"Services"
        }
    ],
    "sg:owner":"simplegeo",
    "sg:phone":"+1 703 369 0686",
    "sg:postcode":"20111",
    "sg:province":"VA",
    "sg:tags":[
        "foreign"
    ],
    "src:geom":"simplegeo",
    "wof:belongsto":[],
    "wof:breaches":[],
    "wof:concordances":{
        "sg:id":"SG_6oljGB5LHfHHAdqpRoXXFJ_38.759377_-77.430873@1294252573"
    },
    "wof:country":"US",
    "wof:created":1461890209,
    "wof:geomhash":"915fb31ed8b6c1de70a43559e3213235",
    "wof:hierarchy":[],
    "wof:id":722870661,
    "wof:lastmodified":1461890209,
    "wof:name":"Tak King Int Trading Co",
    "wof:parent_id":-1,
    "wof:placetype":"venue",
    "wof:superseded_by":[],
    "wof:supersedes":[],
    "wof:tags":[
        "foreign"
    ]
},
  "bbox": [
    -77.430873,
    38.759377,
    -77.430873,
    38.759377
],
  "geometry": {"coordinates":[-77.43087300000001,38.759377],"type":"Point"}
}