{
  "id": 723172441,
  "type": "Feature",
  "properties": {
    "edtf:cessation":"uuuu",
    "edtf:inception":"uuuu",
    "geom:area":0.0,
    "geom:bbox":"-77.489665,38.70908,-77.489665,38.70908",
    "geom:latitude":38.70908,
    "geom:longitude":-77.489665,
    "iso:country":"US",
    "sg:address":"11290 Lucasville Rd",
    "sg:city":"Manassas",
    "sg:classifiers":[
        {
            "category":"Real Estate",
            "subcategory":"Real Estate Agent",
            "type":"Services"
        }
    ],
    "sg:owner":"simplegeo",
    "sg:phone":"+1 703 361 0085",
    "sg:postcode":"20112",
    "sg:province":"VA",
    "src:geom":"simplegeo",
    "wof:belongsto":[],
    "wof:breaches":[],
    "wof:concordances":{
        "sg:id":"SG_5rkCrTO4Zoq14HePOXkvyQ_38.709080_-77.489665@1294252573"
    },
    "wof:country":"US",
    "wof:created":1461896527,
    "wof:geomhash":"feead5aa2dd46b3a9521447d9faa31bd",
    "wof:hierarchy":[],
    "wof:id":723172441,
    "wof:lastmodified":1461896527,
    "wof:name":"Diane Joy Barish",
    "wof:parent_id":-1,
    "wof:placetype":"venue",
    "wof:superseded_by":[],
    "wof:supersedes":[],
    "wof:tags":[]
},
  "bbox": [
    -77.489665,
    38.70908,
    -77.489665,
    38.70908
],
  "geometry": {"coordinates":[-77.489665,38.70908],"type":"Point"}
}