{
  "id": 723472465,
  "type": "Feature",
  "properties": {
    "edtf:cessation":"uuuu",
    "edtf:inception":"uuuu",
    "geom:area":0.0,
    "geom:bbox":"-77.445002,38.77002,-77.445002,38.77002",
    "geom:latitude":38.77002,
    "geom:longitude":-77.445002,
    "iso:country":"US",
    "sg:address":"8395 Euclid Ave",
    "sg:city":"Manassas",
    "sg:classifiers":[
        {
            "category":"Wholesale",
            "subcategory":"Machinery & Supplies",
            "type":"Manufacturing & Wholesale Goods"
        }
    ],
    "sg:owner":"simplegeo",
    "sg:phone":"+1 703 366 3006",
    "sg:postcode":"20111",
    "sg:province":"VA",
    "src:geom":"simplegeo",
    "wof:belongsto":[],
    "wof:breaches":[],
    "wof:concordances":{
        "sg:id":"SG_2eaC9Rezh2IqSPXXQapjbG_38.770020_-77.445002@1294252573"
    },
    "wof:country":"US",
    "wof:created":1461902364,
    "wof:geomhash":"bca7ad1ec17be68e4f374d87a5721da1",
    "wof:hierarchy":[],
    "wof:id":723472465,
    "wof:lastmodified":1461902364,
    "wof:name":"Kelly's Granite & Marble",
    "wof:parent_id":-1,
    "wof:placetype":"venue",
    "wof:superseded_by":[],
    "wof:supersedes":[],
    "wof:tags":[]
},
  "bbox": [
    -77.445002,
    38.77002,
    -77.445002,
    38.77002
],
  "geometry": {"coordinates":[-77.445002,38.77002],"type":"Point"}
}