{
  "id": 722660793,
  "type": "Feature",
  "properties": {
    "edtf:cessation":"uuuu",
    "edtf:inception":"uuuu",
    "geom:area":0.0,
    "geom:bbox":"-79.670961,36.781657,-79.670961,36.781657",
    "geom:latitude":36.781657,
    "geom:longitude":-79.670961,
    "iso:country":"US",
    "sg:address":"11960 Chatham Rd",
    "sg:city":"Axton",
    "sg:classifiers":[
        {
            "category":"Professional",
            "subcategory":"",
            "type":"Services"
        }
    ],
    "sg:owner":"simplegeo",
    "sg:phone":"+1 276 650 8240",
    "sg:postcode":"24054",
    "sg:province":"VA",
    "src:geom":"simplegeo",
    "wof:belongsto":[],
    "wof:breaches":[],
    "wof:concordances":{
        "sg:id":"SG_774iKDS5dq1uB6VERFQvak_36.781657_-79.670961@1294252573"
    },
    "wof:country":"US",
    "wof:created":1461886217,
    "wof:geomhash":"bdd01fa6b344ce7a2457d6729011c578",
    "wof:hierarchy":[],
    "wof:id":722660793,
    "wof:lastmodified":1461886217,
    "wof:name":"Niblett Body Service",
    "wof:parent_id":-1,
    "wof:placetype":"venue",
    "wof:superseded_by":[],
    "wof:supersedes":[],
    "wof:tags":[]
},
  "bbox": [
    -79.670961,
    36.781657,
    -79.670961,
    36.781657
],
  "geometry": {"coordinates":[-79.67096100000001,36.781657],"type":"Point"}
}