{
  "id": 723087291,
  "type": "Feature",
  "properties": {
    "edtf:cessation":"uuuu",
    "edtf:inception":"uuuu",
    "geom:area":0.0,
    "geom:bbox":"-77.179913,38.234069,-77.179913,38.234069",
    "geom:latitude":38.234069,
    "geom:longitude":-77.179913,
    "iso:country":"US",
    "sg:address":"9507 Gera Rd",
    "sg:city":"King George",
    "sg:classifiers":[
        {
            "category":"Professional",
            "subcategory":"Accounting & Tax Preparation",
            "type":"Services"
        }
    ],
    "sg:owner":"simplegeo",
    "sg:phone":"+1 540 775 3551",
    "sg:postcode":"22485",
    "sg:province":"VA",
    "sg:tags":[
        "bookkeeping",
        "general"
    ],
    "src:geom":"simplegeo",
    "wof:belongsto":[],
    "wof:breaches":[],
    "wof:concordances":{
        "sg:id":"SG_4kF3X5Ttul29raZqFnvVUX_38.234069_-77.179913@1294252573"
    },
    "wof:country":"US",
    "wof:created":1461894864,
    "wof:geomhash":"1cee0a6b5a977584c3dc88a02dcdaae7",
    "wof:hierarchy":[],
    "wof:id":723087291,
    "wof:lastmodified":1461894864,
    "wof:name":"Brabant's Bookkeeping & Tax",
    "wof:parent_id":-1,
    "wof:placetype":"venue",
    "wof:superseded_by":[],
    "wof:supersedes":[],
    "wof:tags":[
        "bookkeeping",
        "general"
    ]
},
  "bbox": [
    -77.179913,
    38.234069,
    -77.179913,
    38.234069
],
  "geometry": {"coordinates":[-77.179913,38.234069],"type":"Point"}
}