{
  "id": 723486929,
  "type": "Feature",
  "properties": {
    "edtf:cessation":"uuuu",
    "edtf:inception":"uuuu",
    "geom:area":0.0,
    "geom:bbox":"-77.87497,37.533241,-77.87497,37.533241",
    "geom:latitude":37.533241,
    "geom:longitude":-77.87497,
    "iso:country":"US",
    "sg:address":"3228 Buckingham Rd",
    "sg:city":"Powhatan",
    "sg:classifiers":[
        {
            "category":"Organizations",
            "subcategory":"Religious Organization",
            "type":"Services"
        }
    ],
    "sg:owner":"simplegeo",
    "sg:phone":"+1 804 598 7588",
    "sg:postcode":"23139",
    "sg:province":"VA",
    "src:geom":"simplegeo",
    "wof:belongsto":[],
    "wof:breaches":[],
    "wof:concordances":{
        "sg:id":"SG_6Ox3k5KVXPdBHrBPvWCZxt_37.533241_-77.874970@1294252573"
    },
    "wof:country":"US",
    "wof:created":1461902672,
    "wof:geomhash":"83cada0641c43c69622135ec2512ef9c",
    "wof:hierarchy":[],
    "wof:id":723486929,
    "wof:lastmodified":1461902672,
    "wof:name":"Powhatan Congregation",
    "wof:parent_id":-1,
    "wof:placetype":"venue",
    "wof:superseded_by":[],
    "wof:supersedes":[],
    "wof:tags":[]
},
  "bbox": [
    -77.87497,
    37.533241,
    -77.87497,
    37.533241
],
  "geometry": {"coordinates":[-77.87497,37.533241],"type":"Point"}
}