{
  "id": 723139761,
  "type": "Feature",
  "properties": {
    "edtf:cessation":"uuuu",
    "edtf:inception":"uuuu",
    "geom:area":0.0,
    "geom:bbox":"-80.632855,37.320618,-80.632855,37.320618",
    "geom:latitude":37.320618,
    "geom:longitude":-80.632855,
    "iso:country":"US",
    "sg:address":"612 Snidow St",
    "sg:city":"Pembroke",
    "sg:classifiers":[
        {
            "category":"Professional",
            "subcategory":"",
            "type":"Services"
        }
    ],
    "sg:owner":"simplegeo",
    "sg:phone":"+1 540 626 7002",
    "sg:postcode":"24136",
    "sg:province":"VA",
    "sg:tags":[
        "establishment"
    ],
    "src:geom":"simplegeo",
    "wof:belongsto":[],
    "wof:breaches":[],
    "wof:concordances":{
        "sg:id":"SG_3P9BIY2TCC9hazS1nICaWw_37.320618_-80.632855@1294252573"
    },
    "wof:country":"US",
    "wof:created":1461895897,
    "wof:geomhash":"2543b787e7284f9df22da1d3d70c1982",
    "wof:hierarchy":[],
    "wof:id":723139761,
    "wof:lastmodified":1461895897,
    "wof:name":"On Air Outlet",
    "wof:parent_id":-1,
    "wof:placetype":"venue",
    "wof:superseded_by":[],
    "wof:supersedes":[],
    "wof:tags":[
        "establishment"
    ]
},
  "bbox": [
    -80.632855,
    37.320618,
    -80.632855,
    37.320618
],
  "geometry": {"coordinates":[-80.63285500000001,37.320618],"type":"Point"}
}