{
  "id": 722672187,
  "type": "Feature",
  "properties": {
    "edtf:cessation":"uuuu",
    "edtf:inception":"uuuu",
    "geom:area":0.0,
    "geom:bbox":"-77.498301,37.643747,-77.498301,37.643747",
    "geom:latitude":37.643747,
    "geom:longitude":-77.498301,
    "iso:country":"US",
    "sg:address":"9502 Paragon Dr",
    "sg:city":"Richmond",
    "sg:classifiers":[
        {
            "category":"Building & Trades",
            "subcategory":"Construction",
            "type":"Services"
        }
    ],
    "sg:owner":"simplegeo",
    "sg:phone":"+1 804 266 8593",
    "sg:postcode":"23228",
    "sg:province":"VA",
    "sg:tags":[
        "contractor"
    ],
    "src:geom":"simplegeo",
    "wof:belongsto":[],
    "wof:breaches":[],
    "wof:concordances":{
        "sg:id":"SG_1I07IJnEOCPeyPpLlp3GLV_37.643747_-77.498301@1294252573"
    },
    "wof:country":"US",
    "wof:created":1461886436,
    "wof:geomhash":"541ef09e416eab77de7428fa2a3daad8",
    "wof:hierarchy":[],
    "wof:id":722672187,
    "wof:lastmodified":1461886436,
    "wof:name":"Whitlocks Tile LLC",
    "wof:parent_id":-1,
    "wof:placetype":"venue",
    "wof:superseded_by":[],
    "wof:supersedes":[],
    "wof:tags":[
        "contractor"
    ]
},
  "bbox": [
    -77.498301,
    37.643747,
    -77.498301,
    37.643747
],
  "geometry": {"coordinates":[-77.498301,37.643747],"type":"Point"}
}