{
  "id": 722657505,
  "type": "Feature",
  "properties": {
    "edtf:cessation":"uuuu",
    "edtf:inception":"uuuu",
    "geom:area":0.0,
    "geom:bbox":"-77.519026,37.656536,-77.519026,37.656536",
    "geom:latitude":37.656536,
    "geom:longitude":-77.519026,
    "iso:country":"US",
    "sg:address":"10203 Delray Rd",
    "sg:city":"Glen Allen",
    "sg:classifiers":[
        {
            "category":"Professional",
            "subcategory":"Management & Consulting",
            "type":"Services"
        }
    ],
    "sg:owner":"simplegeo",
    "sg:phone":"+1 804 672 6261",
    "sg:postcode":"23060",
    "sg:province":"VA",
    "src:geom":"simplegeo",
    "wof:belongsto":[],
    "wof:breaches":[],
    "wof:concordances":{
        "sg:id":"SG_7dgl3K5vf6dw5V5eYJJ8Yf_37.656536_-77.519026@1294252573"
    },
    "wof:country":"US",
    "wof:created":1461886159,
    "wof:geomhash":"7fb1a4284fc7ca542552317ba61ee6b6",
    "wof:hierarchy":[],
    "wof:id":722657505,
    "wof:lastmodified":1461886159,
    "wof:name":"Hunt Capital Mgmt",
    "wof:parent_id":-1,
    "wof:placetype":"venue",
    "wof:superseded_by":[],
    "wof:supersedes":[],
    "wof:tags":[]
},
  "bbox": [
    -77.519026,
    37.656536,
    -77.519026,
    37.656536
],
  "geometry": {"coordinates":[-77.519026,37.656536],"type":"Point"}
}