{
  "id": 723162779,
  "type": "Feature",
  "properties": {
    "edtf:cessation":"uuuu",
    "edtf:inception":"uuuu",
    "geom:area":0.0,
    "geom:bbox":"-80.920047,36.590034,-80.920047,36.590034",
    "geom:latitude":36.590034,
    "geom:longitude":-80.920047,
    "iso:country":"US",
    "sg:address":"2597 Skyline Hwy",
    "sg:city":"Galax",
    "sg:classifiers":[
        {
            "category":"Shopping",
            "subcategory":"Computers & Home Electronics",
            "type":"Retail Goods"
        }
    ],
    "sg:owner":"simplegeo",
    "sg:phone":"+1 276 236 8888",
    "sg:postcode":"24333",
    "sg:province":"VA",
    "src:geom":"simplegeo",
    "wof:belongsto":[],
    "wof:breaches":[],
    "wof:concordances":{
        "sg:id":"SG_3ReehIt7SpgnBIVMlJ6EYg_36.590034_-80.920047@1294252573"
    },
    "wof:country":"US",
    "wof:created":1461896336,
    "wof:geomhash":"89c8fe6acb1b32cd2bf95747dcfd70d6",
    "wof:hierarchy":[],
    "wof:id":723162779,
    "wof:lastmodified":1461896336,
    "wof:name":"Airport Video",
    "wof:parent_id":-1,
    "wof:placetype":"venue",
    "wof:superseded_by":[],
    "wof:supersedes":[],
    "wof:tags":[]
},
  "bbox": [
    -80.920047,
    36.590034,
    -80.920047,
    36.590034
],
  "geometry": {"coordinates":[-80.920047,36.590034],"type":"Point"}
}