{
  "id": 723095645,
  "type": "Feature",
  "properties": {
    "edtf:cessation":"uuuu",
    "edtf:inception":"uuuu",
    "geom:area":0.0,
    "geom:bbox":"-77.574705,37.445551,-77.574705,37.445551",
    "geom:latitude":37.445551,
    "geom:longitude":-77.574705,
    "iso:country":"US",
    "sg:address":"9601 Hull Street Rd",
    "sg:city":"Richmond",
    "sg:classifiers":[
        {
            "category":"Organizations",
            "subcategory":"Religious Organization",
            "type":"Services"
        }
    ],
    "sg:owner":"simplegeo",
    "sg:phone":"+1 804 276 4271",
    "sg:postcode":"23236",
    "sg:province":"VA",
    "src:geom":"simplegeo",
    "wof:belongsto":[],
    "wof:breaches":[],
    "wof:concordances":{
        "sg:id":"SG_5J02QgINNuIYlJkApK3U4E_37.445551_-77.574705@1294252573"
    },
    "wof:country":"US",
    "wof:created":1461895030,
    "wof:geomhash":"5a1bc0759c4566949a5af0403e57811b",
    "wof:hierarchy":[],
    "wof:id":723095645,
    "wof:lastmodified":1461895030,
    "wof:name":"Lutheran Church Of Our Saviour",
    "wof:parent_id":420546613,
    "wof:placetype":"venue",
    "wof:superseded_by":[],
    "wof:supersedes":[],
    "wof:tags":[]
},
  "bbox": [
    -77.574705,
    37.445551,
    -77.574705,
    37.445551
],
  "geometry": {"coordinates":[-77.57470499999999,37.445551],"type":"Point"}
}