{
  "id": 739390033,
  "type": "Feature",
  "properties": {
    "edtf:cessation":"uuuu",
    "edtf:inception":"uuuu",
    "geom:area":0.0,
    "geom:bbox":"-77.444158,38.245005,-77.444158,38.245005",
    "geom:latitude":38.245005,
    "geom:longitude":-77.444158,
    "iso:country":"US",
    "sg:address":"3224 Mine Rd",
    "sg:city":"Fredericksburg",
    "sg:classifiers":[
        {
            "category":"Home & Garden",
            "subcategory":"Furniture",
            "type":"Retail Goods"
        }
    ],
    "sg:owner":"simplegeo",
    "sg:phone":"+1 540 898 2071",
    "sg:postcode":"22408",
    "sg:province":"VA",
    "src:geom":"simplegeo",
    "wof:belongsto":[],
    "wof:breaches":[],
    "wof:concordances":{
        "sg:id":"SG_22HIyr4pljDMPFvBEe57Aw_38.245005_-77.444158@1294252573"
    },
    "wof:country":"US",
    "wof:created":1461906390,
    "wof:geomhash":"138411ba869020ba6096c0016fcefb14",
    "wof:hierarchy":[],
    "wof:id":739390033,
    "wof:lastmodified":1461906390,
    "wof:name":"Mine Road Cabinets",
    "wof:parent_id":-1,
    "wof:placetype":"venue",
    "wof:superseded_by":[],
    "wof:supersedes":[],
    "wof:tags":[]
},
  "bbox": [
    -77.444158,
    38.245005,
    -77.444158,
    38.245005
],
  "geometry": {"coordinates":[-77.444158,38.245005],"type":"Point"}
}