{
  "id": 722856737,
  "type": "Feature",
  "properties": {
    "edtf:cessation":"uuuu",
    "edtf:inception":"uuuu",
    "geom:area":0.0,
    "geom:bbox":"-77.434387,38.841929,-77.434387,38.841929",
    "geom:latitude":38.841929,
    "geom:longitude":-77.434387,
    "iso:country":"US",
    "sg:address":"5870 Trinity Post Way",
    "sg:city":"Centreville",
    "sg:classifiers":[
        {
            "category":"Travel",
            "subcategory":"Travel Agent",
            "type":"Entertainment"
        }
    ],
    "sg:owner":"simplegeo",
    "sg:phone":"+1 703 988 9002",
    "sg:postcode":"20120",
    "sg:province":"VA",
    "sg:tags":[
        "agency"
    ],
    "src:geom":"simplegeo",
    "wof:belongsto":[],
    "wof:breaches":[],
    "wof:concordances":{
        "sg:id":"SG_5B35y0TyOHLKiaJ87WDM6b_38.841929_-77.434387@1294252573"
    },
    "wof:country":"US",
    "wof:created":1461889951,
    "wof:geomhash":"52be5b1bcfb8341514a0fd9bb4e60d6b",
    "wof:hierarchy":[],
    "wof:id":722856737,
    "wof:lastmodified":1461889951,
    "wof:name":"Travel Agent Arbiter Inc",
    "wof:parent_id":-1,
    "wof:placetype":"venue",
    "wof:superseded_by":[],
    "wof:supersedes":[],
    "wof:tags":[
        "agency"
    ]
},
  "bbox": [
    -77.434387,
    38.841929,
    -77.434387,
    38.841929
],
  "geometry": {"coordinates":[-77.434387,38.841929],"type":"Point"}
}