{
  "id": 722938737,
  "type": "Feature",
  "properties": {
    "edtf:cessation":"uuuu",
    "edtf:inception":"uuuu",
    "geom:area":0.0,
    "geom:bbox":"-77.508358,37.632543,-77.508358,37.632543",
    "geom:latitude":37.632543,
    "geom:longitude":-77.508358,
    "iso:country":"US",
    "sg:address":"4122 E Parham Rd",
    "sg:city":"Richmond",
    "sg:classifiers":[
        {
            "category":"Real Estate",
            "subcategory":"Real Estate Agent",
            "type":"Services"
        },
        {
            "category":"Professional",
            "subcategory":"Management & Consulting",
            "type":"Services"
        }
    ],
    "sg:owner":"simplegeo",
    "sg:phone":"+1 804 672 9222",
    "sg:postcode":"23228",
    "sg:province":"VA",
    "src:geom":"simplegeo",
    "wof:belongsto":[],
    "wof:breaches":[],
    "wof:concordances":{
        "sg:id":"SG_33nCu5Ef1vOWkO2i1Z93w4_37.632543_-77.508358@1294252573"
    },
    "wof:country":"US",
    "wof:created":1461891605,
    "wof:geomhash":"e1649ef16a646174ee5b22ab5f5cc9f0",
    "wof:hierarchy":[],
    "wof:id":722938737,
    "wof:lastmodified":1461891605,
    "wof:name":"Blake Management Group Inc",
    "wof:parent_id":-1,
    "wof:placetype":"venue",
    "wof:superseded_by":[],
    "wof:supersedes":[],
    "wof:tags":[]
},
  "bbox": [
    -77.508358,
    37.632543,
    -77.508358,
    37.632543
],
  "geometry": {"coordinates":[-77.508358,37.632543],"type":"Point"}
}