{
  "id": 739625549,
  "type": "Feature",
  "properties": {
    "edtf:cessation":"uuuu",
    "edtf:inception":"uuuu",
    "geom:area":0.0,
    "geom:bbox":"-77.26944,38.844841,-77.26944,38.844841",
    "geom:latitude":38.844841,
    "geom:longitude":-77.26944,
    "iso:country":"US",
    "sg:address":"9401 Mathy Dr",
    "sg:city":"Fairfax",
    "sg:classifiers":[
        {
            "category":"Professional",
            "subcategory":"Accounting & Tax Preparation",
            "type":"Services"
        },
        {
            "category":"Professional",
            "subcategory":"Management & Consulting",
            "type":"Services"
        },
        {
            "category":"Banks & Credit Unions",
            "subcategory":"Financial Services",
            "type":"Services"
        }
    ],
    "sg:owner":"simplegeo",
    "sg:phone":"+1 703 323 1633",
    "sg:postcode":"22031",
    "sg:province":"VA",
    "sg:tags":[
        "consultant",
        "financing",
        "planning",
        "bookkeeping"
    ],
    "src:geom":"simplegeo",
    "wof:belongsto":[],
    "wof:breaches":[],
    "wof:concordances":{
        "sg:id":"SG_0Oq0dg3v53oECZ0VL9IdJv_38.844841_-77.269440@1303262538"
    },
    "wof:country":"US",
    "wof:created":1461910948,
    "wof:geomhash":"53f17603a96891141bf1f1129b18dc21",
    "wof:hierarchy":[],
    "wof:id":739625549,
    "wof:lastmodified":1461910948,
    "wof:name":"Finance & Accounting Services Inc",
    "wof:parent_id":-1,
    "wof:placetype":"venue",
    "wof:superseded_by":[],
    "wof:supersedes":[],
    "wof:tags":[
        "consultant",
        "financing",
        "planning",
        "bookkeeping"
    ]
},
  "bbox": [
    -77.26944,
    38.844841,
    -77.26944,
    38.844841
],
  "geometry": {"coordinates":[-77.26944,38.844841],"type":"Point"}
}