{
  "id": 722556379,
  "type": "Feature",
  "properties": {
    "edtf:cessation":"uuuu",
    "edtf:inception":"uuuu",
    "geom:area":0.0,
    "geom:bbox":"-77.131619,37.742733,-77.131619,37.742733",
    "geom:latitude":37.742733,
    "geom:longitude":-77.131619,
    "iso:country":"US",
    "sg:address":"812 Sharon Rd",
    "sg:city":"King William",
    "sg:classifiers":[
        {
            "category":"Manufacturing",
            "subcategory":"Tools & Machinery",
            "type":"Manufacturing & Wholesale Goods"
        }
    ],
    "sg:owner":"simplegeo",
    "sg:phone":"+1 804 769 4319",
    "sg:postcode":"23086",
    "sg:province":"VA",
    "sg:tags":[
        "industry",
        "mfg"
    ],
    "src:geom":"simplegeo",
    "wof:belongsto":[],
    "wof:breaches":[],
    "wof:concordances":{
        "sg:id":"SG_3y4hIjYx5wCZlKK4zLZ0qO_37.742733_-77.131619@1294252573"
    },
    "wof:country":"US",
    "wof:created":1461884136,
    "wof:geomhash":"e0634a40cfd1b5c8bae5159efafca4bd",
    "wof:hierarchy":[],
    "wof:id":722556379,
    "wof:lastmodified":1461884136,
    "wof:name":"Superior Garniture Components",
    "wof:parent_id":-1,
    "wof:placetype":"venue",
    "wof:superseded_by":[],
    "wof:supersedes":[],
    "wof:tags":[
        "industry",
        "mfg"
    ]
},
  "bbox": [
    -77.131619,
    37.742733,
    -77.131619,
    37.742733
],
  "geometry": {"coordinates":[-77.131619,37.742733],"type":"Point"}
}