{
  "id": 722985965,
  "type": "Feature",
  "properties": {
    "edtf:cessation":"uuuu",
    "edtf:inception":"uuuu",
    "geom:area":0.0,
    "geom:bbox":"-77.437618,38.894438,-77.437618,38.894438",
    "geom:latitude":38.894438,
    "geom:longitude":-77.437618,
    "iso:country":"US",
    "sg:address":"14220 Sullyfield Cir",
    "sg:city":"Chantilly",
    "sg:classifiers":[
        {
            "category":"Retail",
            "subcategory":"Repair Shop",
            "type":"Services"
        }
    ],
    "sg:owner":"simplegeo",
    "sg:phone":"+1 703 378 0544",
    "sg:postcode":"20151",
    "sg:province":"VA",
    "src:geom":"simplegeo",
    "wof:belongsto":[],
    "wof:breaches":[],
    "wof:concordances":{
        "sg:id":"SG_1HggCk2WwTCc7DgtJGQjsX_38.894438_-77.437618@1294252573"
    },
    "wof:country":"US",
    "wof:created":1461892601,
    "wof:geomhash":"e7b50cedd770337879bc5f23e02c0ba0",
    "wof:hierarchy":[],
    "wof:id":722985965,
    "wof:lastmodified":1461892601,
    "wof:name":"Chantilly Uphostery",
    "wof:parent_id":-1,
    "wof:placetype":"venue",
    "wof:superseded_by":[],
    "wof:supersedes":[],
    "wof:tags":[]
},
  "bbox": [
    -77.437618,
    38.894438,
    -77.437618,
    38.894438
],
  "geometry": {"coordinates":[-77.437618,38.894438],"type":"Point"}
}