{
  "id": 739583007,
  "type": "Feature",
  "properties": {
    "edtf:cessation":"uuuu",
    "edtf:inception":"uuuu",
    "geom:area":0.0,
    "geom:bbox":"-77.51598,38.299584,-77.51598,38.299584",
    "geom:latitude":38.299584,
    "geom:longitude":-77.51598,
    "iso:country":"US",
    "sg:address":"1280 Central Park Blvd",
    "sg:city":"Fredericksburg",
    "sg:classifiers":[
        {
            "category":"Restaurant",
            "subcategory":"",
            "type":"Food & Drink"
        }
    ],
    "sg:menulink":"http://www.allmenus.com/va/fredericksburg/64548-chuck-e-cheeses/menu/",
    "sg:owner":"simplegeo",
    "sg:phone":"+1 540 786 9935",
    "sg:postcode":"22401",
    "sg:province":"VA",
    "sg:tags":[
        "american",
        "pizza"
    ],
    "src:geom":"simplegeo",
    "wof:belongsto":[],
    "wof:breaches":[],
    "wof:concordances":{
        "sg:id":"SG_241ZPNj79M1SAVM0YhctzS_38.299584_-77.515980@1299784598"
    },
    "wof:country":"US",
    "wof:created":1461910066,
    "wof:geomhash":"3e258e16cb07ea8cd99e121eb8f44a26",
    "wof:hierarchy":[],
    "wof:id":739583007,
    "wof:lastmodified":1461910066,
    "wof:name":"Chuck E. Cheese's",
    "wof:parent_id":-1,
    "wof:placetype":"venue",
    "wof:superseded_by":[],
    "wof:supersedes":[],
    "wof:tags":[
        "american",
        "pizza"
    ]
},
  "bbox": [
    -77.51598,
    38.299584,
    -77.51598,
    38.299584
],
  "geometry": {"coordinates":[-77.51598,38.299584],"type":"Point"}
}