{
  "id": 723252507,
  "type": "Feature",
  "properties": {
    "edtf:cessation":"uuuu",
    "edtf:inception":"uuuu",
    "geom:area":0.0,
    "geom:bbox":"-77.583098,37.646744,-77.583098,37.646744",
    "geom:latitude":37.646744,
    "geom:longitude":-77.583098,
    "iso:country":"US",
    "sg:address":"10751 W Broad St",
    "sg:city":"Glen Allen",
    "sg:classifiers":[
        {
            "category":"Autos & Motor Vehicles",
            "subcategory":"Automobile Sales",
            "type":"Retail Goods"
        }
    ],
    "sg:owner":"simplegeo",
    "sg:phone":"+1 804 273 9700",
    "sg:postcode":"23060",
    "sg:province":"VA",
    "sg:tags":[
        "car",
        "dealer"
    ],
    "sg:website":"www.universalford.com",
    "src:geom":"simplegeo",
    "wof:belongsto":[],
    "wof:breaches":[],
    "wof:concordances":{
        "sg:id":"SG_3RtoPGsGRJTcAsXRaqCZey_37.646744_-77.583098@1294252573"
    },
    "wof:country":"US",
    "wof:created":1461898172,
    "wof:geomhash":"0871fe651f57df2005da8836cb2ab11c",
    "wof:hierarchy":[],
    "wof:id":723252507,
    "wof:lastmodified":1461898172,
    "wof:name":"Universal Ford Inc",
    "wof:parent_id":-1,
    "wof:placetype":"venue",
    "wof:superseded_by":[],
    "wof:supersedes":[],
    "wof:tags":[
        "car",
        "dealer"
    ]
},
  "bbox": [
    -77.583098,
    37.646744,
    -77.583098,
    37.646744
],
  "geometry": {"coordinates":[-77.58309800000001,37.646744],"type":"Point"}
}