{
  "id": 739627491,
  "type": "Feature",
  "properties": {
    "edtf:cessation":"uuuu",
    "edtf:inception":"uuuu",
    "geom:area":0.0,
    "geom:bbox":"-77.118401,38.851002,-77.118401,38.851002",
    "geom:latitude":38.851002,
    "geom:longitude":-77.118401,
    "iso:country":"US",
    "sg:address":"3501 S Jefferson St",
    "sg:city":"Falls Church",
    "sg:classifiers":[
        {
            "category":"Restaurant",
            "subcategory":"",
            "type":"Food & Drink"
        }
    ],
    "sg:owner":"simplegeo",
    "sg:phone":"+1 703 671 8788",
    "sg:postcode":"22041",
    "sg:province":"VA",
    "src:geom":"simplegeo",
    "wof:belongsto":[],
    "wof:breaches":[],
    "wof:concordances":{
        "sg:id":"SG_3xBGhT4rZOdqXJBiVHqGnB_38.851002_-77.118401@1303262538"
    },
    "wof:country":"US",
    "wof:created":1461910981,
    "wof:geomhash":"da7db6e791c7e2a6ed09199b73e82218",
    "wof:hierarchy":[],
    "wof:id":739627491,
    "wof:lastmodified":1461910981,
    "wof:name":"Bamboo Buffett",
    "wof:parent_id":-1,
    "wof:placetype":"venue",
    "wof:superseded_by":[],
    "wof:supersedes":[],
    "wof:tags":[]
},
  "bbox": [
    -77.118401,
    38.851002,
    -77.118401,
    38.851002
],
  "geometry": {"coordinates":[-77.11840100000001,38.851002],"type":"Point"}
}