{
  "id": 722908479,
  "type": "Feature",
  "properties": {
    "edtf:cessation":"uuuu",
    "edtf:inception":"uuuu",
    "geom:area":0.0,
    "geom:bbox":"-76.543162,37.117866,-76.543162,37.117866",
    "geom:latitude":37.117866,
    "geom:longitude":-76.543162,
    "iso:country":"US",
    "sg:address":"144 Sandpiper St",
    "sg:city":"Newport News",
    "sg:classifiers":[
        {
            "category":"Real Estate",
            "subcategory":"Real Estate Agent",
            "type":"Services"
        }
    ],
    "sg:owner":"simplegeo",
    "sg:phone":"+1 757 874 6411",
    "sg:postcode":"23602",
    "sg:province":"VA",
    "src:geom":"simplegeo",
    "wof:belongsto":[],
    "wof:breaches":[],
    "wof:concordances":{
        "sg:id":"SG_2xnKedmPVWBgR3MvfbdWBb_37.117866_-76.543162@1294252573"
    },
    "wof:country":"US",
    "wof:created":1461890958,
    "wof:geomhash":"b220480eac581b05883c1b644a43d811",
    "wof:hierarchy":[],
    "wof:id":722908479,
    "wof:lastmodified":1461890958,
    "wof:name":"Lord Properties",
    "wof:parent_id":-1,
    "wof:placetype":"venue",
    "wof:superseded_by":[],
    "wof:supersedes":[],
    "wof:tags":[]
},
  "bbox": [
    -76.543162,
    37.117866,
    -76.543162,
    37.117866
],
  "geometry": {"coordinates":[-76.543162,37.117866],"type":"Point"}
}