{
  "id": 722722265,
  "type": "Feature",
  "properties": {
    "edtf:cessation":"uuuu",
    "edtf:inception":"uuuu",
    "geom:area":0.0,
    "geom:bbox":"-77.380584,37.601318,-77.380584,37.601318",
    "geom:latitude":37.601318,
    "geom:longitude":-77.380584,
    "iso:country":"US",
    "sg:address":"8147 Elm Dr",
    "sg:city":"Mechanicsville",
    "sg:classifiers":[
        {
            "category":"Building & Trades",
            "subcategory":"Construction",
            "type":"Services"
        }
    ],
    "sg:owner":"simplegeo",
    "sg:phone":"+1 804 559 1107",
    "sg:postcode":"23111",
    "sg:province":"VA",
    "sg:tags":[
        "utility",
        "contractor"
    ],
    "src:geom":"simplegeo",
    "wof:belongsto":[],
    "wof:breaches":[],
    "wof:concordances":{
        "sg:id":"SG_5GaBraqeOBnVKswINIXLvL_37.601318_-77.380584@1294252573"
    },
    "wof:country":"US",
    "wof:created":1461887388,
    "wof:geomhash":"2739eeaeab274a788f22e94e5e05c68f",
    "wof:hierarchy":[],
    "wof:id":722722265,
    "wof:lastmodified":1461887388,
    "wof:name":"Old Dominion Storm & Site",
    "wof:parent_id":-1,
    "wof:placetype":"venue",
    "wof:superseded_by":[],
    "wof:supersedes":[],
    "wof:tags":[
        "utility",
        "contractor"
    ]
},
  "bbox": [
    -77.380584,
    37.601318,
    -77.380584,
    37.601318
],
  "geometry": {"coordinates":[-77.380584,37.601318],"type":"Point"}
}