{
  "id": 722894449,
  "type": "Feature",
  "properties": {
    "edtf:cessation":"uuuu",
    "edtf:inception":"uuuu",
    "geom:area":0.0,
    "geom:bbox":"-77.440793,37.634613,-77.440793,37.634613",
    "geom:latitude":37.634613,
    "geom:longitude":-77.440793,
    "iso:country":"US",
    "sg:address":"8200 Bowers Ln",
    "sg:city":"Richmond",
    "sg:classifiers":[
        {
            "category":"Building & Trades",
            "subcategory":"Landscaping Services",
            "type":"Services"
        }
    ],
    "sg:owner":"simplegeo",
    "sg:phone":"+1 804 264 2728",
    "sg:postcode":"23227",
    "sg:province":"VA",
    "src:geom":"simplegeo",
    "wof:belongsto":[],
    "wof:breaches":[],
    "wof:concordances":{
        "sg:id":"SG_4zsFGKrNPvHg9dqJWyADyM_37.634613_-77.440793@1294252573"
    },
    "wof:country":"US",
    "wof:created":1461890669,
    "wof:geomhash":"86dbfd3fc0efb7f6f7cf838f0c932ec8",
    "wof:hierarchy":[],
    "wof:id":722894449,
    "wof:lastmodified":1461890669,
    "wof:name":"Advance Tree Services",
    "wof:parent_id":-1,
    "wof:placetype":"venue",
    "wof:superseded_by":[],
    "wof:supersedes":[],
    "wof:tags":[]
},
  "bbox": [
    -77.440793,
    37.634613,
    -77.440793,
    37.634613
],
  "geometry": {"coordinates":[-77.440793,37.634613],"type":"Point"}
}