{
  "id": 722674013,
  "type": "Feature",
  "properties": {
    "edtf:cessation":"uuuu",
    "edtf:inception":"uuuu",
    "geom:area":0.0,
    "geom:bbox":"-78.149254,39.186173,-78.149254,39.186173",
    "geom:latitude":39.186173,
    "geom:longitude":-78.149254,
    "iso:country":"US",
    "sg:address":"732 Berryville Ave",
    "sg:city":"Winchester",
    "sg:classifiers":[
        {
            "category":"Shopping",
            "subcategory":"Musical Instruments",
            "type":"Retail Goods"
        }
    ],
    "sg:owner":"simplegeo",
    "sg:phone":"+1 540 535 1686",
    "sg:postcode":"22601",
    "sg:province":"VA",
    "src:geom":"simplegeo",
    "wof:belongsto":[],
    "wof:breaches":[],
    "wof:concordances":{
        "sg:id":"SG_4v2QWPdRlxZsF07aU26j0Q_39.186173_-78.149254@1294252573"
    },
    "wof:country":"US",
    "wof:created":1461886467,
    "wof:geomhash":"03092b664e2671ad84cfe4ac9ade0775",
    "wof:hierarchy":[],
    "wof:id":722674013,
    "wof:lastmodified":1461886467,
    "wof:name":"Paraiso Musical Inc",
    "wof:parent_id":-1,
    "wof:placetype":"venue",
    "wof:superseded_by":[],
    "wof:supersedes":[],
    "wof:tags":[]
},
  "bbox": [
    -78.149254,
    39.186173,
    -78.149254,
    39.186173
],
  "geometry": {"coordinates":[-78.149254,39.186173],"type":"Point"}
}