{
  "id": 723068305,
  "type": "Feature",
  "properties": {
    "edtf:cessation":"uuuu",
    "edtf:inception":"uuuu",
    "geom:area":0.0,
    "geom:bbox":"-77.453617,38.775787,-77.453617,38.775787",
    "geom:latitude":38.775787,
    "geom:longitude":-77.453617,
    "iso:country":"US",
    "sg:address":"8270 Shoppers Sq",
    "sg:city":"Manassas",
    "sg:classifiers":[
        {
            "category":"Social Services",
            "subcategory":"Child Care",
            "type":"Services"
        }
    ],
    "sg:owner":"simplegeo",
    "sg:phone":"+1 703 361 7313",
    "sg:postcode":"20111",
    "sg:province":"VA",
    "sg:tags":[
        "day"
    ],
    "src:geom":"simplegeo",
    "wof:belongsto":[],
    "wof:breaches":[],
    "wof:concordances":{
        "sg:id":"SG_2d5kwGKMPjrXHAx1hGhUpY_38.775787_-77.453617@1294252573"
    },
    "wof:country":"US",
    "wof:created":1461894413,
    "wof:geomhash":"de8a6c85d0bf90c3c926519fd266da48",
    "wof:hierarchy":[],
    "wof:id":723068305,
    "wof:lastmodified":1461894413,
    "wof:name":"Kids Choice",
    "wof:parent_id":-1,
    "wof:placetype":"venue",
    "wof:superseded_by":[],
    "wof:supersedes":[],
    "wof:tags":[
        "day"
    ]
},
  "bbox": [
    -77.453617,
    38.775787,
    -77.453617,
    38.775787
],
  "geometry": {"coordinates":[-77.45361699999999,38.775787],"type":"Point"}
}