{
  "id": 722670973,
  "type": "Feature",
  "properties": {
    "edtf:cessation":"uuuu",
    "edtf:inception":"uuuu",
    "geom:area":0.0,
    "geom:bbox":"-77.447015,37.693424,-77.447015,37.693424",
    "geom:latitude":37.693424,
    "geom:longitude":-77.447015,
    "iso:country":"US",
    "sg:address":"10101 Leadbetter Pl",
    "sg:city":"Ashland",
    "sg:classifiers":[
        {
            "category":"Building & Trades",
            "subcategory":"Pest Control",
            "type":"Services"
        }
    ],
    "sg:owner":"simplegeo",
    "sg:phone":"+1 804 550 1060",
    "sg:postcode":"23005",
    "sg:province":"VA",
    "src:geom":"simplegeo",
    "wof:belongsto":[],
    "wof:breaches":[],
    "wof:concordances":{
        "sg:id":"SG_4UPVfxpjqZyhg96qwX4lXw_37.693424_-77.447015@1294252573"
    },
    "wof:country":"US",
    "wof:created":1461886416,
    "wof:geomhash":"939bed3700142150c2b59bf8f08c4c40",
    "wof:hierarchy":[],
    "wof:id":722670973,
    "wof:lastmodified":1461886416,
    "wof:name":"Orkin Pest Control 454",
    "wof:parent_id":-1,
    "wof:placetype":"venue",
    "wof:superseded_by":[],
    "wof:supersedes":[],
    "wof:tags":[]
},
  "bbox": [
    -77.447015,
    37.693424,
    -77.447015,
    37.693424
],
  "geometry": {"coordinates":[-77.44701499999999,37.693424],"type":"Point"}
}