{
  "id": 723439247,
  "type": "Feature",
  "properties": {
    "edtf:cessation":"uuuu",
    "edtf:inception":"uuuu",
    "geom:area":0.0,
    "geom:bbox":"-81.982694,36.707969,-81.982694,36.707969",
    "geom:latitude":36.707969,
    "geom:longitude":-81.982694,
    "iso:country":"US",
    "sg:address":"400 W Main St",
    "sg:city":"Abingdon",
    "sg:classifiers":[
        {
            "category":"Shopping",
            "subcategory":"Computers & Home Electronics",
            "type":"Retail Goods"
        }
    ],
    "sg:owner":"simplegeo",
    "sg:phone":"+1 276 628 2413",
    "sg:postcode":"24210",
    "sg:province":"VA",
    "sg:tags":[
        "equipment",
        "electronic",
        "supply"
    ],
    "src:geom":"simplegeo",
    "wof:belongsto":[],
    "wof:breaches":[],
    "wof:concordances":{
        "sg:id":"SG_2Yjzby4pJdX6E2Pkb5HwQs_36.707969_-81.982694@1294252573"
    },
    "wof:country":"US",
    "wof:created":1461901744,
    "wof:geomhash":"19ea62ab314a86c5b5a75930657768f2",
    "wof:hierarchy":[],
    "wof:id":723439247,
    "wof:lastmodified":1461901744,
    "wof:name":"Abingdon Electronics",
    "wof:parent_id":420547307,
    "wof:placetype":"venue",
    "wof:superseded_by":[],
    "wof:supersedes":[],
    "wof:tags":[
        "equipment",
        "electronic",
        "supply"
    ]
},
  "bbox": [
    -81.982694,
    36.707969,
    -81.982694,
    36.707969
],
  "geometry": {"coordinates":[-81.982694,36.707969],"type":"Point"}
}