{
  "id": 723327127,
  "type": "Feature",
  "properties": {
    "edtf:cessation":"uuuu",
    "edtf:inception":"uuuu",
    "geom:area":0.0,
    "geom:bbox":"-77.652767,37.409366,-77.652767,37.409366",
    "geom:latitude":37.409366,
    "geom:longitude":-77.652767,
    "iso:country":"US",
    "sg:address":"13618 Hull Street Rd",
    "sg:city":"Midlothian",
    "sg:classifiers":[
        {
            "category":"Health Services",
            "subcategory":"Health Practitioner",
            "type":"Services"
        }
    ],
    "sg:owner":"simplegeo",
    "sg:phone":"+1 804 739 4669",
    "sg:postcode":"23112",
    "sg:province":"VA",
    "sg:tags":[
        "psychologist"
    ],
    "sg:website":"www.psylaw.com",
    "src:geom":"simplegeo",
    "wof:belongsto":[],
    "wof:breaches":[],
    "wof:concordances":{
        "sg:id":"SG_791I4uBJ5AjNGn8Efk0iam_37.409366_-77.652767@1294252573"
    },
    "wof:country":"US",
    "wof:created":1461899576,
    "wof:geomhash":"393269e2a3113c4a2ea47e33fa2438c2",
    "wof:hierarchy":[],
    "wof:id":723327127,
    "wof:lastmodified":1461899576,
    "wof:name":"Forensic Psychology Assoc",
    "wof:parent_id":-1,
    "wof:placetype":"venue",
    "wof:superseded_by":[],
    "wof:supersedes":[],
    "wof:tags":[
        "psychologist"
    ]
},
  "bbox": [
    -77.652767,
    37.409366,
    -77.652767,
    37.409366
],
  "geometry": {"coordinates":[-77.652767,37.409366],"type":"Point"}
}