{
  "id": 722830247,
  "type": "Feature",
  "properties": {
    "edtf:cessation":"uuuu",
    "edtf:inception":"uuuu",
    "geom:area":0.0,
    "geom:bbox":"-80.001296,37.318954,-80.001296,37.318954",
    "geom:latitude":37.318954,
    "geom:longitude":-80.001296,
    "iso:country":"US",
    "sg:address":"3025 Peters Creek Rd NW",
    "sg:city":"Roanoke",
    "sg:classifiers":[
        {
            "category":"Government",
            "subcategory":"Fire Station",
            "type":"Public Place"
        }
    ],
    "sg:owner":"simplegeo",
    "sg:phone":"+1 540 562 3546",
    "sg:postcode":"24019",
    "sg:province":"VA",
    "sg:tags":[
        "state",
        "protection"
    ],
    "src:geom":"simplegeo",
    "wof:belongsto":[],
    "wof:breaches":[],
    "wof:concordances":{
        "sg:id":"SG_6wUuC7hESEN6JMlVWtXMC9_37.318954_-80.001296@1294252573"
    },
    "wof:country":"US",
    "wof:created":1461889451,
    "wof:geomhash":"c5c6e166fbe9520e07524c7da20d22bc",
    "wof:hierarchy":[],
    "wof:id":722830247,
    "wof:lastmodified":1461889451,
    "wof:name":"Fire Marshall",
    "wof:parent_id":-1,
    "wof:placetype":"venue",
    "wof:superseded_by":[],
    "wof:supersedes":[],
    "wof:tags":[
        "state",
        "protection"
    ]
},
  "bbox": [
    -80.001296,
    37.318954,
    -80.001296,
    37.318954
],
  "geometry": {"coordinates":[-80.001296,37.318954],"type":"Point"}
}