{
  "id": 739300597,
  "type": "Feature",
  "properties": {
    "edtf:cessation":"uuuu",
    "edtf:inception":"uuuu",
    "geom:area":0.0,
    "geom:bbox":"-77.371814,37.648956,-77.371814,37.648956",
    "geom:latitude":37.648956,
    "geom:longitude":-77.371814,
    "iso:country":"US",
    "sg:address":"9111 Fenway Dr",
    "sg:city":"Mechanicsville",
    "sg:classifiers":[
        {
            "category":"Organizations",
            "subcategory":"Community Association",
            "type":"Services"
        }
    ],
    "sg:owner":"simplegeo",
    "sg:phone":"+1 804 730 6375",
    "sg:postcode":"23116",
    "sg:province":"VA",
    "src:geom":"simplegeo",
    "wof:belongsto":[],
    "wof:breaches":[],
    "wof:concordances":{
        "sg:id":"SG_3FhgDcwwghZ9u106BD83T9_37.648956_-77.371814@1294252573"
    },
    "wof:country":"US",
    "wof:created":1461904591,
    "wof:geomhash":"4389a76a643881a5b101ca556e8d3e5a",
    "wof:hierarchy":[],
    "wof:id":739300597,
    "wof:lastmodified":1461904591,
    "wof:name":"Lambda Zeta Chap Kappa Sigma",
    "wof:parent_id":-1,
    "wof:placetype":"venue",
    "wof:superseded_by":[],
    "wof:supersedes":[],
    "wof:tags":[]
},
  "bbox": [
    -77.371814,
    37.648956,
    -77.371814,
    37.648956
],
  "geometry": {"coordinates":[-77.371814,37.648956],"type":"Point"}
}