{
  "id": 739289495,
  "type": "Feature",
  "properties": {
    "edtf:cessation":"uuuu",
    "edtf:inception":"uuuu",
    "geom:area":0.0,
    "geom:bbox":"-78.186065,37.398653,-78.186065,37.398653",
    "geom:latitude":37.398653,
    "geom:longitude":-78.186065,
    "iso:country":"US",
    "sg:address":"12602 Reed Rock Rd",
    "sg:city":"Amelia Court House",
    "sg:classifiers":[
        {
            "category":"Professional",
            "subcategory":"Computer Services",
            "type":"Services"
        }
    ],
    "sg:owner":"simplegeo",
    "sg:phone":"+1 804 561 4516",
    "sg:postcode":"23002",
    "sg:province":"VA",
    "sg:tags":[
        "information",
        "researching"
    ],
    "src:geom":"simplegeo",
    "wof:belongsto":[],
    "wof:breaches":[],
    "wof:concordances":{
        "sg:id":"SG_2LfuK69Uq4A6t8zvHse1Jm_37.398653_-78.186065@1294252573"
    },
    "wof:country":"US",
    "wof:created":1461904358,
    "wof:geomhash":"7b15a4cbb441b168c489a7eba46f3f74",
    "wof:hierarchy":[],
    "wof:id":739289495,
    "wof:lastmodified":1461904358,
    "wof:name":"Fpin",
    "wof:parent_id":-1,
    "wof:placetype":"venue",
    "wof:superseded_by":[],
    "wof:supersedes":[],
    "wof:tags":[
        "information",
        "researching"
    ]
},
  "bbox": [
    -78.186065,
    37.398653,
    -78.186065,
    37.398653
],
  "geometry": {"coordinates":[-78.186065,37.398653],"type":"Point"}
}