{
  "id": 739710563,
  "type": "Feature",
  "properties": {
    "edtf:cessation":"uuuu",
    "edtf:inception":"uuuu",
    "geom:area":0.0,
    "geom:bbox":"-77.628966,37.529894,-77.628966,37.529894",
    "geom:latitude":37.529894,
    "geom:longitude":-77.628966,
    "iso:country":"US",
    "sg:address":"12420 Robious Rd",
    "sg:city":"Midlothian",
    "sg:classifiers":[
        {
            "category":"Recreation",
            "subcategory":"Boat Charter",
            "type":"Entertainment"
        }
    ],
    "sg:owner":"simplegeo",
    "sg:phone":"+1 804 378 2233",
    "sg:postcode":"23113",
    "sg:province":"VA",
    "sg:tags":[
        "tour"
    ],
    "src:geom":"simplegeo",
    "wof:belongsto":[],
    "wof:breaches":[],
    "wof:concordances":{
        "sg:id":"SG_4QbPcCXAu3sqmXAnDNv76o_37.529894_-77.628966@1303262549"
    },
    "wof:country":"US",
    "wof:created":1461912794,
    "wof:geomhash":"5eb823d75d0848110c067fd7a83d7412",
    "wof:hierarchy":[],
    "wof:id":739710563,
    "wof:lastmodified":1461912794,
    "wof:name":"Starboard Logistics",
    "wof:parent_id":-1,
    "wof:placetype":"venue",
    "wof:superseded_by":[],
    "wof:supersedes":[],
    "wof:tags":[
        "tour"
    ]
},
  "bbox": [
    -77.628966,
    37.529894,
    -77.628966,
    37.529894
],
  "geometry": {"coordinates":[-77.62896600000001,37.529894],"type":"Point"}
}