{
  "id": 723233605,
  "type": "Feature",
  "properties": {
    "edtf:cessation":"uuuu",
    "edtf:inception":"uuuu",
    "geom:area":0.0,
    "geom:bbox":"-76.228647,36.745619,-76.228647,36.745619",
    "geom:latitude":36.745619,
    "geom:longitude":-76.228647,
    "iso:country":"US",
    "sg:address":"608 Green Tree Rd",
    "sg:city":"Chesapeake",
    "sg:classifiers":[
        {
            "category":"Retail",
            "subcategory":"Repair Shop",
            "type":"Services"
        }
    ],
    "sg:owner":"simplegeo",
    "sg:phone":"+1 757 549 7760",
    "sg:postcode":"23320",
    "sg:province":"VA",
    "sg:tags":[
        "electrical",
        "maintenance"
    ],
    "src:geom":"simplegeo",
    "wof:belongsto":[],
    "wof:breaches":[],
    "wof:concordances":{
        "sg:id":"SG_0GqxeV0vZlfMYTiJlRoWq1_36.745619_-76.228647@1294252573"
    },
    "wof:country":"US",
    "wof:created":1461897781,
    "wof:geomhash":"067b18cdc7c915ae5657c49b2225cbb8",
    "wof:hierarchy":[],
    "wof:id":723233605,
    "wof:lastmodified":1461897781,
    "wof:name":"Trandes Corporation",
    "wof:parent_id":-1,
    "wof:placetype":"venue",
    "wof:superseded_by":[],
    "wof:supersedes":[],
    "wof:tags":[
        "electrical",
        "maintenance"
    ]
},
  "bbox": [
    -76.228647,
    36.745619,
    -76.228647,
    36.745619
],
  "geometry": {"coordinates":[-76.228647,36.745619],"type":"Point"}
}