{
  "id": 722899465,
  "type": "Feature",
  "properties": {
    "edtf:cessation":"uuuu",
    "edtf:inception":"uuuu",
    "geom:area":0.0,
    "geom:bbox":"-77.28966,38.998268,-77.28966,38.998268",
    "geom:latitude":38.998268,
    "geom:longitude":-77.28966,
    "iso:country":"US",
    "sg:address":"9913 Georgetown Pike",
    "sg:city":"Great Falls",
    "sg:classifiers":[
        {
            "category":"Real Estate",
            "subcategory":"Developer",
            "type":"Services"
        }
    ],
    "sg:owner":"simplegeo",
    "sg:phone":"+1 703 757 8090",
    "sg:postcode":"22066",
    "sg:province":"VA",
    "src:geom":"simplegeo",
    "wof:belongsto":[],
    "wof:breaches":[],
    "wof:concordances":{
        "sg:id":"SG_0NxNQ3z2N2erdvGZv0dPfD_38.998268_-77.289660@1294252573"
    },
    "wof:country":"US",
    "wof:created":1461890781,
    "wof:geomhash":"066e5759d2c050f687f132ecb32c4ea8",
    "wof:hierarchy":[],
    "wof:id":722899465,
    "wof:lastmodified":1461890781,
    "wof:name":"Ziegler Co",
    "wof:parent_id":-1,
    "wof:placetype":"venue",
    "wof:superseded_by":[],
    "wof:supersedes":[],
    "wof:tags":[]
},
  "bbox": [
    -77.28966,
    38.998268,
    -77.28966,
    38.998268
],
  "geometry": {"coordinates":[-77.28966,38.998268],"type":"Point"}
}