{
  "id": 722542955,
  "type": "Feature",
  "properties": {
    "edtf:cessation":"uuuu",
    "edtf:inception":"uuuu",
    "geom:area":0.0,
    "geom:bbox":"-80.029183,37.276091,-80.029183,37.276091",
    "geom:latitude":37.276091,
    "geom:longitude":-80.029183,
    "iso:country":"US",
    "sg:address":"1758 Roanoke Blvd",
    "sg:city":"Salem",
    "sg:classifiers":[
        {
            "category":"Education",
            "subcategory":"School",
            "type":"Public Place"
        }
    ],
    "sg:owner":"simplegeo",
    "sg:phone":"+1 540 857 5040",
    "sg:postcode":"24153",
    "sg:province":"VA",
    "src:geom":"simplegeo",
    "wof:belongsto":[],
    "wof:breaches":[],
    "wof:concordances":{
        "sg:id":"SG_3HSD8H6I77R944pPcV9UbS_37.276091_-80.029183@1294252573"
    },
    "wof:country":"US",
    "wof:created":1461883868,
    "wof:geomhash":"a767c9626a73e349241541a04aec9cac",
    "wof:hierarchy":[],
    "wof:id":722542955,
    "wof:lastmodified":1461883868,
    "wof:name":"Roanoke County Adult Education",
    "wof:parent_id":-1,
    "wof:placetype":"venue",
    "wof:superseded_by":[],
    "wof:supersedes":[],
    "wof:tags":[]
},
  "bbox": [
    -80.029183,
    37.276091,
    -80.029183,
    37.276091
],
  "geometry": {"coordinates":[-80.029183,37.276091],"type":"Point"}
}