{
  "id": 739482533,
  "type": "Feature",
  "properties": {
    "edtf:cessation":"uuuu",
    "edtf:inception":"uuuu",
    "geom:area":0.0,
    "geom:bbox":"-78.038188,36.705515,-78.038188,36.705515",
    "geom:latitude":36.705515,
    "geom:longitude":-78.038188,
    "iso:country":"US",
    "sg:address":"173 Piney Pond Rd",
    "sg:city":"Brodnax",
    "sg:classifiers":[
        {
            "category":"Retail",
            "subcategory":"Auto Repair",
            "type":"Services"
        }
    ],
    "sg:owner":"simplegeo",
    "sg:phone":"+1 434 729 5464",
    "sg:postcode":"23920",
    "sg:province":"VA",
    "sg:tags":[
        "general"
    ],
    "src:geom":"simplegeo",
    "wof:belongsto":[],
    "wof:breaches":[],
    "wof:concordances":{
        "sg:id":"SG_0GwWqMbdNMtZ1wfimwzLx4_36.705515_-78.038188@1294252573"
    },
    "wof:country":"US",
    "wof:created":1461908116,
    "wof:geomhash":"f7fb475c8ec730fc4ba9820cc7f8c1b1",
    "wof:hierarchy":[],
    "wof:id":739482533,
    "wof:lastmodified":1461908116,
    "wof:name":"Kings Truck & Automotive Serv",
    "wof:parent_id":-1,
    "wof:placetype":"venue",
    "wof:superseded_by":[],
    "wof:supersedes":[],
    "wof:tags":[
        "general"
    ]
},
  "bbox": [
    -78.038188,
    36.705515,
    -78.038188,
    36.705515
],
  "geometry": {"coordinates":[-78.03818800000001,36.705515],"type":"Point"}
}