{
  "id": 739364473,
  "type": "Feature",
  "properties": {
    "edtf:cessation":"uuuu",
    "edtf:inception":"uuuu",
    "geom:area":0.0,
    "geom:bbox":"-78.307851,38.234879,-78.307851,38.234879",
    "geom:latitude":38.234879,
    "geom:longitude":-78.307851,
    "iso:country":"US",
    "sg:address":"12353 Albano Rd",
    "sg:city":"Barboursville",
    "sg:classifiers":[
        {
            "category":"Real Estate",
            "subcategory":"Architect",
            "type":"Services"
        }
    ],
    "sg:owner":"simplegeo",
    "sg:phone":"+1 540 832 5641",
    "sg:postcode":"22923",
    "sg:province":"VA",
    "sg:tags":[
        "architectural"
    ],
    "src:geom":"simplegeo",
    "wof:belongsto":[],
    "wof:breaches":[],
    "wof:concordances":{
        "sg:id":"SG_61Zwdv3GlLegU9qSrtdi19_38.234879_-78.307851@1294252573"
    },
    "wof:country":"US",
    "wof:created":1461905892,
    "wof:geomhash":"f603736b0e393beea6296700676c7e5f",
    "wof:hierarchy":[],
    "wof:id":739364473,
    "wof:lastmodified":1461905892,
    "wof:name":"Bradford Designs",
    "wof:parent_id":-1,
    "wof:placetype":"venue",
    "wof:superseded_by":[],
    "wof:supersedes":[],
    "wof:tags":[
        "architectural"
    ]
},
  "bbox": [
    -78.307851,
    38.234879,
    -78.307851,
    38.234879
],
  "geometry": {"coordinates":[-78.307851,38.234879],"type":"Point"}
}