{
  "id": 739455179,
  "type": "Feature",
  "properties": {
    "edtf:cessation":"uuuu",
    "edtf:inception":"uuuu",
    "geom:area":0.0,
    "geom:bbox":"-77.376278,37.720362,-77.376278,37.720362",
    "geom:latitude":37.720362,
    "geom:longitude":-77.376278,
    "iso:country":"US",
    "sg:address":"11442 Hillcrest Rd",
    "sg:city":"Hanover",
    "sg:classifiers":[
        {
            "category":"Real Estate",
            "subcategory":"Real Estate Operator",
            "type":"Services"
        }
    ],
    "sg:owner":"simplegeo",
    "sg:phone":"+1 804 746 2218",
    "sg:postcode":"23069",
    "sg:province":"VA",
    "sg:tags":[
        "building",
        "apartment"
    ],
    "src:geom":"simplegeo",
    "wof:belongsto":[],
    "wof:breaches":[],
    "wof:concordances":{
        "sg:id":"SG_3fB2Qd4CVlLUy92U2AEpzm_37.720362_-77.376278@1294252573"
    },
    "wof:country":"US",
    "wof:created":1461907631,
    "wof:geomhash":"893d5ecebc1a636763f767142e5b65b6",
    "wof:hierarchy":[],
    "wof:id":739455179,
    "wof:lastmodified":1461907631,
    "wof:name":"Gate Oaks Apts",
    "wof:parent_id":-1,
    "wof:placetype":"venue",
    "wof:superseded_by":[],
    "wof:supersedes":[],
    "wof:tags":[
        "building",
        "apartment"
    ]
},
  "bbox": [
    -77.376278,
    37.720362,
    -77.376278,
    37.720362
],
  "geometry": {"coordinates":[-77.376278,37.720362],"type":"Point"}
}